CONTINENT,COUNTRY,POSTAL_CODE,CITY,STATE,COUNTY
Australia,AU,200,Australian National University,Australian Capital Territory,CANBERRA
Australia,AU,2540,Jervis Bay,Australian Capital Territory,NEW CNTRY WEST
Australia,AU,2540,Hmas Creswell,Australian Capital Territory,NEW CNTRY WEST
Australia,AU,2905,Calwell,Australian Capital Territory,CANBERRA
Australia,AU,2905,Gilmore,Australian Capital Territory,CANBERRA
Australia,AU,2906,Gordon,Australian Capital Territory,CANBERRA
Australia,AU,2906,Conder,Australian Capital Territory,CANBERRA
Australia,AU,2906,Banks,Australian Capital Territory,CANBERRA
Australia,AU,2911,Mitchell,Australian Capital Territory,CANBERRA
Australia,AU,2912,Gungahlin,Australian Capital Territory,CANBERRA
Australia,AU,2913,Ginninderra Village,Australian Capital Territory,CANBERRA
Australia,AU,2913,Palmerston,Australian Capital Territory,CANBERRA
Australia,AU,2913,Nicholls,Australian Capital Territory,CANBERRA
Australia,AU,2913,Ngunnawal,Australian Capital Territory,CANBERRA
Australia,AU,2914,Amaroo,Australian Capital Territory,CANBERRA
Australia,AU,1215,Australia Square,New South Wales,SYDNEY STREETS
Australia,AU,1220,Grosvenor Place,New South Wales,SYDNEY STREETS
Australia,AU,1225,Royal Exchange,New South Wales,SYDNEY STREETS
Australia,AU,1230,Queen Victoria Building,New South Wales,SYDNEY STREETS
Australia,AU,1235,Sydney South,New South Wales,SYDNEY STREETS
Australia,AU,1240,Haymarket,New South Wales,SYDNEY STREETS
Australia,AU,1300,Darlinghurst,New South Wales,SYDNEY STREETS
Australia,AU,1335,Potts Point,New South Wales,SYDNEY STREETS
Australia,AU,1340,Kings Cross,New South Wales,SYDNEY STREETS
Australia,AU,1350,Woollahra,New South Wales,BONDI
Australia,AU,1355,Bondi Junction,New South Wales,BONDI
Australia,AU,1360,Double Bay,New South Wales,BONDI
Australia,AU,1363,Moore Park,New South Wales,BONDI
Australia,AU,1435,Alexandria,New South Wales,BONDI
Australia,AU,1445,Rosebery,New South Wales,BONDI
Australia,AU,1450,Camperdown,New South Wales,LEICHHARDT
Australia,AU,1455,Botany,New South Wales,BONDI
Australia,AU,1460,Mascot,New South Wales,BONDI
Australia,AU,1465,Kensington,New South Wales,BONDI
Australia,AU,1466,Unsw Sydney,New South Wales,BONDI
Australia,AU,1470,Drummoyne,New South Wales,LEICHHARDT
Australia,AU,1475,Marrickville,New South Wales,LEICHHARDT
Australia,AU,1480,Kingsgrove,New South Wales,ST GEORGE
Australia,AU,1481,Hurstville Bc,New South Wales,ST GEORGE
Australia,AU,1485,Kogarah,New South Wales,ST GEORGE
Australia,AU,1490,Miranda,New South Wales,ILLAWARRA
Australia,AU,1495,Caringbah,New South Wales,ILLAWARRA
Australia,AU,1499,Sutherland,New South Wales,ILLAWARRA
Australia,AU,1515,West Chatswood,New South Wales,CHATSWOOD
Australia,AU,1560,Northbridge,New South Wales,CHATSWOOD
Australia,AU,1565,Milsons Point,New South Wales,CHATSWOOD
Australia,AU,1570,Artarmon,New South Wales,CHATSWOOD
Australia,AU,1585,Crows Nest,New South Wales,CHATSWOOD
Australia,AU,1590,St Leonards,New South Wales,CHATSWOOD
Australia,AU,1595,Lane Cove,New South Wales,CHATSWOOD
Australia,AU,1630,Hornsby,New South Wales,GOSFORD
Australia,AU,1635,Hornsby Westfield,New South Wales,GOSFORD
Australia,AU,1639,Frenchs Forest,New South Wales,WARRINGAH
Australia,AU,1670,North Ryde Bc,New South Wales,GOSFORD
Australia,AU,1675,Gladesville,New South Wales,CHATSWOOD
Australia,AU,1680,Ryde,New South Wales,GOSFORD
Australia,AU,1685,West Ryde,New South Wales,GOSFORD
Australia,AU,1700,Ermington,New South Wales,PARRAMATTA
Australia,AU,1701,Rydalmere Bc,New South Wales,PARRAMATTA
Australia,AU,1710,Epping,New South Wales,GOSFORD
Australia,AU,1715,Pennant Hills,New South Wales,GOSFORD
Australia,AU,1730,Seven Hills,New South Wales,RICHMOND
Australia,AU,1750,North Parramatta,New South Wales,PARRAMATTA
Australia,AU,1755,Baulkham Hills,New South Wales,RICHMOND
Australia,AU,1765,Castle Hill,New South Wales,RICHMOND
Australia,AU,1790,St Marys,New South Wales,PENRITH
Australia,AU,1800,Ashfield,New South Wales,ST GEORGE
Australia,AU,1805,Burwood,New South Wales,PARRAMATTA
Australia,AU,1811,Silverwater,New South Wales,PARRAMATTA
Australia,AU,1825,Lidcombe,New South Wales,PARRAMATTA
Australia,AU,1835,Auburn,New South Wales,BANKSTOWN
Australia,AU,1851,Wetherill Park Dc,New South Wales,BANKSTOWN
Australia,AU,1860,Fairfield,New South Wales,BANKSTOWN
Australia,AU,1871,Liverpool,New South Wales,CAMPBELLTOWN
Australia,AU,1875,Moorebank,New South Wales,CAMPBELLTOWN
Australia,AU,1885,Bankstown,New South Wales,BANKSTOWN
Australia,AU,1890,Ingleburn,New South Wales,CAMPBELLTOWN
Australia,AU,1891,Milperra,New South Wales,BANKSTOWN
Australia,AU,2000,Dawes Point,New South Wales,SYDNEY STREETS
Australia,AU,2232,Sutherland,New South Wales,ILLAWARRA
Australia,AU,2232,Kareela,New South Wales,ILLAWARRA
Australia,AU,2250,Niagara Park,New South Wales,PYMBLE
Australia,AU,2250,Kulnura,New South Wales,PYMBLE
Australia,AU,2250,Somersby,New South Wales,PYMBLE
Australia,AU,2250,Matcham,New South Wales,PYMBLE
Australia,AU,2300,Newcastle East,New South Wales,HUNTER
Australia,AU,2300,Bar Beach,New South Wales,HUNTER
Australia,AU,2300,Cooks Hill,New South Wales,HUNTER
Australia,AU,2339,Willow Tree,New South Wales,NSW NORTH COAST
Australia,AU,2339,Warrah Creek,New South Wales,NSW NORTH COAST
Australia,AU,2340,Oxley Vale,New South Wales,NSW NORTH COAST
Australia,AU,2340,Dungowan,New South Wales,NSW NORTH COAST
Australia,AU,2340,Somerton,New South Wales,NSW NORTH COAST
Australia,AU,2484,Cudgera Creek,New South Wales,GOLD COAST
Australia,AU,2484,Chillingham,New South Wales,GOLD COAST
Australia,AU,2484,Crystal Creek,New South Wales,GOLD COAST
Australia,AU,2484,Numinbah,New South Wales,GOLD COAST
Australia,AU,2484,Dunbible,New South Wales,GOLD COAST
Australia,AU,2484,Stokers Siding,New South Wales,GOLD COAST
Australia,AU,2484,Bray Park,New South Wales,GOLD COAST
Australia,AU,2484,Doon Doon,New South Wales,GOLD COAST
Australia,AU,2484,Uki,New South Wales,GOLD COAST
Australia,AU,2484,Palmvale,New South Wales,GOLD COAST
Australia,AU,2484,Murwillumbah,New South Wales,GOLD COAST
Australia,AU,2484,Kunghur,New South Wales,GOLD COAST
Australia,AU,2484,Eungella,New South Wales,GOLD COAST
Australia,AU,2484,Dungay,New South Wales,GOLD COAST
Australia,AU,2484,Tyalgum,New South Wales,GOLD COAST
Australia,AU,2484,Condong,New South Wales,GOLD COAST
Australia,AU,2485,Tweed Heads,New South Wales,TOOWOOMBA SE CNR
Australia,AU,2485,Tweed Heads West,New South Wales,TOOWOOMBA SE CNR
Australia,AU,2486,Bilambil,New South Wales,TOOWOOMBA SE CNR
Australia,AU,2486,Banora Point,New South Wales,TOOWOOMBA SE CNR
Australia,AU,2486,Carool,New South Wales,TOOWOOMBA SE CNR
Australia,AU,2486,Terranora,New South Wales,TOOWOOMBA SE CNR
Australia,AU,2486,Tweed Heads South,New South Wales,TOOWOOMBA SE CNR
Australia,AU,2487,Stotts Creek,New South Wales,TOOWOOMBA SE CNR
Australia,AU,2487,Fingal Head,New South Wales,TOOWOOMBA SE CNR
Australia,AU,2487,Kingscliff,New South Wales,TOOWOOMBA SE CNR
Australia,AU,2487,Cudgen,New South Wales,TOOWOOMBA SE CNR
Australia,AU,2487,Duranbah,New South Wales,TOOWOOMBA SE CNR
Australia,AU,2487,Chinderah,New South Wales,TOOWOOMBA SE CNR
Australia,AU,2488,Bogangar,New South Wales,TOOWOOMBA SE CNR
Australia,AU,2488,Cabarita Beach,New South Wales,TOOWOOMBA SE CNR
Australia,AU,2489,Pottsville,New South Wales,TOOWOOMBA SE CNR
Australia,AU,2489,Hastings Point,New South Wales,TOOWOOMBA SE CNR
Australia,AU,2490,Tumbulgum,New South Wales,TOOWOOMBA SE CNR
Australia,AU,2535,Bellawongarah,New South Wales,NEW CNTRY WEST
Australia,AU,2535,Shoalhaven Heads,New South Wales,NEW CNTRY WEST
Australia,AU,2535,Berry,New South Wales,NEW CNTRY WEST
Australia,AU,2535,Jaspers Brush,New South Wales,NEW CNTRY WEST
Australia,AU,2535,Coolangatta,New South Wales,NEW CNTRY WEST
Australia,AU,2535,Wattamolla,New South Wales,NEW CNTRY WEST
Australia,AU,2535,Woodhill,New South Wales,NEW CNTRY WEST
Australia,AU,2535,Budderoo,New South Wales,NEW CNTRY WEST
Australia,AU,2536,South Durras,New South Wales,NEW CNTRY WEST
Australia,AU,2536,Malua Bay,New South Wales,NEW CNTRY WEST
Australia,AU,2536,East Lynne,New South Wales,NEW CNTRY WEST
Australia,AU,2536,Benandarah,New South Wales,NEW CNTRY WEST
Australia,AU,2580,Woodhouselee,New South Wales,CANBERRA
Australia,AU,2580,Bannister,New South Wales,CANBERRA
Australia,AU,2580,Lake Bathurst,New South Wales,CANBERRA
Australia,AU,2580,Bungonia,New South Wales,CANBERRA
Australia,AU,2580,Yarra,New South Wales,CANBERRA
Australia,AU,2580,Wombeyan Caves,New South Wales,CANBERRA
Australia,AU,2580,Roslyn,New South Wales,CANBERRA
Australia,AU,2580,Taralga,New South Wales,CANBERRA
Australia,AU,2580,Kingsdale,New South Wales,CANBERRA
Australia,AU,2580,Tarago,New South Wales,CANBERRA
Australia,AU,2648,Curlwaa,New South Wales,VIC FAR COUNTRY
Australia,AU,2648,Pomona,New South Wales,VIC FAR COUNTRY
Australia,AU,2648,Pooncarie,New South Wales,VIC FAR COUNTRY
Australia,AU,2648,Wentworth,New South Wales,VIC FAR COUNTRY
Australia,AU,2648,Rufus River,New South Wales,VIC FAR COUNTRY
Australia,AU,2648,Palinyewah,New South Wales,VIC FAR COUNTRY
Australia,AU,2648,Cal Lal,New South Wales,VIC FAR COUNTRY
Australia,AU,2648,Mourquong,New South Wales,VIC FAR COUNTRY
Australia,AU,2745,Wallacia,New South Wales,PENRITH
Australia,AU,2745,Greendale,New South Wales,PENRITH
Australia,AU,2745,Luddenham,New South Wales,PENRITH
Australia,AU,2745,Regentville,New South Wales,PENRITH
Australia,AU,2745,Glenmore Park,New South Wales,PENRITH
Australia,AU,2763,Quakers Hill,New South Wales,RICHMOND
Australia,AU,2763,Acacia Gardens,New South Wales,RICHMOND
Australia,AU,2767,Doonside,New South Wales,RICHMOND
Australia,AU,2767,Woodcroft,New South Wales,RICHMOND
Australia,AU,2768,Stanhope Gardens,New South Wales,RICHMOND
Australia,AU,2768,Parklea,New South Wales,RICHMOND
Australia,AU,2768,Glenwood,New South Wales,RICHMOND
Australia,AU,2775,Wisemans Ferry,New South Wales,RICHMOND
Australia,AU,2775,St Albans,New South Wales,RICHMOND
Australia,AU,2775,Central Macdonald,New South Wales,RICHMOND
Australia,AU,2775,Spencer,New South Wales,RICHMOND
Australia,AU,2775,Laughtondale,New South Wales,RICHMOND
Australia,AU,2775,Lower Hawkesbury,New South Wales,RICHMOND
Australia,AU,4000,Brisbane,Queensland,BRIS CITY CNTRY
Australia,AU,4000,Spring Hill,Queensland,BRIS CITY CNTRY
Australia,AU,4000,Brisbane Adelaide Street,Queensland,BRIS CITY CNTRY
Australia,AU,4012,Toombul,Queensland,NORTHGATE NORTH
Australia,AU,4012,Wavell Heights North,Queensland,NORTHGATE NORTH
Australia,AU,4059,Kelvin Grove Bc,Queensland,NORTHGATE NORTH
Australia,AU,4060,Ashgrove,Queensland,NORTHGATE NORTH
Australia,AU,4060,Dorrington,Queensland,NORTHGATE NORTH
Australia,AU,4061,The Gap,Queensland,NORTHGATE NORTH
Australia,AU,4064,Milton,Queensland,NORTHGATE NORTH
Australia,AU,4064,Paddington,Queensland,NORTHGATE NORTH
Australia,AU,4065,Bardon,Queensland,NORTHGATE NORTH
Australia,AU,4073,Sinnamon Park,Queensland,UNDERWOOD CENT
Australia,AU,4073,Seventeen Mile Rocks,Queensland,UNDERWOOD CENT
Australia,AU,4074,Jindalee,Queensland,UNDERWOOD CENT
Australia,AU,4114,Kingston,Queensland,UNDERWOOD SOUTH
Australia,AU,4114,Logan City Dc,Queensland,UNDERWOOD SOUTH
Australia,AU,4114,Logan Central,Queensland,UNDERWOOD SOUTH
Australia,AU,4114,Woodridge,Queensland,UNDERWOOD SOUTH
Australia,AU,4117,Berrinba,Queensland,UNDERWOOD SOUTH
Australia,AU,4117,Karawatha,Queensland,UNDERWOOD SOUTH
Australia,AU,4119,Underwood,Queensland,UNDERWOOD SOUTH
Australia,AU,4121,Tarragindi,Queensland,UNDERWOOD SOUTH
Australia,AU,4210,Studio Village,Queensland,GOLD COAST
Australia,AU,4210,Maudsland,Queensland,GOLD COAST
Australia,AU,4210,Wongawallan,Queensland,GOLD COAST
Australia,AU,4210,Oxenford,Queensland,GOLD COAST
Australia,AU,4210,Guanaba,Queensland,GOLD COAST
Australia,AU,4211,Nerang,Queensland,GOLD COAST
Australia,AU,4211,Mount Nathan,Queensland,GOLD COAST
Australia,AU,4211,Numinbah Valley,Queensland,GOLD COAST
Australia,AU,4211,Clagiraba,Queensland,GOLD COAST
Australia,AU,4211,Gaven,Queensland,GOLD COAST
Australia,AU,4211,Carrara,Queensland,GOLD COAST
Australia,AU,4211,Advancetown,Queensland,GOLD COAST
Australia,AU,4211,Natural Bridge,Queensland,GOLD COAST
Australia,AU,4211,Gilston,Queensland,GOLD COAST
Australia,AU,4211,Pacific Pines,Queensland,GOLD COAST
Australia,AU,4211,Beechmont,Queensland,GOLD COAST
Australia,AU,4211,Highland Park,Queensland,GOLD COAST
Australia,AU,4212,Hope Island,Queensland,GOLD COAST
Australia,AU,4212,Sanctuary Cove,Queensland,GOLD COAST
Australia,AU,4212,Helensvale Town Centre,Queensland,GOLD COAST
Australia,AU,4212,Helensvale,Queensland,GOLD COAST
Australia,AU,4213,Springbrook,Queensland,GOLD COAST
Australia,AU,4213,Worongary,Queensland,GOLD COAST
Australia,AU,4213,Mudgeeraba,Queensland,GOLD COAST
Australia,AU,4213,Bonogin,Queensland,GOLD COAST
Australia,AU,4213,Tallai,Queensland,GOLD COAST
Australia,AU,4213,Austinville,Queensland,GOLD COAST
Australia,AU,4300,Gailes,Queensland,TOOWOOMBA SE CNR
Australia,AU,4300,Carole Park,Queensland,TOOWOOMBA SE CNR
Australia,AU,4300,Bellbird Park,Queensland,TOOWOOMBA SE CNR
Australia,AU,4300,Brookwater,Queensland,TOOWOOMBA SE CNR
Australia,AU,4300,Goodna,Queensland,TOOWOOMBA SE CNR
Australia,AU,4300,Augustine Heights,Queensland,TOOWOOMBA SE CNR
Australia,AU,4300,Springfield,Queensland,TOOWOOMBA SE CNR
Australia,AU,4300,Springfield Lakes,Queensland,TOOWOOMBA SE CNR
Australia,AU,4300,Camira,Queensland,TOOWOOMBA SE CNR
Australia,AU,4301,Redbank,Queensland,TOOWOOMBA SE CNR
Australia,AU,4301,Collingwood Park,Queensland,TOOWOOMBA SE CNR
Australia,AU,4301,Redbank Plains,Queensland,TOOWOOMBA SE CNR
Australia,AU,4303,Dinmore,Queensland,TOOWOOMBA SE CNR
Australia,AU,4303,New Chum,Queensland,TOOWOOMBA SE CNR
Australia,AU,4303,Riverview,Queensland,TOOWOOMBA SE CNR
Australia,AU,4304,Bundamba,Queensland,TOOWOOMBA SE CNR
Australia,AU,4304,Silkstone,Queensland,TOOWOOMBA SE CNR
Australia,AU,4304,Booval,Queensland,TOOWOOMBA SE CNR
Australia,AU,4304,Blackstone,Queensland,TOOWOOMBA SE CNR
Australia,AU,4304,North Booval,Queensland,TOOWOOMBA SE CNR
Australia,AU,4304,Ebbw Vale,Queensland,TOOWOOMBA SE CNR
Australia,AU,4305,North Tivoli,Queensland,TOOWOOMBA SE CNR
Australia,AU,4305,Yamanto,Queensland,TOOWOOMBA SE CNR
Australia,AU,4305,Raceview,Queensland,TOOWOOMBA SE CNR
Australia,AU,4305,West Ipswich,Queensland,TOOWOOMBA SE CNR
Australia,AU,4500,Strathpine,Queensland,NORTHGATE NORTH
Australia,AU,4500,Joyner,Queensland,NORTHGATE NORTH
Australia,AU,4500,Cashmere,Queensland,NORTHGATE NORTH
Australia,AU,4500,Brendale,Queensland,NORTHGATE NORTH
Australia,AU,4500,Bray Park,Queensland,NORTHGATE NORTH
Australia,AU,4500,Clear Mountain,Queensland,NORTHGATE NORTH
Australia,AU,4500,Warner,Queensland,NORTHGATE NORTH
Australia,AU,4501,Lawnton,Queensland,NORTHGATE NORTH
Australia,AU,4502,Petrie,Queensland,NORTHGATE NORTH
Australia,AU,4503,Kurwongbah,Queensland,NORTHGATE NORTH
Australia,AU,4503,Murrumba Downs,Queensland,NORTHGATE NORTH
Australia,AU,4503,Whiteside,Queensland,NORTHGATE NORTH
Australia,AU,4503,Griffin,Queensland,NORTHGATE NORTH
Australia,AU,4503,Dakabin,Queensland,NORTHGATE NORTH
Australia,AU,4503,Kallangur,Queensland,NORTHGATE NORTH
Australia,AU,4504,Narangba,Queensland,NORTHGATE NORTH
Australia,AU,4505,Burpengary,Queensland,NORTHGATE NORTH
Australia,AU,4506,Morayfield,Queensland,NORTHGATE NORTH
Australia,AU,4508,Deception Bay,Queensland,NORTHGATE NORTH
Australia,AU,4509,Mango Hill,Queensland,NORTHGATE NORTH
Australia,AU,4510,Beachmere,Queensland,NORTHGATE NORTH
Australia,AU,4510,Donnybrook,Queensland,NORTHGATE NORTH
Australia,AU,4510,Caboolture,Queensland,NORTHGATE NORTH
Australia,AU,4510,Caboolture South,Queensland,NORTHGATE NORTH
Australia,AU,4510,Toorbul,Queensland,NORTHGATE NORTH
Australia,AU,4512,Bracalba,Queensland,NORTHGATE NORTH
Australia,AU,4512,Wamuran Basin,Queensland,NORTHGATE NORTH
Australia,AU,4512,Wamuran,Queensland,NORTHGATE NORTH
Australia,AU,4514,Woodford,Queensland,NORTHGATE NORTH
Australia,AU,4514,Commissioners Flat,Queensland,NORTHGATE NORTH
Australia,AU,4514,Stony Creek,Queensland,NORTHGATE NORTH
Australia,AU,4514,Mount Archer,Queensland,NORTHGATE NORTH
Australia,AU,4514,Mount Delaney,Queensland,NORTHGATE NORTH
Australia,AU,4515,Hazledean,Queensland,NORTHGATE NORTH
Australia,AU,4515,Jimna,Queensland,NORTHGATE NORTH
Australia,AU,4515,Monsildale,Queensland,NORTHGATE NORTH
Australia,AU,4515,Kilcoy,Queensland,NORTHGATE NORTH
Australia,AU,4516,Elimbah,Queensland,NORTHGATE NORTH
Australia,AU,4517,Beerburrum,Queensland,NORTHGATE NORTH
Australia,AU,4518,Glass House Mountains,Queensland,NORTHGATE NORTH
Australia,AU,4519,Peachester,Queensland,NORTHGATE NORTH
Australia,AU,4519,Beerwah,Queensland,NORTHGATE NORTH
Australia,AU,4519,Crohamhurst,Queensland,NORTHGATE NORTH
Australia,AU,4519,Coochin Creek,Queensland,NORTHGATE NORTH
Australia,AU,4520,Yugar,Queensland,NORTHGATE NORTH
Australia,AU,4520,Closeburn,Queensland,NORTHGATE NORTH
Australia,AU,4520,Draper,Queensland,NORTHGATE NORTH
Australia,AU,4520,Highvale,Queensland,NORTHGATE NORTH
Australia,AU,4520,Samford,Queensland,NORTHGATE NORTH
Australia,AU,4520,Mount Samson,Queensland,NORTHGATE NORTH
Australia,AU,4520,Enoggera Reservoir,Queensland,NORTHGATE NORTH
Australia,AU,4550,Landsborough,Queensland,SUNSHINE MT ISA
Australia,AU,4551,Currimundi,Queensland,SUNSHINE MT ISA
Australia,AU,4551,Kings Beach,Queensland,SUNSHINE MT ISA
Australia,AU,4551,Moffat Beach,Queensland,SUNSHINE MT ISA
Australia,AU,4551,Caloundra,Queensland,SUNSHINE MT ISA
Australia,AU,4551,Caloundra West,Queensland,SUNSHINE MT ISA
Australia,AU,4677,Agnes Water,Queensland,CENTRAL QLD
Australia,AU,4677,Colosseum,Queensland,CENTRAL QLD
Australia,AU,4677,Miriam Vale,Queensland,CENTRAL QLD
Australia,AU,4677,Mount Tom,Queensland,CENTRAL QLD
Australia,AU,4677,Seventeen Seventy,Queensland,CENTRAL QLD
Australia,AU,4677,Captain Creek,Queensland,CENTRAL QLD
Australia,AU,4677,Round Hill,Queensland,CENTRAL QLD
Australia,AU,4677,Eurimbula,Queensland,CENTRAL QLD
Australia,AU,4678,Rodds Bay,Queensland,CENTRAL QLD
Australia,AU,4678,Bororen,Queensland,CENTRAL QLD
Australia,AU,4806,Carstairs,Queensland,NORTH QLD
Australia,AU,4806,Inkerman,Queensland,NORTH QLD
Australia,AU,872,Fregon,South Australia,ALICE SPRINGS
Australia,AU,872,Ernabella,South Australia,ALICE SPRINGS
Australia,AU,5000,Adelaide,South Australia,SA CITY SUBS
Australia,AU,5000,Rundle Mall,South Australia,SA CITY SUBS
Australia,AU,5000,Halifax Street,South Australia,SA CITY SUBS
Australia,AU,5000,Adelaide Bc,South Australia,SA CITY SUBS
Australia,AU,5000,Station Arcade,South Australia,SA CITY SUBS
Australia,AU,5000,Hutt Street,South Australia,SA CITY SUBS
Australia,AU,5007,Hindmarsh,South Australia,SA SUBS NEAR 1
Australia,AU,5007,Brompton,South Australia,SA SUBS NEAR 1
Australia,AU,5007,West Hindmarsh,South Australia,SA SUBS NEAR 1
Australia,AU,5007,Welland,South Australia,SA SUBS NEAR 1
Australia,AU,5007,Bowden,South Australia,SA SUBS NEAR 1
Australia,AU,5008,Dudley Park,South Australia,SA SUBS NEAR 1
Australia,AU,5008,Devon Park,South Australia,SA SUBS NEAR 1
Australia,AU,5008,Ridleyton,South Australia,SA SUBS NEAR 1
Australia,AU,5008,Croydon,South Australia,SA SUBS NEAR 1
Australia,AU,5008,West Croydon,South Australia,SA SUBS NEAR 1
Australia,AU,5008,Renown Park,South Australia,SA SUBS NEAR 1
Australia,AU,5009,Kilkenny,South Australia,SA SUBS NEAR 1
Australia,AU,5009,Beverley,South Australia,SA SUBS NEAR 1
Australia,AU,5009,Allenby Gardens,South Australia,SA SUBS NEAR 1
Australia,AU,5010,Regency Park,South Australia,SA SUBS NEAR 1
Australia,AU,5010,Regency Park Bc,South Australia,SA SUBS NEAR 1
Australia,AU,5010,Angle Park,South Australia,SA SUBS NEAR 1
Australia,AU,5050,Eden Hills,South Australia,SA SUBS NEAR 2
Australia,AU,5050,Bellevue Heights,South Australia,SA SUBS NEAR 2
Australia,AU,5051,Hawthorndene,South Australia,SA SUBS NEAR 2
Australia,AU,5051,Blackwood,South Australia,SA SUBS NEAR 2
Australia,AU,5051,Craigburn Farm,South Australia,SA SUBS NEAR 2
Australia,AU,5262,Binnum,South Australia,SA FAR
Australia,AU,5262,Hynam,South Australia,SA FAR
Europe,BE,2000,Antwerpen,Vlaanderen,Anvers
Europe,BE,2018,Antwerpen,Vlaanderen,Anvers
Europe,BE,2020,Antwerpen,Vlaanderen,Anvers
Europe,BE,2030,Antwerpen,Vlaanderen,Anvers
Europe,BE,2040,Lillo,Vlaanderen,Anvers
Europe,BE,2040,Berendrecht,Vlaanderen,Anvers
Europe,BE,2040,Zandvliet,Vlaanderen,Anvers
Europe,BE,2040,Antwerpen,Vlaanderen,Anvers
Europe,BE,2050,Antwerpen,Vlaanderen,Anvers
Europe,BE,2060,Antwerpen,Vlaanderen,Anvers
Europe,BE,2070,Zwijndrecht,Vlaanderen,Anvers
Europe,BE,2070,Burcht,Vlaanderen,Anvers
Europe,BE,2100,Deurne,Vlaanderen,Anvers
Europe,BE,2110,Wijnegem,Vlaanderen,Anvers
Europe,BE,2140,Borgerhout,Vlaanderen,Anvers
Europe,BE,2150,Borsbeek,Vlaanderen,Anvers
Europe,BE,2160,Wommelgem,Vlaanderen,Anvers
Europe,BE,2170,Merksem,Vlaanderen,Anvers
Europe,BE,2180,Ekeren,Vlaanderen,Anvers
Europe,BE,2200,Morkhoven,Vlaanderen,Anvers
Europe,BE,1500,Halle,Vlaanderen,Brabant Flamand
Europe,BE,1501,Buizingen,Vlaanderen,Brabant Flamand
Europe,BE,1502,Lembeek,Vlaanderen,Brabant Flamand
Europe,BE,1540,Herfelingen,Vlaanderen,Brabant Flamand
Europe,BE,1540,Herne,Vlaanderen,Brabant Flamand
Europe,BE,3500,Hasselt,Vlaanderen,Limbourg
Europe,BE,1300,Limal,Wallonie,Brabant Wallon
Europe,BE,1300,Wavre,Wallonie,Brabant Wallon
Europe,BE,1301,Bierges,Wallonie,Brabant Wallon
Europe,BE,1310,La Hulpe,Wallonie,Brabant Wallon
Europe,BE,1315,Opprebais,Wallonie,Brabant Wallon
Europe,BE,1315,Glimes,Wallonie,Brabant Wallon
Europe,BE,1315,Incourt,Wallonie,Brabant Wallon
Europe,BE,1320,Beauvechain,Wallonie,Brabant Wallon
Europe,BE,1320,Nodebais,Wallonie,Brabant Wallon
Europe,BE,6000,Charleroi,Wallonie,Hainaut
Europe,BE,6001,Marcinelle,Wallonie,Hainaut
Europe,BE,6010,Couillet,Wallonie,Hainaut
Europe,BE,6020,Dampremy,Wallonie,Hainaut
Europe,BE,6030,Goutroux,Wallonie,Hainaut
Europe,BE,6040,Jumet,Wallonie,Hainaut
Europe,BE,6600,Noville,Wallonie,Luxembourg
Europe,BE,6600,Bastogne,Wallonie,Luxembourg
Europe,BE,5000,Namur,Wallonie,Namur
Europe,BE,5000,Beez,Wallonie,Namur
Europe,BE,5001,Belgrade,Wallonie,Namur
Europe,BE,5004,Bouge,Wallonie,Namur
Europe,BE,5020,Flawinne,Wallonie,Namur
Europe,BE,5020,Vedrin,Wallonie,Namur
Europe,BE,5020,Temploux,Wallonie,Namur
Europe,BE,5020,Malonne,Wallonie,Namur
Europe,BE,5020,Daussoulx,Wallonie,Namur
Europe,BE,5020,Champion,Wallonie,Namur
Europe,BE,5021,Boninne,Wallonie,Namur
Europe,BE,5030,Gembloux,Wallonie,Namur
Europe,BE,5030,Ernage,Wallonie,Namur
Europe,BE,5030,Beuzet,Wallonie,Namur
Europe,BE,5032,Bothey,Wallonie,Namur
Europe,BE,5032,Mazy,Wallonie,Namur
Europe,BE,5032,Isnes,Wallonie,Namur
Europe,BE,5060,Auvelais,Wallonie,Namur
Europe,BE,5060,Sambreville,Wallonie,Namur
Europe,BE,5060,Arsimont,Wallonie,Namur
Europe,BE,5060,Falisolle,Wallonie,Namur
Europe,BE,5060,Tamines,Wallonie,Namur
Europe,BE,5070,Le Roux,Wallonie,Namur
Europe,BE,5070,Vitrival,Wallonie,Namur
Europe,BE,5070,Aisemont,Wallonie,Namur
Europe,BE,5080,Warisoulx,Wallonie,Namur
Europe,BE,5080,Emines,Wallonie,Namur
Asia,CH,5000,Aarau,Kanton Aargau,Bezirk Aarau
Asia,CH,5001,Aarau 1,Kanton Aargau,Bezirk Aarau
Asia,CH,5004,Aarau,Kanton Aargau,Bezirk Aarau
Asia,CH,5017,Barmelweid,Kanton Aargau,Bezirk Aarau
Asia,CH,5018,Erlinsbach,Kanton Aargau,Bezirk Aarau
Asia,CH,5022,Rombach,Kanton Aargau,Bezirk Aarau
Asia,CH,5023,Biberstein,Kanton Aargau,Bezirk Aarau
Asia,CH,5024,Küttigen,Kanton Aargau,Bezirk Aarau
Asia,CH,5025,Asp,Kanton Aargau,Bezirk Aarau
Asia,CH,5026,Densbüren,Kanton Aargau,Bezirk Aarau
Asia,CH,5032,Aarau Rohr,Kanton Aargau,Bezirk Aarau
Asia,CH,5033,Buchs AG,Kanton Aargau,Bezirk Aarau
Asia,CH,5034,Suhr,Kanton Aargau,Bezirk Aarau
Asia,CH,5035,Unterentfelden,Kanton Aargau,Bezirk Aarau
Asia,CH,5036,Oberentfelden,Kanton Aargau,Bezirk Aarau
Asia,CH,5037,Muhen,Kanton Aargau,Bezirk Aarau
Asia,CH,5042,Hirschthal,Kanton Aargau,Bezirk Aarau
Asia,CH,5722,Gränichen,Kanton Aargau,Bezirk Aarau
Asia,CH,5300,Turgi,Kanton Aargau,Bezirk Baden
Asia,CH,5301,Siggenthal Station,Kanton Aargau,Bezirk Baden
Asia,CH,5303,Würenlingen,Kanton Aargau,Bezirk Baden
Asia,CH,5445,Eggenwil,Kanton Aargau,Bezirk Bremgarten
Asia,CH,5522,Tägerig,Kanton Aargau,Bezirk Bremgarten
Asia,CH,5524,Nesselnbach,Kanton Aargau,Bezirk Bremgarten
Asia,CH,5524,Niederwil AG,Kanton Aargau,Bezirk Bremgarten
Asia,CH,5605,Dottikon,Kanton Aargau,Bezirk Bremgarten
Asia,CH,5607,Hägglingen,Kanton Aargau,Bezirk Bremgarten
Asia,CH,5610,Wohlen AG,Kanton Aargau,Bezirk Bremgarten
Asia,CH,5611,Anglikon,Kanton Aargau,Bezirk Bremgarten
Asia,CH,5612,Villmergen,Kanton Aargau,Bezirk Bremgarten
Asia,CH,5613,Hilfikon,Kanton Aargau,Bezirk Bremgarten
Asia,CH,5614,Sarmenstorf,Kanton Aargau,Bezirk Bremgarten
Asia,CH,5619,Uezwil,Kanton Aargau,Bezirk Bremgarten
Asia,CH,5620,Bremgarten AG,Kanton Aargau,Bezirk Bremgarten
Asia,CH,5621,Zufikon,Kanton Aargau,Bezirk Bremgarten
Asia,CH,8905,Arni AG,Kanton Aargau,Bezirk Bremgarten
Asia,CH,8905,Islisberg,Kanton Aargau,Bezirk Bremgarten
Asia,CH,8916,Jonen,Kanton Aargau,Bezirk Bremgarten
Asia,CH,8917,Oberlunkhofen,Kanton Aargau,Bezirk Bremgarten
Asia,CH,8918,Unterlunkhofen,Kanton Aargau,Bezirk Bremgarten
Asia,CH,8964,Rudolfstetten,Kanton Aargau,Bezirk Bremgarten
Asia,CH,8965,Berikon,Kanton Aargau,Bezirk Bremgarten
Asia,CH,8967,Widen,Kanton Aargau,Bezirk Bremgarten
Asia,CH,5077,Elfingen,Kanton Aargau,Bezirk Brugg
Asia,CH,5078,Effingen,Kanton Aargau,Bezirk Brugg
Asia,CH,5105,Auenstein,Kanton Aargau,Bezirk Brugg
Asia,CH,5106,Veltheim AG,Kanton Aargau,Bezirk Brugg
Asia,CH,5107,Schinznach Dorf,Kanton Aargau,Bezirk Brugg
Asia,CH,5108,Oberflachs,Kanton Aargau,Bezirk Brugg
Asia,CH,5112,Thalheim AG,Kanton Aargau,Bezirk Brugg
Asia,CH,5116,Schinznach Bad,Kanton Aargau,Bezirk Brugg
Asia,CH,5200,Brugg AG,Kanton Aargau,Bezirk Brugg
Asia,CH,5201,Brugg AG,Kanton Aargau,Bezirk Brugg
Asia,CH,5210,Windisch,Kanton Aargau,Bezirk Brugg
Asia,CH,5212,Hausen AG,Kanton Aargau,Bezirk Brugg
Asia,CH,5213,Villnachern,Kanton Aargau,Bezirk Brugg
Asia,CH,5222,Umiken,Kanton Aargau,Bezirk Brugg
Asia,CH,5223,Riniken,Kanton Aargau,Bezirk Brugg
Asia,CH,5232,Villigen PSI,Kanton Aargau,Bezirk Brugg
Asia,CH,5233,Stilli,Kanton Aargau,Bezirk Brugg
Asia,CH,5234,Villigen,Kanton Aargau,Bezirk Brugg
Asia,CH,5235,Rüfenach AG,Kanton Aargau,Bezirk Brugg
Asia,CH,5236,Remigen,Kanton Aargau,Bezirk Brugg
Asia,CH,5237,Mönthal,Kanton Aargau,Bezirk Brugg
Asia,CH,5242,Birr,Kanton Aargau,Bezirk Brugg
Asia,CH,5242,Lupfig,Kanton Aargau,Bezirk Brugg
Asia,CH,5243,Mülligen,Kanton Aargau,Bezirk Brugg
Asia,CH,5244,Birrhard,Kanton Aargau,Bezirk Brugg
Asia,CH,5245,Habsburg,Kanton Aargau,Bezirk Brugg
Asia,CH,5246,Scherz,Kanton Aargau,Bezirk Brugg
Asia,CH,5318,Mandach,Kanton Aargau,Bezirk Brugg
Asia,CH,5040,Schöftland,Kanton Aargau,Bezirk Kulm
Asia,CH,5043,Holziken,Kanton Aargau,Bezirk Kulm
Asia,CH,5044,Schlossrued,Kanton Aargau,Bezirk Kulm
Asia,CH,5046,Walde AG,Kanton Aargau,Bezirk Kulm
Asia,CH,5046,Schmiedrued,Kanton Aargau,Bezirk Kulm
Asia,CH,5708,Birrwil,Kanton Aargau,Bezirk Kulm
Asia,CH,5712,Beinwil am See,Kanton Aargau,Bezirk Kulm
Asia,CH,5723,Teufenthal AG,Kanton Aargau,Bezirk Kulm
Asia,CH,5724,Dürrenäsch,Kanton Aargau,Bezirk Kulm
Asia,CH,5725,Leutwil,Kanton Aargau,Bezirk Kulm
Asia,CH,5726,Unterkulm,Kanton Aargau,Bezirk Kulm
Asia,CH,5727,Oberkulm,Kanton Aargau,Bezirk Kulm
Asia,CH,5728,Gontenschwil,Kanton Aargau,Bezirk Kulm
Asia,CH,5732,Zetzwil,Kanton Aargau,Bezirk Kulm
Asia,CH,5733,Leimbach AG,Kanton Aargau,Bezirk Kulm
Asia,CH,5734,Reinach AG,Kanton Aargau,Bezirk Kulm
Asia,CH,5736,Burg AG,Kanton Aargau,Bezirk Kulm
Asia,CH,5737,Menziken,Kanton Aargau,Bezirk Kulm
Asia,CH,4333,Münchwilen AG,Kanton Aargau,Bezirk Laufenburg
Asia,CH,4334,Sisseln AG,Kanton Aargau,Bezirk Laufenburg
Asia,CH,5027,Herznach,Kanton Aargau,Bezirk Laufenburg
Asia,CH,5028,Ueken,Kanton Aargau,Bezirk Laufenburg
Asia,CH,5062,Oberhof,Kanton Aargau,Bezirk Laufenburg
Asia,CH,5063,Wölflinswil,Kanton Aargau,Bezirk Laufenburg
Asia,CH,5064,Wittnau,Kanton Aargau,Bezirk Laufenburg
Asia,CH,5070,Frick,Kanton Aargau,Bezirk Laufenburg
Asia,CH,5072,Oeschgen,Kanton Aargau,Bezirk Laufenburg
Asia,CH,5074,Eiken,Kanton Aargau,Bezirk Laufenburg
Asia,CH,5075,Hornussen,Kanton Aargau,Bezirk Laufenburg
Asia,CH,5079,Zeihen,Kanton Aargau,Bezirk Laufenburg
Asia,CH,5080,Laufenburg,Kanton Aargau,Bezirk Laufenburg
Asia,CH,5082,Kaisten,Kanton Aargau,Bezirk Laufenburg
Asia,CH,5083,Ittenthal,Kanton Aargau,Bezirk Laufenburg
Asia,CH,5084,Rheinsulz,Kanton Aargau,Bezirk Laufenburg
Asia,CH,5085,Sulz AG,Kanton Aargau,Bezirk Laufenburg
Asia,CH,5272,Gansingen,Kanton Aargau,Bezirk Laufenburg
Asia,CH,5273,Oberhofen AG,Kanton Aargau,Bezirk Laufenburg
Asia,CH,5274,Mettau,Kanton Aargau,Bezirk Laufenburg
Asia,CH,5275,Etzgen,Kanton Aargau,Bezirk Laufenburg
Asia,CH,5276,Wil AG,Kanton Aargau,Bezirk Laufenburg
Asia,CH,5277,Hottwil,Kanton Aargau,Bezirk Laufenburg
Asia,CH,5326,Schwaderloch,Kanton Aargau,Bezirk Laufenburg
Asia,CH,5102,Rupperswil,Kanton Aargau,Bezirk Lenzburg
Asia,CH,5103,Möriken AG,Kanton Aargau,Bezirk Lenzburg
Asia,CH,5103,Wildegg,Kanton Aargau,Bezirk Lenzburg
Asia,CH,5113,Holderbank AG,Kanton Aargau,Bezirk Lenzburg
Asia,CH,5502,Hunzenschwil,Kanton Aargau,Bezirk Lenzburg
Asia,CH,5503,Schafisheim,Kanton Aargau,Bezirk Lenzburg
Asia,CH,5504,Othmarsingen,Kanton Aargau,Bezirk Lenzburg
Asia,CH,5505,Brunegg,Kanton Aargau,Bezirk Lenzburg
Asia,CH,5600,Ammerswil AG,Kanton Aargau,Bezirk Lenzburg
Asia,CH,5600,Lenzburg,Kanton Aargau,Bezirk Lenzburg
Asia,CH,5603,Staufen,Kanton Aargau,Bezirk Lenzburg
Asia,CH,5604,Hendschiken,Kanton Aargau,Bezirk Lenzburg
Asia,CH,5606,Dintikon,Kanton Aargau,Bezirk Lenzburg
Asia,CH,5615,Fahrwangen,Kanton Aargau,Bezirk Lenzburg
Asia,CH,5616,Meisterschwanden,Kanton Aargau,Bezirk Lenzburg
Asia,CH,5617,Tennwil,Kanton Aargau,Bezirk Lenzburg
Asia,CH,5702,Niederlenz,Kanton Aargau,Bezirk Lenzburg
Asia,CH,5703,Seon,Kanton Aargau,Bezirk Lenzburg
Asia,CH,5704,Egliswil,Kanton Aargau,Bezirk Lenzburg
Asia,CH,5705,Hallwil,Kanton Aargau,Bezirk Lenzburg
Asia,CH,5706,Boniswil,Kanton Aargau,Bezirk Lenzburg
Asia,CH,5707,Seengen,Kanton Aargau,Bezirk Lenzburg
Asia,CH,5618,Bettwil,Kanton Aargau,Bezirk Muri
Asia,CH,5622,Waltenschwil,Kanton Aargau,Bezirk Muri
Asia,CH,5623,Boswil,Kanton Aargau,Bezirk Muri
Asia,CH,5624,Waldhäusern AG,Kanton Aargau,Bezirk Muri
Asia,CH,5625,Kallern,Kanton Aargau,Bezirk Muri
Asia,CH,5628,Aristau,Kanton Aargau,Bezirk Muri
Asia,CH,5630,Muri AG,Kanton Aargau,Bezirk Muri
Asia,CH,5632,Buttwil,Kanton Aargau,Bezirk Muri
Asia,CH,5634,Merenschwand,Kanton Aargau,Bezirk Muri
Asia,CH,5636,Benzenschwil,Kanton Aargau,Bezirk Muri
Asia,CH,5637,Geltwil,Kanton Aargau,Bezirk Muri
Asia,CH,5642,Mühlau,Kanton Aargau,Bezirk Muri
Asia,CH,5643,Meienberg,Kanton Aargau,Bezirk Muri
Asia,CH,5643,Alikon,Kanton Aargau,Bezirk Muri
Asia,CH,5643,Sins,Kanton Aargau,Bezirk Muri
Asia,CH,5643,Sins,Kanton Aargau,Bezirk Muri
Asia,CH,5644,Auw,Kanton Aargau,Bezirk Muri
Asia,CH,5645,Aettenschwil,Kanton Aargau,Bezirk Muri
Asia,CH,5645,Fenkrieden,Kanton Aargau,Bezirk Muri
Asia,CH,5646,Abtwil AG,Kanton Aargau,Bezirk Muri
Asia,CH,5647,Oberrüti,Kanton Aargau,Bezirk Muri
Asia,CH,6042,Dietwil,Kanton Aargau,Bezirk Muri
Asia,CH,8919,Rottenschwil,Kanton Aargau,Bezirk Muri
Asia,CH,4303,Kaiseraugst,Kanton Aargau,Bezirk Rheinfelden
Asia,CH,4305,Olsberg,Kanton Aargau,Bezirk Rheinfelden
Asia,CH,4310,Rheinfelden,Kanton Aargau,Bezirk Rheinfelden
Asia,CH,4312,Magden,Kanton Aargau,Bezirk Rheinfelden
Asia,CH,4313,Möhlin,Kanton Aargau,Bezirk Rheinfelden
Asia,CH,4314,Zeiningen,Kanton Aargau,Bezirk Rheinfelden
Asia,CH,4315,Zuzgen,Kanton Aargau,Bezirk Rheinfelden
Asia,CH,4316,Hellikon,Kanton Aargau,Bezirk Rheinfelden
Asia,CH,4317,Wegenstetten,Kanton Aargau,Bezirk Rheinfelden
Asia,CH,4322,Mumpf,Kanton Aargau,Bezirk Rheinfelden
Asia,CH,4323,Wallbach,Kanton Aargau,Bezirk Rheinfelden
Asia,CH,4324,Obermumpf,Kanton Aargau,Bezirk Rheinfelden
Asia,CH,4325,Schupfart,Kanton Aargau,Bezirk Rheinfelden
Asia,CH,4332,Stein AG,Kanton Aargau,Bezirk Rheinfelden
Asia,CH,4663,Aarburg,Kanton Aargau,Bezirk Zofingen
Asia,CH,4665,Oftringen,Kanton Aargau,Bezirk Zofingen
Asia,CH,4800,Zofingen,Kanton Aargau,Bezirk Zofingen
Asia,CH,4801,Zofingen,Kanton Aargau,Bezirk Zofingen
Asia,CH,4802,Strengelbach,Kanton Aargau,Bezirk Zofingen
Asia,CH,4803,Vordemwald,Kanton Aargau,Bezirk Zofingen
Asia,CH,4805,Brittnau,Kanton Aargau,Bezirk Zofingen
Asia,CH,4807,Zofingen PF,Kanton Aargau,Bezirk Zofingen
Asia,CH,4808,Zofingen PF,Kanton Aargau,Bezirk Zofingen
Asia,CH,4809,Zofingen PF UBS,Kanton Aargau,Bezirk Zofingen
Asia,CH,4809,Zofingen PF,Kanton Aargau,Bezirk Zofingen
Asia,CH,4812,Mühlethal,Kanton Aargau,Bezirk Zofingen
Asia,CH,4813,Uerkheim,Kanton Aargau,Bezirk Zofingen
Asia,CH,4814,Bottenwil,Kanton Aargau,Bezirk Zofingen
Asia,CH,4852,Rothrist,Kanton Aargau,Bezirk Zofingen
Asia,CH,4853,Murgenthal,Kanton Aargau,Bezirk Zofingen
Asia,CH,4853,Riken AG,Kanton Aargau,Bezirk Zofingen
Asia,CH,4853,Murgenthal,Kanton Aargau,Bezirk Zofingen
Asia,CH,4856,Glashütten,Kanton Aargau,Bezirk Zofingen
Asia,CH,5053,Staffelbach,Kanton Aargau,Bezirk Zofingen
Asia,CH,5053,Wittwil,Kanton Aargau,Bezirk Zofingen
Asia,CH,5054,Moosleerau,Kanton Aargau,Bezirk Zofingen
Asia,CH,5054,Kirchleerau,Kanton Aargau,Bezirk Zofingen
Asia,CH,5056,Attelwil,Kanton Aargau,Bezirk Zofingen
Asia,CH,5057,Reitnau,Kanton Aargau,Bezirk Zofingen
Asia,CH,5058,Wiliberg,Kanton Aargau,Bezirk Zofingen
Asia,CH,5742,Kölliken,Kanton Aargau,Bezirk Zofingen
Asia,CH,5745,Safenwil,Kanton Aargau,Bezirk Zofingen
Asia,CH,9050,Appenzell Steinegg,Kanton Appenzell Innerrhoden,Appenzell Inner Rhodes
Asia,CH,9050,Appenzell Eggerstanden,Kanton Appenzell Innerrhoden,Appenzell Inner Rhodes
Asia,CH,9050,Appenzell,Kanton Appenzell Innerrhoden,Appenzell Inner Rhodes
Asia,CH,9050,Appenzell Schlatt,Kanton Appenzell Innerrhoden,Appenzell Inner Rhodes
Asia,CH,9054,Haslen AI,Kanton Appenzell Innerrhoden,Appenzell Inner Rhodes
Asia,CH,9057,Schwende,Kanton Appenzell Innerrhoden,Appenzell Inner Rhodes
Asia,CH,9057,Wasserauen,Kanton Appenzell Innerrhoden,Appenzell Inner Rhodes
Asia,CH,9057,Weissbad,Kanton Appenzell Innerrhoden,Appenzell Inner Rhodes
Asia,CH,9108,Gonten,Kanton Appenzell Innerrhoden,Appenzell Inner Rhodes
Asia,CH,9108,Jakobsbad,Kanton Appenzell Innerrhoden,Appenzell Inner Rhodes
Asia,CH,9108,Gontenbad,Kanton Appenzell Innerrhoden,Appenzell Inner Rhodes
Asia,CH,9413,Oberegg,Kanton Appenzell Innerrhoden,Appenzell Inner Rhodes
Asia,CH,9413,Oberegg,Kanton Appenzell Innerrhoden,Appenzell Inner Rhodes
Asia,CH,6500,Bellinzona,Ticino,Bellinzona District
Asia,CH,6501,Bellinzona,Ticino,Bellinzona District
Asia,CH,6503,Bellinzona,Ticino,Bellinzona District
Asia,CH,6512,Giubiasco,Ticino,Bellinzona District
Asia,CH,6513,Monte Carasso,Ticino,Bellinzona District
Asia,CH,6514,Sementina,Ticino,Bellinzona District
Asia,CH,6515,Gudo,Ticino,Bellinzona District
Asia,CH,6517,Arbedo,Ticino,Bellinzona District
Asia,CH,6518,Gorduno,Ticino,Bellinzona District
Asia,CH,6523,Preonzo,Ticino,Bellinzona District
Asia,CH,6524,Moleno,Ticino,Bellinzona District
Asia,CH,6525,Gnosca,Ticino,Bellinzona District
Asia,CH,6528,Camorino,Ticino,Bellinzona District
Asia,CH,6532,Castione,Ticino,Bellinzona District
Asia,CH,6533,Lumino,Ticino,Bellinzona District
Asia,CH,6582,Pianezzo,Ticino,Bellinzona District
Asia,CH,6584,Carena,Ticino,Bellinzona District
Asia,CH,6592,S. Antonino,Ticino,Bellinzona District
Asia,CH,6593,Cadenazzo,Ticino,Bellinzona District
Asia,CH,6599,Robasacco,Ticino,Bellinzona District
Asia,CH,6702,Claro,Ticino,Bellinzona District
Asia,CH,6809,Medeglia,Ticino,Bellinzona District
Asia,CH,6810,Isone,Ticino,Bellinzona District
Asia,CH,6713,Malvaglia,Ticino,Blenio District
Asia,CH,6714,Semione,Ticino,Blenio District
Asia,CH,6715,Dongio,Ticino,Blenio District
Asia,CH,6716,Leontica,Ticino,Blenio District
Asia,CH,6716,Acquarossa,Ticino,Blenio District
Asia,CH,6716,Lottigna,Ticino,Blenio District
Asia,CH,6717,Dangio,Ticino,Blenio District
Asia,CH,6717,Torre,Ticino,Blenio District
Asia,CH,6718,Camperio,Ticino,Blenio District
Asia,CH,6718,Olivone,Ticino,Blenio District
Asia,CH,6719,Aquila,Ticino,Blenio District
Asia,CH,6719,Aquila,Ticino,Blenio District
Asia,CH,6719,Aquila,Ticino,Blenio District
Asia,CH,6720,Ghirone,Ticino,Blenio District
Asia,CH,6721,Ludiano,Ticino,Blenio District
Asia,CH,6722,Corzoneso,Ticino,Blenio District
Asia,CH,6723,Marolta,Ticino,Blenio District
Asia,CH,6723,Castro,Ticino,Blenio District
Asia,CH,6723,Prugiasco,Ticino,Blenio District
Asia,CH,6724,Ponto Valentino,Ticino,Blenio District
Asia,CH,6724,Largario,Ticino,Blenio District
Asia,CH,6742,Pollegio,Ticino,Leventina District
Asia,CH,6743,Bodio TI,Ticino,Leventina District
Asia,CH,6744,Personico,Ticino,Leventina District
Asia,CH,6745,Giornico,Ticino,Leventina District
Asia,CH,6746,Calonico,Ticino,Leventina District
Asia,CH,6746,Lavorgo,Ticino,Leventina District
Asia,CH,6516,Cugnasco,Ticino,Locarno District
Asia,CH,6571,Indemini,Ticino,Locarno District
Asia,CH,6572,Quartino,Ticino,Locarno District
Asia,CH,6573,Magadino,Ticino,Locarno District
Asia,CH,6575,Vairano,Ticino,Locarno District
Asia,CH,6575,S. Nazzaro,Ticino,Locarno District
Asia,CH,6577,Ranzo,Ticino,Locarno District
Asia,CH,6578,Caviano,Ticino,Locarno District
Asia,CH,6579,Piazzogna,Ticino,Locarno District
Asia,CH,6594,Contone,Ticino,Locarno District
Asia,CH,6595,Riazzino,Ticino,Locarno District
Asia,CH,6596,Gordola,Ticino,Locarno District
Asia,CH,6597,Agarone,Ticino,Locarno District
Asia,CH,6598,Tenero,Ticino,Locarno District
Asia,CH,6600,Locarno,Ticino,Locarno District
Asia,CH,6600,Solduno,Ticino,Locarno District
Asia,CH,6802,Rivera,Ticino,Lugano District
Asia,CH,6803,Camignolo,Ticino,Lugano District
Asia,CH,6804,Bironico,Ticino,Lugano District
Asia,CH,6805,Mezzovico,Ticino,Lugano District
Asia,CH,6805,Mezzovico,Ticino,Lugano District
Asia,CH,6825,Capolago,Ticino,Mendrisio District
Asia,CH,6826,Riva San Vitale,Ticino,Mendrisio District
Asia,CH,6828,Balerna,Ticino,Mendrisio District
Asia,CH,6830,Chiasso,Ticino,Mendrisio District
Asia,CH,6832,Seseglio,Ticino,Mendrisio District
Asia,CH,6832,Pedrinate,Ticino,Mendrisio District
Asia,CH,6526,Prosito,Ticino,Riviera District
Asia,CH,6527,Lodrino,Ticino,Riviera District
Asia,CH,6703,Osogna,Ticino,Riviera District
Asia,CH,6705,Cresciano,Ticino,Riviera District
Asia,CH,6707,Iragna,Ticino,Riviera District
Asia,CH,6710,Biasca,Ticino,Riviera District
Asia,CH,6670,Avegno,Ticino,Vallemaggia District
Asia,CH,6672,Gordevio,Ticino,Vallemaggia District
Asia,CH,6673,Maggia,Ticino,Vallemaggia District
Asia,CH,6674,Riveo,Ticino,Vallemaggia District
Asia,CH,6674,Someo,Ticino,Vallemaggia District
Asia,CH,6675,Cevio,Ticino,Vallemaggia District
Asia,CH,6676,Bignasco,Ticino,Vallemaggia District
Asia,CH,6677,Moghegno,Ticino,Vallemaggia District
Asia,CH,6677,Aurigeno,Ticino,Vallemaggia District
Asia,CH,6678,Lodano,Ticino,Vallemaggia District
Asia,CH,6678,Giumaglio,Ticino,Vallemaggia District
Asia,CH,6678,Coglio,Ticino,Vallemaggia District
Asia,CH,6682,Linescio,Ticino,Vallemaggia District
Asia,CH,6683,Cerentino,Ticino,Vallemaggia District
Asia,CH,6684,Cimalmotto,Ticino,Vallemaggia District
Asia,CH,6685,Bosco/Gurin,Ticino,Vallemaggia District
Asia,CH,6690,Cavergno,Ticino,Vallemaggia District
Asia,CH,6692,Brontallo,Ticino,Vallemaggia District
Asia,CH,6692,Menzonio,Ticino,Vallemaggia District
Asia,CH,6693,Broglio,Ticino,Vallemaggia District
Asia,CH,6695,Piano di Peccia,Ticino,Vallemaggia District
Asia,CH,6695,Peccia,Ticino,Vallemaggia District
Asia,CH,6696,Fusio,Ticino,Vallemaggia District
Europe,DK,7700,Thisted,Region Nordjylland,Thisted Kommune
Europe,DK,7730,Hanstholm,Region Nordjylland,Thisted Kommune
Europe,DK,7752,Snedsted,Region Nordjylland,Thisted Kommune
Europe,DK,7755,Bedsted Thy,Region Nordjylland,Thisted Kommune
Europe,DK,7760,Hurup Thy,Region Nordjylland,Thisted Kommune
Europe,DK,7770,Vestervig,Region Nordjylland,Thisted Kommune
Europe,DK,9330,Dronninglund,Region Nordjylland,Frederikshavn Kommune
Europe,DK,9340,Asaa,Region Nordjylland,Frederikshavn Kommune
Europe,DK,9352,Dybvad,Region Nordjylland,Frederikshavn Kommune
Europe,DK,9870,Sindal,Region Nordjylland,Frederikshavn Kommune
Europe,DK,9881,Bindslev,Region Nordjylland,Frederikshavn Kommune
Europe,DK,9900,Frederikshavn,Region Nordjylland,Frederikshavn Kommune
Europe,DK,9970,Strandby,Region Nordjylland,Frederikshavn Kommune
Europe,DK,9981,Jerup,Region Nordjylland,Frederikshavn Kommune
Europe,DK,9990,Skagen,Region Nordjylland,Frederikshavn Kommune
Europe,DK,9240,Nibe,Region Nordjylland,Vesthimmerlands Kommune
Europe,DK,9541,Suldrup,Region Nordjylland,Vesthimmerlands Kommune
Europe,DK,9600,Aars,Region Nordjylland,Vesthimmerlands Kommune
Europe,DK,9620,Aalestrup,Region Nordjylland,Vesthimmerlands Kommune
Europe,DK,9631,Gedsted,Region Nordjylland,Vesthimmerlands Kommune
Europe,DK,9681,Ranum,Region Nordjylland,Vesthimmerlands Kommune
Europe,DK,9230,Svenstrup J,Region Nordjylland,Rebild Kommune
Europe,DK,9240,Nibe,Region Nordjylland,Rebild Kommune
Europe,DK,9260,Gistrup,Region Nordjylland,Rebild Kommune
Europe,DK,9293,Kongerslev,Region Nordjylland,Rebild Kommune
Europe,DK,9500,Hobro,Region Nordjylland,Rebild Kommune
Europe,DK,9510,Arden,Region Nordjylland,Rebild Kommune
Europe,DK,9541,Suldrup,Region Nordjylland,Rebild Kommune
Europe,DK,9560,Hadsund,Region Nordjylland,Rebild Kommune
Europe,DK,9575,Terndrup,Region Nordjylland,Rebild Kommune
Europe,DK,9600,Aars,Region Nordjylland,Rebild Kommune
Europe,DK,9620,Aalestrup,Region Nordjylland,Rebild Kommune
Europe,DK,8970,Havndal,Region Nordjylland,Mariagerfjord Kommune
Europe,DK,9500,Hobro,Region Nordjylland,Mariagerfjord Kommune
Europe,DK,9510,Arden,Region Nordjylland,Mariagerfjord Kommune
Europe,DK,9550,Mariager,Region Nordjylland,Mariagerfjord Kommune
Europe,DK,9560,Hadsund,Region Nordjylland,Mariagerfjord Kommune
Europe,DK,9620,Aalestrup,Region Nordjylland,Mariagerfjord Kommune
Europe,DK,9381,Sulsted,Region Nordjylland,Jammerbugt Kommune
Europe,DK,9382,Tylstrup,Region Nordjylland,Jammerbugt Kommune
Europe,DK,9430,Vadum,Region Nordjylland,Jammerbugt Kommune
Europe,DK,9440,Aabybro,Region Nordjylland,Jammerbugt Kommune
Europe,DK,9460,Brovst,Region Nordjylland,Jammerbugt Kommune
Europe,DK,9490,Pandrup,Region Nordjylland,Jammerbugt Kommune
Europe,DK,9492,Blokhus,Region Nordjylland,Jammerbugt Kommune
Europe,DK,9493,Saltum,Region Nordjylland,Jammerbugt Kommune
Europe,DK,9690,Fjerritslev,Region Nordjylland,Jammerbugt Kommune
Europe,DK,9000,Aalborg,Region Nordjylland,Aalborg Kommune
Europe,DK,9100,Aalborg,Region Nordjylland,Aalborg Kommune
Europe,DK,9200,Aalborg SV,Region Nordjylland,Aalborg Kommune
Europe,DK,9230,Svenstrup J,Region Nordjylland,Aalborg Kommune
Europe,DK,9240,Nibe,Region Nordjylland,Aalborg Kommune
Europe,DK,9260,Gistrup,Region Nordjylland,Aalborg Kommune
Europe,DK,9270,Klarup,Region Nordjylland,Aalborg Kommune
Europe,DK,9280,Storvorde,Region Nordjylland,Aalborg Kommune
Europe,DK,9293,Kongerslev,Region Nordjylland,Aalborg Kommune
Europe,DK,9310,Vodskov,Region Nordjylland,Aalborg Kommune
Europe,DK,9320,Hjallerup,Region Nordjylland,Aalborg Kommune
Europe,DK,9362,Gandrup,Region Nordjylland,Aalborg Kommune
Europe,DK,9370,Hals,Region Nordjylland,Aalborg Kommune
Europe,DK,9380,Vestbjerg,Region Nordjylland,Aalborg Kommune
Europe,DK,9381,Sulsted,Region Nordjylland,Aalborg Kommune
Europe,DK,9382,Tylstrup,Region Nordjylland,Aalborg Kommune
Europe,DK,9430,Vadum,Region Nordjylland,Aalborg Kommune
Europe,DK,9440,Aabybro,Region Nordjylland,Aalborg Kommune
Europe,DK,1800,Frederiksberg C,Region Hovedstaden,Frederiksberg Kommune
Europe,DK,1801,Frederiksberg C,Region Hovedstaden,Frederiksberg Kommune
Europe,DK,1802,Frederiksberg C,Region Hovedstaden,Frederiksberg Kommune
Europe,DK,1803,Frederiksberg C,Region Hovedstaden,Frederiksberg Kommune
Europe,DK,1804,Frederiksberg C,Region Hovedstaden,Frederiksberg Kommune
Europe,DK,1805,Frederiksberg C,Region Hovedstaden,Frederiksberg Kommune
Europe,DK,1806,Frederiksberg C,Region Hovedstaden,Frederiksberg Kommune
Europe,DK,1807,Frederiksberg C,Region Hovedstaden,Frederiksberg Kommune
Europe,DK,1808,Frederiksberg C,Region Hovedstaden,Frederiksberg Kommune
Europe,DK,1809,Frederiksberg C,Region Hovedstaden,Frederiksberg Kommune
Europe,DK,1810,Frederiksberg C,Region Hovedstaden,Frederiksberg Kommune
Europe,DK,1811,Frederiksberg C,Region Hovedstaden,Frederiksberg Kommune
Europe,DK,1812,Frederiksberg C,Region Hovedstaden,Frederiksberg Kommune
Europe,DK,1813,Frederiksberg C,Region Hovedstaden,Frederiksberg Kommune
Europe,DK,1814,Frederiksberg C,Region Hovedstaden,Frederiksberg Kommune
Europe,DK,1815,Frederiksberg C,Region Hovedstaden,Frederiksberg Kommune
Europe,DK,1816,Frederiksberg C,Region Hovedstaden,Frederiksberg Kommune
Europe,DK,1817,Frederiksberg C,Region Hovedstaden,Frederiksberg Kommune
Europe,DK,2730,Herlev,Region Hovedstaden,Ballerup Kommune
Europe,DK,2740,Skovlunde,Region Hovedstaden,Ballerup Kommune
Europe,DK,2750,Ballerup,Region Hovedstaden,Ballerup Kommune
Europe,DK,2800,Kongens Lyngby,Region Hovedstaden,Gentofte Kommune
Europe,DK,2820,Gentofte,Region Hovedstaden,Gentofte Kommune
Europe,DK,2900,Hellerup,Region Hovedstaden,Gentofte Kommune
Europe,DK,2920,Charlottenlund,Region Hovedstaden,Gentofte Kommune
Europe,DK,2930,Klampenborg,Region Hovedstaden,Gentofte Kommune
Europe,DK,2730,Herlev,Region Hovedstaden,Gladsaxe Kommune
Europe,DK,2800,Kongens Lyngby,Region Hovedstaden,Gladsaxe Kommune
Europe,DK,2820,Gentofte,Region Hovedstaden,Gladsaxe Kommune
Europe,DK,2600,Glostrup,Region Hovedstaden,Glostrup Kommune
Europe,DK,2730,Herlev,Region Hovedstaden,Herlev Kommune
Europe,DK,2740,Skovlunde,Region Hovedstaden,Herlev Kommune
Europe,DK,2600,Glostrup,Region Hovedstaden,Albertslund Kommune
Europe,DK,2620,Albertslund,Region Hovedstaden,Albertslund Kommune
Europe,DK,2750,Ballerup,Region Hovedstaden,Albertslund Kommune
Europe,DK,2650,Hvidovre,Region Hovedstaden,Hvidovre Kommune
Europe,DK,2980,Kokkedal,Region Hovedstaden,Fredensborg Kommune
Europe,DK,3480,Fredensborg,Region Hovedstaden,Fredensborg Kommune
Europe,DK,2800,Kongens Lyngby,Region Hovedstaden,Rudersdal Kommune
Europe,DK,2830,Virum,Region Hovedstaden,Rudersdal Kommune
Europe,DK,2840,Holte,Region Hovedstaden,Rudersdal Kommune
Europe,DK,2942,Skodsborg,Region Hovedstaden,Rudersdal Kommune
Europe,DK,2750,Ballerup,Region Hovedstaden,Egedal Kommune
Europe,DK,3520,Farum,Region Hovedstaden,Egedal Kommune
Europe,DK,3540,Lynge,Region Hovedstaden,Egedal Kommune
Europe,DK,3550,Slangerup,Region Hovedstaden,Egedal Kommune
Europe,DK,3550,Slangerup,Region Hovedstaden,Frederikssund Kommune
Europe,DK,3600,Frederikssund,Region Hovedstaden,Frederikssund Kommune
Europe,DK,4050,Skibby,Region Hovedstaden,Frederikssund Kommune
Europe,DK,3200,Helsinge,Region Hovedstaden,Gribskov Kommune
Europe,DK,3210,Vejby,Region Hovedstaden,Gribskov Kommune
Europe,DK,3220,Tisvildeleje,Region Hovedstaden,Gribskov Kommune
Europe,DK,3250,Gilleleje,Region Hovedstaden,Gribskov Kommune
Europe,DK,3720,Aakirkeby,Region Hovedstaden,Bornholm Kommune
Europe,DK,3740,Svaneke,Region Hovedstaden,Bornholm Kommune
Europe,DK,3760,Gudhjem,Region Hovedstaden,Bornholm Kommune
Europe,DK,3770,Allinge,Region Hovedstaden,Bornholm Kommune
Europe,DK,3782,Klemensker,Region Hovedstaden,Bornholm Kommune
Europe,DK,3790,Hasle,Region Hovedstaden,Bornholm Kommune
Europe,ES,18001,Granada,Andalucia,Granada
Europe,ES,18002,Granada,Andalucia,Granada
Europe,ES,18003,Granada,Andalucia,Granada
Europe,ES,18004,Granada,Andalucia,Granada
Europe,ES,18005,Granada,Andalucia,Granada
Europe,ES,18006,Granada,Andalucia,Granada
Europe,ES,18007,Granada,Andalucia,Granada
Europe,ES,18008,Granada,Andalucia,Granada
Europe,ES,18009,Granada,Andalucia,Granada
Europe,ES,21001,Huelva,Andalucia,Huelva
Europe,ES,21002,Huelva,Andalucia,Huelva
Europe,ES,21003,Huelva,Andalucia,Huelva
Europe,ES,21004,Huelva,Andalucia,Huelva
Europe,ES,21005,Huelva,Andalucia,Huelva
Europe,ES,21006,Huelva,Andalucia,Huelva
Europe,ES,21007,Huelva,Andalucia,Huelva
Europe,ES,21070,Huelva,Andalucia,Huelva
Europe,ES,21071,Huelva,Andalucia,Huelva
Europe,ES,21080,Huelva,Andalucia,Huelva
Europe,ES,21100,Punta Umbria,Andalucia,Huelva
Europe,ES,21110,Aljaraque,Andalucia,Huelva
Europe,ES,21120,Corrales,Andalucia,Huelva
Europe,ES,21122,Bellavista,Andalucia,Huelva
Europe,ES,21130,Mazagon,Andalucia,Huelva
Europe,ES,41001,Sevilla,Andalucia,Sevilla
Europe,ES,41002,Sevilla,Andalucia,Sevilla
Europe,ES,22001,Huesca,Aragon,Huesca
Europe,ES,22002,Huesca,Aragon,Huesca
Europe,ES,22003,Huesca,Aragon,Huesca
Europe,ES,22004,Huesca,Aragon,Huesca
Europe,ES,22005,Huesca,Aragon,Huesca
Europe,ES,22006,Huesca,Aragon,Huesca
Europe,ES,22070,Huesca,Aragon,Huesca
Europe,ES,44001,Teruel,Aragon,Teruel
Europe,ES,44002,Teruel,Aragon,Teruel
Europe,ES,22806,Santa Eulalia De Gallego,Aragon,Zaragoza
Europe,ES,22806,Moran,Aragon,Zaragoza
Europe,ES,22808,Murillo De Gallego,Aragon,Zaragoza
Europe,ES,42269,Alconchel De Ariza,Aragon,Zaragoza
Europe,ES,42269,Pozuel De Ariza,Aragon,Zaragoza
Europe,ES,42269,Torrehermosa,Aragon,Zaragoza
Europe,ES,42269,Granja De San Pedro,Aragon,Zaragoza
Europe,ES,44591,Almochuel,Aragon,Zaragoza
Europe,ES,50001,Zaragoza,Aragon,Zaragoza
Europe,ES,50002,Zaragoza,Aragon,Zaragoza
Europe,ES,50003,Zaragoza,Aragon,Zaragoza
Europe,ES,50004,Zaragoza,Aragon,Zaragoza
Europe,ES,50005,Zaragoza,Aragon,Zaragoza
Europe,ES,50006,Zaragoza,Aragon,Zaragoza
Europe,ES,50007,Zaragoza,Aragon,Zaragoza
Europe,ES,50008,Zaragoza,Aragon,Zaragoza
Europe,ES,50009,Zaragoza,Aragon,Zaragoza
Europe,ES,50010,Zaragoza,Aragon,Zaragoza
Europe,ES,50011,Zaragoza,Aragon,Zaragoza
Europe,ES,50012,Zaragoza,Aragon,Zaragoza
Europe,ES,50013,Zaragoza,Aragon,Zaragoza
Europe,ES,50014,Zaragoza,Aragon,Zaragoza
Europe,ES,50015,Zaragoza,Aragon,Zaragoza
Europe,ES,33001,Oviedo,Asturias,Asturias
Europe,ES,33002,Oviedo,Asturias,Asturias
Europe,ES,33003,Oviedo,Asturias,Asturias
Europe,ES,33004,Oviedo,Asturias,Asturias
Europe,ES,33005,Oviedo,Asturias,Asturias
Europe,ES,33006,Oviedo,Asturias,Asturias
Europe,ES,33007,Oviedo,Asturias,Asturias
Europe,ES,33008,Oviedo,Asturias,Asturias
Europe,ES,33009,Oviedo,Asturias,Asturias
Europe,ES,33010,Nonin,Asturias,Asturias
Europe,ES,33010,Abuli,Asturias,Asturias
Europe,ES,33554,Tresviso,Cantabria,Cantabria
Europe,ES,39001,Santander,Cantabria,Cantabria
Europe,ES,39002,Santander,Cantabria,Cantabria
Europe,ES,39003,Santander,Cantabria,Cantabria
Europe,ES,39004,Santander,Cantabria,Cantabria
Europe,ES,39005,Santander,Cantabria,Cantabria
Europe,ES,51001,Ceuta,Ceuta,Ceuta
Europe,ES,51002,Ceuta,Ceuta,Ceuta
Europe,ES,51003,Ceuta,Ceuta,Ceuta
Europe,ES,51004,Ceuta,Ceuta,Ceuta
Europe,ES,51005,Ceuta,Ceuta,Ceuta
Europe,ES,51070,Ceuta,Ceuta,Ceuta
Europe,ES,51071,Ceuta,Ceuta,Ceuta
Europe,ES,51080,Ceuta,Ceuta,Ceuta
Europe,ES,3657,Raspay,Murcia,Murcia
Europe,ES,30001,Murcia,Murcia,Murcia
Europe,ES,30002,Murcia,Murcia,Murcia
Europe,ES,30003,Murcia,Murcia,Murcia
Europe,ES,30004,Murcia,Murcia,Murcia
Europe,ES,30005,Murcia,Murcia,Murcia
Europe,ES,28001,Madrid,Madrid,Madrid
Europe,ES,28002,Madrid,Madrid,Madrid
Europe,ES,28003,Madrid,Madrid,Madrid
Europe,ES,28004,Madrid,Madrid,Madrid
Europe,ES,28005,Madrid,Madrid,Madrid
Europe,ES,28006,Madrid,Madrid,Madrid
Europe,ES,28007,Madrid,Madrid,Madrid
Europe,ES,28008,Madrid,Madrid,Madrid
Europe,ES,28009,Madrid,Madrid,Madrid
Europe,ES,28010,Madrid,Madrid,Madrid
Europe,ES,28011,Madrid,Madrid,Madrid
Europe,ES,28012,Madrid,Madrid,Madrid
Europe,ES,28013,Madrid,Madrid,Madrid
Europe,ES,28014,Madrid,Madrid,Madrid
Europe,ES,28015,Madrid,Madrid,Madrid
Europe,ES,28016,Madrid,Madrid,Madrid
Europe,ES,28017,Madrid,Madrid,Madrid
Europe,ES,28018,Madrid,Madrid,Madrid
Europe,ES,26100,Ribabellosa,La Rioja,La Rioja
Europe,ES,26100,Torrecilla En Cameros,La Rioja,La Rioja
Europe,ES,26110,Nestares,La Rioja,La Rioja
Europe,ES,26111,Almarza De Cameros,La Rioja,La Rioja
Europe,ES,26111,Pinillos,La Rioja,La Rioja
Europe,ES,26120,Albelda De Iregua,La Rioja,La Rioja
Europe,ES,26121,Islallana,La Rioja,La Rioja
Europe,ES,26121,Viguera,La Rioja,La Rioja
Europe,ES,26121,Panzares,La Rioja,La Rioja
Europe,ES,26122,Pradillo,La Rioja,La Rioja
Europe,ES,26122,Gallinero De Cameros,La Rioja,La Rioja
Europe,ES,26123,Aldeanueva De Cameros,La Rioja,La Rioja
Europe,ES,26123,Villanueva De Cameros,La Rioja,La Rioja
Europe,ES,26124,Nieva De Cameros,La Rioja,La Rioja
Europe,ES,26124,Montemediano,La Rioja,La Rioja
Europe,ES,26124,El Rasillo De Cameros,La Rioja,La Rioja
Europe,ES,26124,Ortigosa De Cameros,La Rioja,La Rioja
Europe,ES,26125,Villoslada De Cameros,La Rioja,La Rioja
Europe,ES,26126,El Horcajo,La Rioja,La Rioja
Europe,ES,26126,Lumbreras,La Rioja,La Rioja
Europe,FR,14000,Caen,Normandie,Calvados
Europe,FR,14005 CEDEX 1,Caen,Normandie,Calvados
Europe,FR,14006 CEDEX 1,Caen,Normandie,Calvados
Europe,FR,14007 CEDEX 1,Caen,Normandie,Calvados
Europe,FR,14008 CEDEX 1,Caen,Normandie,Calvados
Europe,FR,14009 CEDEX 1,Caen,Normandie,Calvados
Europe,FR,14010 CEDEX 1,Caen,Normandie,Calvados
Europe,FR,14011 CEDEX 1,Caen,Normandie,Calvados
Europe,FR,14012 CEDEX 1,Caen,Normandie,Calvados
Europe,FR,14013 CEDEX 1,Caen,Normandie,Calvados
Europe,FR,14014 CEDEX 1,Caen,Normandie,Calvados
Europe,FR,27100,Le Vaudreuil,Normandie,Eure
Europe,FR,27110,Vitot,Normandie,Eure
Europe,FR,50000,Rampan,Normandie,Manche
Europe,FR,50000,Baudre,Normandie,Manche
Europe,FR,50110,Digosville,Normandie,Manche
Europe,FR,50110,Bretteville,Normandie,Manche
Europe,FR,61100,La Bazoque,Normandie,Orne
Europe,FR,61100,Flers,Normandie,Orne
Europe,FR,61100,Ronfeugerai,Normandie,Orne
Europe,FR,61100,La Carneille,Normandie,Orne
Europe,FR,61100,Landisacq,Normandie,Orne
Europe,FR,61100,Durcet,Normandie,Orne
Europe,FR,61100,Aubusson,Normandie,Orne
Europe,FR,8000,Les Ayvelles,Grand Est,Ardennes
Europe,FR,8000,La Francheville,Grand Est,Ardennes
Europe,FR,8000,Warcq,Grand Est,Ardennes
Europe,FR,8090,Fagnon,Grand Est,Ardennes
Europe,FR,8090,This,Grand Est,Ardennes
Europe,FR,8090,Aiglemont,Grand Est,Ardennes
Europe,FR,10000,Troyes,Grand Est,Aube
Europe,FR,10001 CEDEX,Troyes,Grand Est,Aube
Europe,FR,10002 CEDEX,Troyes,Grand Est,Aube
Europe,FR,10003 CEDEX,Troyes,Grand Est,Aube
Europe,FR,10004 CEDEX,Troyes,Grand Est,Aube
Europe,FR,10005 CEDEX,Troyes,Grand Est,Aube
Europe,FR,10006 CEDEX,Troyes,Grand Est,Aube
Europe,FR,10007 CEDEX,Troyes,Grand Est,Aube
Europe,FR,10008 CEDEX,Troyes,Grand Est,Aube
Europe,FR,10009 CEDEX,Troyes,Grand Est,Aube
Europe,FR,10010 CEDEX,Troyes,Grand Est,Aube
Europe,FR,10011 CEDEX,Troyes,Grand Est,Aube
Europe,FR,10012 CEDEX,Troyes,Grand Est,Aube
Europe,FR,2160,Gernicourt,Grand Est,Marne
Europe,FR,55000,Montplonne,Grand Est,Meuse
Europe,FR,55000,Resson,Grand Est,Meuse
Europe,FR,55000,Saudrupt,Grand Est,Meuse
Europe,FR,55000,Behonne,Grand Est,Meuse
Europe,FR,55000,Silmont,Grand Est,Meuse
Europe,FR,55000,Culey,Grand Est,Meuse
Europe,FR,55000,Guerpont,Grand Est,Meuse
Europe,FR,55000,Rumont,Grand Est,Meuse
Europe,FR,55000,Loisey,Grand Est,Meuse
Europe,FR,55000,Tannois,Grand Est,Meuse
Europe,FR,55000,Salmagne,Grand Est,Meuse
Europe,FR,55000,Seigneulles,Grand Est,Meuse
Europe,FR,55000,Chardogne,Grand Est,Meuse
Europe,FR,57000,Metz,Grand Est,Moselle
Europe,FR,57003 CEDEX 01,Metz,Grand Est,Moselle
Europe,FR,57004 CEDEX 01,Metz,Grand Est,Moselle
Europe,FR,57005 CEDEX 01,Metz,Grand Est,Moselle
Europe,FR,57006 CEDEX 01,Metz,Grand Est,Moselle
Europe,FR,57007 CEDEX 01,Metz,Grand Est,Moselle
Europe,FR,57008 CEDEX 01,Metz,Grand Est,Moselle
Europe,FR,57009 CEDEX 01,Metz,Grand Est,Moselle
Europe,FR,57010 CEDEX 01,Metz,Grand Est,Moselle
Europe,FR,57011 CEDEX 01,Metz,Grand Est,Moselle
Europe,FR,57012 CEDEX 01,Metz,Grand Est,Moselle
Europe,FR,57013 CEDEX 01,Metz,Grand Est,Moselle
Europe,FR,57014 CEDEX 01,Metz,Grand Est,Moselle
Europe,FR,88000,Dignonville,Grand Est,Vosges
Europe,FR,88000,Dogneville,Grand Est,Vosges
Europe,FR,88000,Chantraine,Grand Est,Vosges
Europe,FR,88000,Deyvillers,Grand Est,Vosges
Europe,FR,88000,Jeuxey,Grand Est,Vosges
Europe,FR,53000,Laval,Pays de la Loire,Mayenne
Europe,FR,53001 CEDEX,Laval,Pays de la Loire,Mayenne
Europe,FR,53002 CEDEX,Laval,Pays de la Loire,Mayenne
Europe,FR,53003 CEDEX,Laval,Pays de la Loire,Mayenne
Europe,FR,53004 CEDEX,Laval,Pays de la Loire,Mayenne
Europe,FR,53005 CEDEX,Laval,Pays de la Loire,Mayenne
Europe,FR,53006 CEDEX,Laval,Pays de la Loire,Mayenne
Europe,FR,72000,Le Mans,Pays de la Loire,Sarthe
Europe,FR,72001 CEDEX 1,Le Mans,Pays de la Loire,Sarthe
Asia,IN,533001,Suryaraopeta,Andhra Pradesh,East Godavari
Asia,IN,533001,Govt.Gen Hospital,Andhra Pradesh,East Godavari
Asia,IN,533001,Kakinada H.O,Andhra Pradesh,East Godavari
Asia,IN,533001,Kakinada Bazar,Andhra Pradesh,East Godavari
Asia,IN,533002,Jagannaickpur,Andhra Pradesh,East Godavari
Asia,IN,533002,M S N Charties,Andhra Pradesh,East Godavari
Asia,IN,533002,Church Square,Andhra Pradesh,East Godavari
Asia,IN,533003,Bhaskarnagar,Andhra Pradesh,East Godavari
Asia,IN,533003,Engg.College,Andhra Pradesh,East Godavari
Asia,IN,520001,Wnchipet,Andhra Pradesh,Krishna
Asia,IN,520001,Vijayawada H.O,Andhra Pradesh,Krishna
Asia,IN,520001,Vja Railway Junction,Andhra Pradesh,Krishna
Asia,IN,520001,Chittinagar,Andhra Pradesh,Krishna
Asia,IN,520001,Vja Rly Divl Office,Andhra Pradesh,Krishna
Asia,IN,520002,Suryaraopet,Andhra Pradesh,Krishna
Asia,IN,520002,Arundalpet,Andhra Pradesh,Krishna
Asia,IN,520002,Civil Coursts,Andhra Pradesh,Krishna
Asia,IN,520002,Durga Agraharam,Andhra Pradesh,Krishna
Asia,IN,520002,Buckinghampet H.O,Andhra Pradesh,Krishna
Asia,IN,520003,Purnanandampet,Andhra Pradesh,Krishna
Asia,IN,520003,Ramakrishnapuram,Andhra Pradesh,Krishna
Asia,IN,520003,Durgapuram,Andhra Pradesh,Krishna
Asia,IN,520003,A.C.Company,Andhra Pradesh,Krishna
Asia,IN,520004,Gunadala,Andhra Pradesh,Krishna
Asia,IN,520007,Yanamalakuduru,Andhra Pradesh,Krishna
Asia,IN,520007,Vasanthanagar,Andhra Pradesh,Krishna
Asia,IN,520007,Kanuru,Andhra Pradesh,Krishna
Asia,IN,520007,Autonagar,Andhra Pradesh,Krishna
Asia,IN,520008,Currency Nagar,Andhra Pradesh,Krishna
Asia,IN,520008,A.P.U.H.S,Andhra Pradesh,Krishna
Asia,IN,522001,Old Guntur,Andhra Pradesh,Guntur
Asia,IN,522001,Govt. General Hospital,Andhra Pradesh,Guntur
Asia,IN,522002,Guntur H.O,Andhra Pradesh,Guntur
Asia,IN,522003,Guntur Bazar,Andhra Pradesh,Guntur
Asia,IN,522003,Factories Ward,Andhra Pradesh,Guntur
Asia,IN,522004,Guntur Collectorate,Andhra Pradesh,Guntur
Asia,IN,522004,Guntur Medical College,Andhra Pradesh,Guntur
Asia,IN,522004,Venugopalanagar Colony,Andhra Pradesh,Guntur
Asia,IN,522005,Obulanaidupalem,Andhra Pradesh,Guntur
Asia,IN,522005,Nallapadu,Andhra Pradesh,Guntur
Asia,IN,522005,Pothuru,Andhra Pradesh,Guntur
Asia,IN,522005,Ankireddypalem,Andhra Pradesh,Guntur
Asia,IN,522005,Vengalayapalem,Andhra Pradesh,Guntur
Asia,IN,522007,Chandramoulinagar,Andhra Pradesh,Guntur
Asia,IN,522009,Pedapalakaluru,Andhra Pradesh,Guntur
Asia,IN,522009,Perecherla,Andhra Pradesh,Guntur
Asia,IN,522009,Perecherla Junction,Andhra Pradesh,Guntur
Asia,IN,522015,Vangipuram,Andhra Pradesh,Guntur
Asia,IN,522015,Abbineniguntapalem,Andhra Pradesh,Guntur
Asia,IN,523331,Ramachandrakota,Andhra Pradesh,Prakasam
Asia,IN,523331,Chintala,Andhra Pradesh,Prakasam
Asia,IN,523331,Pedda Dornala,Andhra Pradesh,Prakasam
Asia,IN,523331,Nallaguntla,Andhra Pradesh,Prakasam
Asia,IN,523331,Yadavalli,Andhra Pradesh,Prakasam
Asia,IN,523331,Katakanipalle,Andhra Pradesh,Prakasam
Asia,IN,523331,Thammadapalle,Andhra Pradesh,Prakasam
Asia,IN,523331,Pedda Bommalapuram,Andhra Pradesh,Prakasam
Asia,IN,523331,Jammidornala,Andhra Pradesh,Prakasam
Asia,IN,523331,Chinna Dornala,Andhra Pradesh,Prakasam
Asia,IN,523331,Ayanamukkala,Andhra Pradesh,Prakasam
Asia,IN,523332,Tarlupadu,Andhra Pradesh,Prakasam
Asia,IN,523332,Bondalapadu,Andhra Pradesh,Prakasam
Asia,IN,523332,Tarlupadumission Compound,Andhra Pradesh,Prakasam
Asia,IN,524001,Ranganayakulapeta,Andhra Pradesh,Nellore
Asia,IN,518001,Kurnool Bazar,Andhra Pradesh,Kurnool
Asia,IN,518001,Kurnool H.O,Andhra Pradesh,Kurnool
Asia,IN,518001,Kurnool Dt Court,Andhra Pradesh,Kurnool
Asia,IN,518002,Kurnool Medicalcollege,Andhra Pradesh,Kurnool
Asia,IN,518002,Meedivemula,Andhra Pradesh,Kurnool
Asia,IN,518002,M.S.Nagar,Andhra Pradesh,Kurnool
Asia,IN,518002,Narnur,Andhra Pradesh,Kurnool
Asia,IN,505416,Medaram,Andhra Pradesh,Peddapalli
Asia,IN,505416,Dharmaram,Andhra Pradesh,Peddapalli
Asia,IN,783127,Sarkarergaon,Assam,Dhubri
Asia,IN,781301,Barpeta H.O,Assam,Barpeta
Asia,IN,781301,Thakurbazar,Assam,Barpeta
Asia,IN,781302,Barghol,Assam,Barpeta
Asia,IN,781302,Gomafulbari,Assam,Barpeta
Asia,IN,781302,Baharihat,Assam,Barpeta
Asia,IN,781302,Nizbahari,Assam,Barpeta
Asia,IN,782001,Nagaon H.O,Assam,Nagaon
Asia,IN,782001,Nagaon Girls  College,Assam,Nagaon
Asia,IN,782002,Solmari,Assam,Nagaon
Asia,IN,782002,Haiborgaon,Assam,Nagaon
Asia,IN,784001,Kacharigaon,Assam,Sonitpur
Asia,IN,784001,Mahabhairab,Assam,Sonitpur
Asia,IN,787026,Jairampur,Assam,Dhemaji
Asia,IN,787026,Bordoloni,Assam,Dhemaji
Asia,IN,786125,Prakash Bazar,Assam,Tinsukia
Asia,IN,786125,Tinsukia H.O,Assam,Tinsukia
Asia,IN,788001,Dewanji Bazar,Assam,Cachar
Asia,IN,783134,Melopara,Assam,Bongaigaon
Asia,IN,783360,Panbari Bazar,Assam,Bongaigaon
Asia,IN,781126,Mukalmua,Assam,Nalbari
Asia,IN,781126,Kandhbari,Assam,Nalbari
Asia,IN,781126,Bhangnamari,Assam,Nalbari
Asia,IN,781126,Dagapara,Assam,Nalbari
Asia,IN,781126,Adabari,Assam,Nalbari
Asia,IN,781126,Meritary,Assam,Nalbari
Asia,IN,784113,Kopati,Assam,Darrang
Asia,IN,396193,Dadra,Dadra & Nagar Haveli,Dadra & Nagar Haveli
Asia,IN,396193,Karvad,Dadra & Nagar Haveli,Dadra & Nagar Haveli
Asia,IN,396230,Mandoni,Dadra & Nagar Haveli,Dadra & Nagar Haveli
Asia,IN,396230,Velugam,Dadra & Nagar Haveli,Dadra & Nagar Haveli
Asia,IN,396230,Umarkui,Dadra & Nagar Haveli,Dadra & Nagar Haveli
Asia,IN,396230,Silvassa,Dadra & Nagar Haveli,Dadra & Nagar Haveli
Asia,IN,396230,Sindoni,Dadra & Nagar Haveli,Dadra & Nagar Haveli
Asia,IN,396230,Sili,Dadra & Nagar Haveli,Dadra & Nagar Haveli
Asia,IN,396230,Selti,Dadra & Nagar Haveli,Dadra & Nagar Haveli
Asia,IN,396230,Amli,Dadra & Nagar Haveli,Dadra & Nagar Haveli
Asia,IN,396230,Karachgam,Dadra & Nagar Haveli,Dadra & Nagar Haveli
Asia,IN,110053,Bhajan Pura,Delhi,North East Delhi
Asia,IN,110090,Shriram Colony Rajeev Nagar,Delhi,North East Delhi
Asia,IN,110090,Shaheed Bhagat Singh Colony,Delhi,North East Delhi
Asia,IN,110090,Dayalpur,Delhi,North East Delhi
Asia,IN,110093,Sunder Nagari,Delhi,North East Delhi
Asia,IN,110093,Mandoli Saboli,Delhi,North East Delhi
Asia,IN,110031,Geeta Colony,Delhi,East Delhi
Asia,IN,110031,Rajgarh Colony,Delhi,East Delhi
Asia,IN,110031,Gandhi Nagar Bazar,Delhi,East Delhi
Asia,IN,110031,Raghubar Pura,Delhi,East Delhi
Asia,IN,110031,Kailash Nagar,Delhi,East Delhi
Asia,IN,110032,Shahdara,Delhi,East Delhi
Asia,IN,110032,Balbir Nagar,Delhi,East Delhi
Asia,IN,110032,Loni Road,Delhi,East Delhi
Asia,IN,110032,Goverdhan Bihari Colony,Delhi,East Delhi
Asia,IN,110032,Bhola Nath Nagar,Delhi,East Delhi
Asia,IN,110032,Man Sarovar Park,Delhi,East Delhi
Asia,IN,110001,New Delhi G.P.O.,Delhi,New Delhi
Asia,IN,110002,Civic Centre,Delhi,New Delhi
Asia,IN,110020,F F C Okhla,Delhi,New Delhi
Asia,IN,110029,Nauroji Nagar,Delhi,New Delhi
Asia,IN,110043,Gopal Nagar,Delhi,New Delhi
Asia,IN,110084,Nathupura Village,Delhi,New Delhi
Asia,IN,110098,AMPC Delivery,Delhi,New Delhi
Asia,IN,110003,Pragati Vihar,Delhi,South Delhi
Asia,IN,110003,Lodi Road H.O,Delhi,South Delhi
Asia,IN,245206,Khaspur,Uttar Pradesh,Meerut
Asia,IN,245206,Panchi,Uttar Pradesh,Meerut
Asia,IN,245206,Phaphunda,Uttar Pradesh,Meerut
Asia,IN,245206,Kaili,Uttar Pradesh,Meerut
Asia,IN,201001,Ramte Ram Road,Uttar Pradesh,Ghaziabad
Asia,IN,201001,Ghaziabad H.O,Uttar Pradesh,Ghaziabad
Asia,IN,201002,Raispur,Uttar Pradesh,Ghaziabad
Asia,IN,201002,Shahpur Bamheta,Uttar Pradesh,Ghaziabad
Asia,IN,201002,Rajapur,Uttar Pradesh,Ghaziabad
Asia,IN,281001,Sankat Mochan,Uttar Pradesh,Mathura
Asia,IN,281001,Jait,Uttar Pradesh,Mathura
Asia,IN,281001,Mathura Chawk,Uttar Pradesh,Mathura
Asia,IN,282001,Tajganj,Uttar Pradesh,Agra
Asia,IN,282001,Sultan Pura,Uttar Pradesh,Agra
Asia,IN,282001,Taj,Uttar Pradesh,Agra
Asia,IN,282001,509 Command,Uttar Pradesh,Agra
Asia,IN,282001,Sarai Khawaja,Uttar Pradesh,Agra
Asia,IN,282001,Seola Jat,Uttar Pradesh,Agra
Asia,IN,243001,Bareilly College,Uttar Pradesh,Bareilly
Asia,IN,243001,Municipal Board,Uttar Pradesh,Bareilly
Asia,IN,243001,Nc Lines Bareilly,Uttar Pradesh,Bareilly
Asia,IN,243001,Marhinath Road,Uttar Pradesh,Bareilly
Asia,IN,243001,Bareilly Kty,Uttar Pradesh,Bareilly
Asia,IN,243001,Mango Road,Uttar Pradesh,Bareilly
Asia,IN,243001,Chaupla,Uttar Pradesh,Bareilly
Asia,IN,243001,Bareilly H.O,Uttar Pradesh,Bareilly
Asia,IN,243001,Mission Hospital,Uttar Pradesh,Bareilly
Asia,IN,226001,Lucknow G.P.O.,Uttar Pradesh,Lucknow
Asia,IN,226001,CPMG Campus,Uttar Pradesh,Lucknow
Asia,IN,226001,Jawahar Bhawan,Uttar Pradesh,Lucknow
Asia,IN,226001,Gokhley Marg,Uttar Pradesh,Lucknow
Asia,IN,226001,H C Bench,Uttar Pradesh,Lucknow
Asia,IN,226001,Darul Safa,Uttar Pradesh,Lucknow
Asia,IN,226001,A P Sabha,Uttar Pradesh,Lucknow
Asia,IN,226001,Canal Colony,Uttar Pradesh,Lucknow
Asia,IN,226002,Bijnaur,Uttar Pradesh,Lucknow
Asia,IN,226002,Barauna,Uttar Pradesh,Lucknow
Asia,IN,226002,Kharika,Uttar Pradesh,Lucknow
Asia,IN,226002,Arjunganj,Uttar Pradesh,Lucknow
Asia,IN,284001,Jhansi H.O,Uttar Pradesh,Jhansi
Asia,IN,284001,Jhansi Cantt.,Uttar Pradesh,Jhansi
Asia,IN,284001,Jhansi Sadar Bazar,Uttar Pradesh,Jhansi
Asia,IN,284001,Chauraha Municipal Board,Uttar Pradesh,Jhansi
Asia,IN,284001,Jhansi Kutchery,Uttar Pradesh,Jhansi
Asia,IN,210202,Hariharpur,Uttar Pradesh,Chitrakoot
Asia,IN,210202,Ghuretanpur,Uttar Pradesh,Chitrakoot
Asia,IN,210202,Titihara,Uttar Pradesh,Chitrakoot
Asia,IN,210203,Pahari Bujurg Sani,Uttar Pradesh,Chitrakoot
Asia,IN,210204,Khohi,Uttar Pradesh,Chitrakoot
Asia,IN,210204,Semaria Jagannathpurbasi,Uttar Pradesh,Chitrakoot
Asia,IN,210204,Bhaisaundha,Uttar Pradesh,Chitrakoot
Asia,IN,210204,Jankikund,Uttar Pradesh,Chitrakoot
Asia,IN,210204,Chitrakot,Uttar Pradesh,Chitrakoot
Asia,IN,210205,Karwi,Uttar Pradesh,Chitrakoot
Asia,IN,274001,Ram Gulam Tola,Uttar Pradesh,Deoria
Asia,IN,274001,Deoria H.O,Uttar Pradesh,Deoria
Asia,IN,274001,Deoria Sadar R.S.,Uttar Pradesh,Deoria
Asia,IN,221009,Sahupuri,Uttar Pradesh,Chandauli
Asia,IN,221115,Patti,Uttar Pradesh,Chandauli
Asia,IN,221115,Marufpur,Uttar Pradesh,Chandauli
Asia,IN,221115,Tanda Kalan,Uttar Pradesh,Chandauli
Asia,IN,221115,Jurahardhan,Uttar Pradesh,Chandauli
Asia,IN,221115,Samudpur,Uttar Pradesh,Chandauli
Asia,IN,232101,Bharchha,Uttar Pradesh,Chandauli
Asia,IN,232101,Kurahana,Uttar Pradesh,Chandauli
Asia,IN,232101,Alampur,Uttar Pradesh,Chandauli
Asia,IN,232101,Alinagar,Uttar Pradesh,Chandauli
Asia,IN,232101,Pachokhar,Uttar Pradesh,Chandauli
Asia,IN,232101,Dandi,Uttar Pradesh,Chandauli
Asia,IN,232101,Derwakalan,Uttar Pradesh,Chandauli
Asia,IN,209862,Akrampur,Uttar Pradesh,Varanasi
Asia,IN,207001,Patiali Gate,Uttar Pradesh,Etah
Asia,IN,207001,Etah H.O,Uttar Pradesh,Etah
Asia,IN,207001,Collectorate Compound,Uttar Pradesh,Etah
Asia,IN,207002,Rajpur,Uttar Pradesh,Etah
Asia,IN,245205,Brijghat,Uttar Pradesh,Hapur
Asia,IN,245301,Dhaulana,Uttar Pradesh,Hapur
Asia,IN,245304,New Market Pilkhauwa,Uttar Pradesh,Hapur
Asia,IN,245304,Pilkhauwa ,Uttar Pradesh,Hapur
Asia,JP,480-0100,Ikanikeisaiganaibaai,Aichi Ken,Niwa Gun
Asia,JP,480-0100,Ikanikeisaiganaibaai,Aichi Ken,Niwa Gun
Asia,JP,480-0101,Yamana,Aichi Ken,Niwa Gun
Asia,JP,480-1100,Ikanikeisaiganaibaai,Aichi Ken,Nagakute Shi
Asia,JP,480-1102,Maeguma Horikoshi,Aichi Ken,Nagakute Shi
Asia,JP,480-1102,Maeguma Nishiwaki,Aichi Ken,Nagakute Shi
Asia,JP,480-1102,Maeguma Hashinomoto,Aichi Ken,Nagakute Shi
Asia,JP,480-1102,Maeguma Mizoshita,Aichi Ken,Nagakute Shi
Asia,JP,470-0200,Ikanikeisaiganaibaai,Aichi Ken,Miyoshi Shi
Asia,JP,472-0000,Ikanikeisaiganaibaai,Aichi Ken,Chiryu Shi
Asia,JP,472-0001,Yatsuhashicho,Aichi Ken,Chiryu Shi
Asia,JP,472-0002,Raikojicho,Aichi Ken,Chiryu Shi
Asia,JP,472-0003,Ushida,Aichi Ken,Chiryu Shi
Asia,JP,472-0004,Nanyo,Aichi Ken,Chiryu Shi
Asia,JP,472-0005,Shinike,Aichi Ken,Chiryu Shi
Asia,JP,472-0006,Yamamachi,Aichi Ken,Chiryu Shi
Asia,JP,472-0007,Ushitacho,Aichi Ken,Chiryu Shi
Asia,JP,472-0011,Showa,Aichi Ken,Chiryu Shi
Asia,JP,490-1100,Ikanikeisaiganaibaai,Aichi Ken,Ama Gun
Asia,JP,490-1131,Nagamaki,Aichi Ken,Ama Gun
Asia,JP,490-1132,Kitamajima,Aichi Ken,Ama Gun
Asia,JP,470-0100,Ikanikeisaiganaibaai,Aichi Ken,Aichi Gun
Asia,JP,470-0151,Morowa,Aichi Ken,Aichi Gun
Asia,JP,470-0152,Kitayamadai,Aichi Ken,Aichi Gun
Asia,JP,470-0153,Wago,Aichi Ken,Aichi Gun
Asia,JP,470-0154,Wagogaoka,Aichi Ken,Aichi Gun
Asia,JP,470-0155,Shiratori,Aichi Ken,Aichi Gun
Asia,JP,470-0156,Mitake,Aichi Ken,Aichi Gun
Asia,JP,470-0161,Harukidai,Aichi Ken,Aichi Gun
Asia,JP,470-0162,Haruki,Aichi Ken,Aichi Gun
Asia,JP,470-0163,Suzumimatsu,Aichi Ken,Aichi Gun
Asia,JP,470-0164,Mitsuike,Aichi Ken,Aichi Gun
Asia,JP,470-0165,Shimizu,Aichi Ken,Aichi Gun
Asia,JP,470-0166,Hyogo,Aichi Ken,Aichi Gun
Asia,JP,496-0000,Ikanikeisaiganaibaai,Aichi Ken,Aisai Shi
Asia,JP,496-0901,Sayacho,Aichi Ken,Aisai Shi
Asia,JP,496-0902,Suecho,Aichi Ken,Aisai Shi
Asia,JP,496-0903,Uchizayacho,Aichi Ken,Aisai Shi
Asia,JP,496-0904,Yugicho,Aichi Ken,Aisai Shi
Asia,JP,010-0341,Funakoshi,Akita Ken,Oga Shi
Asia,JP,012-0000,Ikanikeisaiganaibaai,Akita Ken,Yuzawa Shi
Asia,JP,012-0001,Kakuma,Akita Ken,Yuzawa Shi
Asia,JP,012-0002,Shimoniida,Akita Ken,Yuzawa Shi
Asia,JP,012-0003,Kaminiida,Akita Ken,Yuzawa Shi
Asia,JP,012-0004,Niida,Akita Ken,Yuzawa Shi
Asia,JP,012-0005,Kanaya,Akita Ken,Yuzawa Shi
Asia,JP,010-0000,Ikanikeisaiganaibaai,Akita Ken,Akita Shi
Asia,JP,010-0001,Nakadori,Akita Ken,Akita Shi
Asia,JP,010-0002,Higashidori Nakamachi,Akita Ken,Akita Shi
Asia,JP,010-0003,Higashidori,Akita Ken,Akita Shi
Asia,JP,010-0004,Higashidori Kannommae,Akita Ken,Akita Shi
Asia,JP,015-0000,Ikanikeisaiganaibaai,Akita Ken,Yurihonjo Shi
Asia,JP,015-0021,Ora,Akita Ken,Yurihonjo Shi
Asia,JP,015-0022,Uchikurose,Akita Ken,Yurihonjo Shi
Asia,JP,015-0023,Akata,Akita Ken,Yurihonjo Shi
Asia,JP,015-0024,Utetsu,Akita Ken,Yurihonjo Shi
Asia,JP,015-0025,Yamada,Akita Ken,Yurihonjo Shi
Asia,JP,015-0031,Hamasankawa,Akita Ken,Yurihonjo Shi
Asia,JP,015-0032,Matsugasaki,Akita Ken,Yurihonjo Shi
Asia,JP,015-0033,Shinnosawa,Akita Ken,Yurihonjo Shi
Asia,JP,018-5501,Towadakohanyasumiya),Aomori Ken,Towada Shi
Asia,JP,034-0000,Ikanikeisaiganaibaai,Aomori Ken,Towada Shi
Asia,JP,034-0001,Sambongi,Aomori Ken,Towada Shi
Asia,JP,034-0002,Motomachinishi,Aomori Ken,Towada Shi
Asia,JP,034-0003,Motomachihigashi,Aomori Ken,Towada Shi
Asia,JP,034-0004,Higashino,Aomori Ken,Towada Shi
Asia,JP,034-0005,Ippongisawa,Aomori Ken,Towada Shi
Asia,JP,034-0303,Horyo,Aomori Ken,Towada Shi
Asia,JP,035-0000,Ikanikeisaiganaibaai,Aomori Ken,Shimokita Gun
Asia,JP,039-4602,Okoppe,Aomori Ken,Shimokita Gun
Asia,JP,039-4700,Ikanikeisaiganaibaai,Aomori Ken,Shimokita Gun
Asia,JP,039-4711,Sai,Aomori Ken,Shimokita Gun
Asia,JP,039-4712,Chogo,Aomori Ken,Shimokita Gun
Asia,JP,039-0100,Ikanikeisaiganaibaai,Aomori Ken,Sannohe Gun
Asia,JP,039-0100,Ikanikeisaiganaibaai,Aomori Ken,Sannohe Gun
Asia,JP,039-0101,Tamakake,Aomori Ken,Sannohe Gun
Asia,JP,039-1526,Shimonagashita,Aomori Ken,Sannohe Gun
Asia,JP,039-1526,Sorimbashi,Aomori Ken,Sannohe Gun
Asia,JP,035-0000,Ikanikeisaiganaibaai,Aomori Ken,Mutsu Shi
Asia,JP,030-0111,Arakawa,Aomori Ken,Aomori Shi
Asia,JP,030-0112,Yatsuyaku,Aomori Ken,Aomori Shi
Asia,JP,030-0113,Dainitonyamachi,Aomori Ken,Aomori Shi
Asia,JP,030-0121,Myoken,Aomori Ken,Aomori Shi
Asia,JP,036-1400,Ikanikeisaiganaibaai,Aomori Ken,Nakatsugaru Gun
Asia,JP,036-1411,Tashiro,Aomori Ken,Nakatsugaru Gun
Asia,JP,036-1412,Sugigasawa,Aomori Ken,Nakatsugaru Gun
Asia,JP,036-1413,Taiaki,Aomori Ken,Nakatsugaru Gun
Asia,JP,036-1414,Shirasawa,Aomori Ken,Nakatsugaru Gun
Asia,JP,036-1415,Muraichi,Aomori Ken,Nakatsugaru Gun
Asia,JP,036-1421,Fujikawa,Aomori Ken,Nakatsugaru Gun
Asia,JP,036-1422,Imoritai,Aomori Ken,Nakatsugaru Gun
Asia,JP,036-1423,Sunakose,Aomori Ken,Nakatsugaru Gun
Asia,JP,036-1424,Kawaratai,Aomori Ken,Nakatsugaru Gun
Asia,JP,037-0101,Inagakicho Shimoshigeta,Aomori Ken,Tsugaru Shi
Asia,JP,037-0102,Inagakicho Shigeta,Aomori Ken,Tsugaru Shi
Asia,JP,037-0103,Inagakicho Hozumi,Aomori Ken,Tsugaru Shi
Asia,JP,037-0104,Inagakicho Toyokawa,Aomori Ken,Tsugaru Shi
Asia,JP,037-0105,Inagakicho Fukutomi,Aomori Ken,Tsugaru Shi
Asia,JP,037-0106,Inagakicho Numazaki,Aomori Ken,Tsugaru Shi
Asia,JP,038-2201,Sawabe,Aomori Ken,Nishitsugaru Gun
Asia,JP,038-2202,Iwasaki,Aomori Ken,Nishitsugaru Gun
Asia,JP,038-2203,Shodojiri,Aomori Ken,Nishitsugaru Gun
Asia,JP,279-0000,Ikanikeisaiganaibaai,Chiba Ken,Urayasu Shi
Asia,JP,279-0001,Todaijima,Chiba Ken,Urayasu Shi
Asia,JP,279-0002,Kitazakae,Chiba Ken,Urayasu Shi
Asia,JP,279-0003,Kairaku,Chiba Ken,Urayasu Shi
Asia,JP,279-0004,Nekozane,Chiba Ken,Urayasu Shi
Asia,JP,279-0011,Mihama,Chiba Ken,Urayasu Shi
Asia,JP,294-0012,Ina,Chiba Ken,Tateyama Shi
Asia,JP,294-0013,Hogai,Chiba Ken,Tateyama Shi
Asia,JP,294-0014,Yamamoto,Chiba Ken,Tateyama Shi
Asia,JP,294-0313,Sakadaru,Chiba Ken,Tateyama Shi
Asia,JP,294-0314,Ito,Chiba Ken,Tateyama Shi
Asia,JP,294-0315,Nishikawana,Chiba Ken,Tateyama Shi
Asia,JP,294-0316,Sunosaki,Chiba Ken,Tateyama Shi
Asia,JP,270-0201,Sekiyado Sangenya,Chiba Ken,Noda Shi
Asia,JP,270-0202,Sekiyado Daimachi,Chiba Ken,Noda Shi
Asia,JP,278-0055,Iwana,Chiba Ken,Noda Shi
Asia,JP,278-0056,Gokishinden,Chiba Ken,Noda Shi
Asia,JP,278-0057,Koyocho,Chiba Ken,Noda Shi
Asia,JP,270-0100,Ikanikeisaiganaibaai,Chiba Ken,Nagareyama Shi
Asia,JP,270-0101,Higashifukai,Chiba Ken,Nagareyama Shi
Asia,JP,270-0174,Shimohanawa,Chiba Ken,Nagareyama Shi
Asia,JP,270-0175,Miwanoyama,Chiba Ken,Nagareyama Shi
Asia,JP,270-0176,Ka,Chiba Ken,Nagareyama Shi
Asia,JP,271-0095,Nakayakiri,Chiba Ken,Matsudo Shi
Asia,JP,271-0096,Shimoyakiri,Chiba Ken,Matsudo Shi
Asia,JP,271-0097,Kuriyama,Chiba Ken,Matsudo Shi
Asia,JP,292-0401,Yamamoto,Chiba Ken,Kimitsu Shi
Asia,JP,292-0402,Nishibara,Chiba Ken,Kimitsu Shi
Asia,JP,299-1171,Yaehara,Chiba Ken,Kimitsu Shi
Asia,JP,299-1172,Mino,Chiba Ken,Kimitsu Shi
Asia,JP,299-1173,Sotominowa,Chiba Ken,Kimitsu Shi
Asia,JP,299-1174,Hogisaku,Chiba Ken,Kimitsu Shi
Asia,JP,299-1175,Uchiminowa,Chiba Ken,Kimitsu Shi
Asia,JP,299-1176,Uchiminowa,Chiba Ken,Kimitsu Shi
Asia,JP,276-0000,Ikanikeisaiganaibaai,Chiba Ken,Yachiyo Shi
Asia,JP,276-0001,Koike,Chiba Ken,Yachiyo Shi
Asia,JP,276-0002,Makino,Chiba Ken,Yachiyo Shi
Asia,JP,286-0200,Ikanikeisaiganaibaai,Chiba Ken,Tomisato Shi
Asia,JP,286-0201,Hiyoshidai,Chiba Ken,Tomisato Shi
Asia,JP,286-0202,Hiyoshikura,Chiba Ken,Tomisato Shi
Asia,JP,286-0203,Kuno,Chiba Ken,Tomisato Shi
Asia,JP,286-0204,Owa,Chiba Ken,Tomisato Shi
Asia,JP,286-0205,Nekona,Chiba Ken,Tomisato Shi
Asia,JP,286-0211,Goryo,Chiba Ken,Tomisato Shi
Asia,JP,286-0212,Tokura,Chiba Ken,Tomisato Shi
Asia,JP,286-0213,Takamatsu,Chiba Ken,Tomisato Shi
Asia,JP,286-0214,Tatsuzawa,Chiba Ken,Tomisato Shi
Asia,JP,286-0215,Tatsuzawashinden,Chiba Ken,Tomisato Shi
Asia,JP,286-0216,Koya,Chiba Ken,Tomisato Shi
Asia,JP,286-0221,Nanae,Chiba Ken,Tomisato Shi
Asia,JP,286-0222,Nakazawa,Chiba Ken,Tomisato Shi
Asia,JP,286-0223,Shinnakazawa,Chiba Ken,Tomisato Shi
Asia,JP,286-0224,Nippashi,Chiba Ken,Tomisato Shi
Asia,JP,286-0225,Misawa,Chiba Ken,Tomisato Shi
Asia,JP,283-0000,Ikanikeisaiganaibaai,Chiba Ken,Togane Shi
Asia,JP,283-0001,Ienoko,Chiba Ken,Togane Shi
Asia,JP,299-0200,Ikanikeisaiganaibaai,Chiba Ken,Sodegaura Shi
Asia,JP,299-0201,Kawaharai,Chiba Ken,Sodegaura Shi
Asia,JP,299-0202,Hayashi,Chiba Ken,Sodegaura Shi
Asia,JP,299-0203,Takaya,Chiba Ken,Sodegaura Shi
Asia,JP,299-0204,Nagayoshi,Chiba Ken,Sodegaura Shi
Asia,JP,270-1400,Ikanikeisaiganaibaai,Chiba Ken,Shiroi Shi
Asia,JP,270-1401,Imai,Chiba Ken,Shiroi Shi
Asia,JP,270-1402,Hiratsuka,Chiba Ken,Shiroi Shi
Asia,JP,270-1403,Kawarago,Chiba Ken,Shiroi Shi
Asia,JP,270-1404,Oritate,Chiba Ken,Shiroi Shi
Asia,JP,270-1405,Tomitsuka,Chiba Ken,Shiroi Shi
Asia,JP,270-1406,Naka,Chiba Ken,Shiroi Shi
Asia,JP,270-1407,Nauchi,Chiba Ken,Shiroi Shi
Asia,JP,270-1408,Nishishiroi,Chiba Ken,Shiroi Shi
Asia,JP,270-1411,Toyoichi,Chiba Ken,Shiroi Shi
Asia,JP,270-1412,Sakuradai,Chiba Ken,Shiroi Shi
Asia,JP,270-1413,Muzai,Chiba Ken,Shiroi Shi
Asia,JP,270-1414,Yata,Chiba Ken,Shiroi Shi
Asia,JP,270-1415,Kiyodo,Chiba Ken,Shiroi Shi
Asia,JP,270-1416,Shishiba,Chiba Ken,Shiroi Shi
Asia,JP,270-1421,Shiroi,Chiba Ken,Shiroi Shi
Asia,JP,270-1422,Fuku,Chiba Ken,Shiroi Shi
Asia,JP,270-1423,Minamiyama,Chiba Ken,Shiroi Shi
Asia,JP,270-1424,Horigome,Chiba Ken,Shiroi Shi
Asia,JP,270-1425,Ikenokami,Chiba Ken,Shiroi Shi
Asia,JP,270-1426,Sasazuka,Chiba Ken,Shiroi Shi
Asia,JP,270-1431,Ne,Chiba Ken,Shiroi Shi
Asia,JP,270-1432,Fuji,Chiba Ken,Shiroi Shi
Asia,JP,270-1433,Keyakidai,Chiba Ken,Shiroi Shi
Asia,JP,270-1434,Oyamaguchi,Chiba Ken,Shiroi Shi
Asia,JP,270-1435,Shimizuguchi,Chiba Ken,Shiroi Shi
Asia,JP,270-1436,Nanatsugidai,Chiba Ken,Shiroi Shi
Asia,JP,270-1437,Ki,Chiba Ken,Shiroi Shi
Asia,JP,270-1438,Noguchi,Chiba Ken,Shiroi Shi
Asia,JP,270-1439,Daimatsu,Chiba Ken,Shiroi Shi
Asia,JP,283-0100,Ikanikeisaiganaibaai,Chiba Ken,Sambu Gun
Asia,JP,283-0101,Sakuda,Chiba Ken,Sambu Gun
Asia,JP,283-0102,Koseki,Chiba Ken,Sambu Gun
Asia,JP,283-0103,Tanakaaraoi,Chiba Ken,Sambu Gun
Asia,JP,283-0104,Katakai,Chiba Ken,Sambu Gun
Asia,JP,283-0105,Ao,Chiba Ken,Sambu Gun
Asia,JP,283-0106,Shuku,Chiba Ken,Sambu Gun
Asia,JP,283-0107,Araoi,Chiba Ken,Sambu Gun
Asia,JP,285-0000,Ikanikeisaiganaibaai,Chiba Ken,Sakura Shi
Asia,JP,285-0001,Tsuchiuki,Chiba Ken,Sakura Shi
Asia,JP,285-0002,Hagiyamashinden,Chiba Ken,Sakura Shi
Asia,JP,285-0003,Iino,Chiba Ken,Sakura Shi
Asia,JP,285-0004,Iwana,Chiba Ken,Sakura Shi
Asia,JP,285-0005,Miyamae,Chiba Ken,Sakura Shi
Asia,JP,285-0006,Shimone,Chiba Ken,Sakura Shi
Asia,JP,285-0007,Shimonemachi,Chiba Ken,Sakura Shi
Asia,JP,275-0000,Ikanikeisaiganaibaai,Chiba Ken,Narashino Shi
Asia,JP,275-0001,Higashinarashino,Chiba Ken,Narashino Shi
Asia,JP,275-0002,Mimomi,Chiba Ken,Narashino Shi
Asia,JP,275-0003,Mimomihongo,Chiba Ken,Narashino Shi
Asia,JP,275-0004,Yashiki,Chiba Ken,Narashino Shi
Asia,JP,275-0005,Shinei,Chiba Ken,Narashino Shi
Asia,JP,275-0006,Izumicho,Chiba Ken,Narashino Shi
Asia,JP,275-0011,Okubo,Chiba Ken,Narashino Shi
Asia,JP,275-0012,Motookubo,Chiba Ken,Narashino Shi
Asia,JP,275-0013,Hanasaki,Chiba Ken,Narashino Shi
Asia,JP,275-0014,Saginuma,Chiba Ken,Narashino Shi
Asia,JP,275-0015,Saginumadai,Chiba Ken,Narashino Shi
Asia,JP,275-0016,Tsudanuma,Chiba Ken,Narashino Shi
Asia,JP,275-0017,Fujisaki,Chiba Ken,Narashino Shi
Asia,JP,275-0021,Sodegaura,Chiba Ken,Narashino Shi
Asia,JP,275-0022,Kasumi,Chiba Ken,Narashino Shi
Asia,JP,275-0023,Shibazono,Chiba Ken,Narashino Shi
Asia,JP,275-0024,Akanehama,Chiba Ken,Narashino Shi
Asia,JP,275-0025,Akitsu,Chiba Ken,Narashino Shi
Asia,JP,275-0026,Yatsu,Chiba Ken,Narashino Shi
Asia,JP,275-0027,Yatsumachi,Chiba Ken,Narashino Shi
Asia,JP,275-0028,Kanadenomori,Chiba Ken,Narashino Shi
Asia,JP,289-0100,Ikanikeisaiganaibaai,Chiba Ken,Katori Gun
Asia,JP,289-0201,Koya,Chiba Ken,Katori Gun
Asia,JP,289-0202,Kori,Chiba Ken,Katori Gun
Asia,JP,289-0203,Onuki,Chiba Ken,Katori Gun
Asia,JP,270-1441,Washinoyashinden,Chiba Ken,Kashiwa Shi
Asia,JP,270-1442,Someiirishinden,Chiba Ken,Kashiwa Shi
Asia,JP,270-1443,Washinoya,Chiba Ken,Kashiwa Shi
Asia,JP,270-1444,Wakashiraga,Chiba Ken,Kashiwa Shi
Asia,JP,270-1445,Iwai,Chiba Ken,Kashiwa Shi
Asia,JP,270-1446,Iwaimurashinden,Chiba Ken,Kashiwa Shi
Asia,JP,296-0000,Ikanikeisaiganaibaai,Chiba Ken,Kamogawa Shi
Asia,JP,296-0001,Yokosuka,Chiba Ken,Kamogawa Shi
Asia,JP,273-0100,Ikanikeisaiganaibaai,Chiba Ken,Kamagaya Shi
Asia,JP,273-0101,Tomioka,Chiba Ken,Kamagaya Shi
Asia,JP,273-0102,Ukyozuka,Chiba Ken,Kamagaya Shi
Asia,JP,273-0103,Maruyama,Chiba Ken,Kamagaya Shi
Asia,JP,270-1100,Ikanikeisaiganaibaai,Chiba Ken,Abiko Shi
Asia,JP,270-1101,Fusa,Chiba Ken,Abiko Shi
Asia,JP,270-1102,Miyako,Chiba Ken,Abiko Shi
Asia,JP,270-1103,Fusatorimachi,Chiba Ken,Abiko Shi
Asia,JP,270-1104,Shinshinden,Chiba Ken,Abiko Shi
Asia,JP,284-0000,Ikanikeisaiganaibaai,Chiba Ken,Yotsukaido Shi
Asia,JP,284-0001,Dainichi,Chiba Ken,Yotsukaido Shi
Asia,JP,284-0002,Kayahashi,Chiba Ken,Yotsukaido Shi
Asia,JP,284-0003,Shikawatashi,Chiba Ken,Yotsukaido Shi
Asia,JP,289-2100,Ikanikeisaiganaibaai,Chiba Ken,Sosa Shi
Asia,JP,289-2101,Harumi,Chiba Ken,Sosa Shi
Asia,JP,289-2102,Tsubaki,Chiba Ken,Sosa Shi
Asia,JP,289-2103,Miyamoto,Chiba Ken,Sosa Shi
Asia,JP,289-2104,Oio,Chiba Ken,Sosa Shi
Asia,JP,289-2105,Yamakuwa,Chiba Ken,Sosa Shi
Asia,JP,289-2106,Iizuka,Chiba Ken,Sosa Shi
Asia,JP,289-2107,Yonemochi,Chiba Ken,Sosa Shi
Asia,JP,289-2108,Odera,Chiba Ken,Sosa Shi
Asia,JP,289-2111,Kawamukai,Chiba Ken,Sosa Shi
Asia,JP,289-2112,Ogino,Chiba Ken,Sosa Shi
Asia,JP,289-2113,Hiragi,Chiba Ken,Sosa Shi
Asia,JP,289-1201,Itagawa,Chiba Ken,Sammu Shi
Asia,JP,289-1202,Nakatsuta,Chiba Ken,Sammu Shi
Asia,JP,289-1203,Asoshinden,Chiba Ken,Sammu Shi
Asia,JP,289-1204,Toda,Chiba Ken,Sammu Shi
Asia,JP,289-1205,Shiizaki,Chiba Ken,Sammu Shi
Asia,JP,289-1206,Hyugadai,Chiba Ken,Sammu Shi
Asia,JP,299-5200,Ikanikeisaiganaibaai,Chiba Ken,Katsura Shi
Asia,JP,299-5201,Ichinogo,Chiba Ken,Katsura Shi
Asia,JP,299-5202,Ichinokawa,Chiba Ken,Katsura Shi
Asia,JP,299-5203,Hanazato,Chiba Ken,Katsura Shi
Asia,JP,299-5204,Nakagura,Chiba Ken,Katsura Shi
Asia,JP,796-0901,Mikamecho Shuki,Ehime Ken,Seiyo Shi
Asia,JP,796-0902,Mikamecho Nagahaya,Ehime Ken,Seiyo Shi
Asia,JP,791-2100,Ikanikeisaiganaibaai,Ehime Ken,Iyo Gun
Asia,JP,791-2111,Yakura,Ehime Ken,Iyo Gun
Asia,JP,791-2112,Shigemitsu,Ehime Ken,Iyo Gun
Asia,JP,791-2113,Jitsucho,Ehime Ken,Iyo Gun
Asia,JP,791-2114,Aso,Ehime Ken,Iyo Gun
Asia,JP,791-2115,Myoka,Ehime Ken,Iyo Gun
Asia,JP,791-2116,Haramachi,Ehime Ken,Iyo Gun
Asia,JP,791-2117,Kamiharamachi,Ehime Ken,Iyo Gun
Asia,JP,791-2122,Senzoku,Ehime Ken,Iyo Gun
Asia,JP,791-2123,Kawai,Ehime Ken,Iyo Gun
Asia,JP,791-2124,Tanora,Ehime Ken,Iyo Gun
Asia,JP,791-2125,Nanaore,Ehime Ken,Iyo Gun
Asia,JP,791-2126,Okakura,Ehime Ken,Iyo Gun
Asia,JP,792-0080,Miyakubocho Shisakajima,Ehime Ken,Imabari Shi
Asia,JP,794-0000,Ikanikeisaiganaibaai,Ehime Ken,Imabari Shi
Asia,JP,794-0001,Sunabacho,Ehime Ken,Imabari Shi
Asia,JP,794-0002,Ohamacho,Ehime Ken,Imabari Shi
Asia,JP,794-0003,Minatocho,Ehime Ken,Imabari Shi
Asia,JP,794-0004,Kanebacho,Ehime Ken,Imabari Shi
Asia,JP,794-0005,Oshindencho,Ehime Ken,Imabari Shi
Asia,JP,794-0006,Ishiicho,Ehime Ken,Imabari Shi
NorthAmerica,US,36003,Autaugaville,Alabama,Autauga
NorthAmerica,US,36006,Billingsley,Alabama,Autauga
NorthAmerica,US,36008,Booth,Alabama,Autauga
NorthAmerica,US,36051,Marbury,Alabama,Autauga
NorthAmerica,US,36066,Prattville,Alabama,Autauga
NorthAmerica,US,36067,Prattville,Alabama,Autauga
NorthAmerica,US,36068,Prattville,Alabama,Autauga
NorthAmerica,US,36749,Jones,Alabama,Autauga
NorthAmerica,US,36507,Bay Minette,Alabama,Baldwin
NorthAmerica,US,36511,Bon Secour,Alabama,Baldwin
NorthAmerica,US,36578,Stapleton,Alabama,Baldwin
NorthAmerica,US,36579,Stockton,Alabama,Baldwin
NorthAmerica,US,36580,Summerdale,Alabama,Baldwin
NorthAmerica,US,36016,Clayton,Alabama,Barbour
NorthAmerica,US,36017,Clio,Alabama,Barbour
NorthAmerica,US,36027,Eufaula,Alabama,Barbour
NorthAmerica,US,36048,Louisville,Alabama,Barbour
NorthAmerica,US,36072,Eufaula,Alabama,Barbour
NorthAmerica,US,35034,Brent,Alabama,Bibb
NorthAmerica,US,35035,Brierfield,Alabama,Bibb
NorthAmerica,US,35042,Centreville,Alabama,Bibb
NorthAmerica,US,35074,Green Pond,Alabama,Bibb
NorthAmerica,US,35184,West Blocton,Alabama,Bibb
NorthAmerica,US,35188,Woodstock,Alabama,Bibb
NorthAmerica,US,36792,Randolph,Alabama,Bibb
NorthAmerica,US,36793,Lawley,Alabama,Bibb
NorthAmerica,US,35013,Allgood,Alabama,Blount
NorthAmerica,US,35031,Blountsville,Alabama,Blount
NorthAmerica,US,35049,Cleveland,Alabama,Blount
NorthAmerica,US,35079,Hayden,Alabama,Blount
NorthAmerica,US,35097,Locust Fork,Alabama,Blount
NorthAmerica,US,35121,Oneonta,Alabama,Blount
NorthAmerica,US,35133,Remlap,Alabama,Blount
NorthAmerica,US,36029,Fitzpatrick,Alabama,Bullock
NorthAmerica,US,36053,Midway,Alabama,Bullock
NorthAmerica,US,36061,Perote,Alabama,Bullock
NorthAmerica,US,36089,Union Springs,Alabama,Bullock
NorthAmerica,US,36201,Anniston,Alabama,Calhoun
NorthAmerica,US,36202,Anniston,Alabama,Calhoun
NorthAmerica,US,36203,Oxford,Alabama,Calhoun
NorthAmerica,US,36204,Anniston,Alabama,Calhoun
NorthAmerica,US,36205,Anniston,Alabama,Calhoun
NorthAmerica,US,36206,Anniston,Alabama,Calhoun
NorthAmerica,US,36207,Anniston,Alabama,Calhoun
NorthAmerica,US,36250,Alexandria,Alabama,Calhoun
NorthAmerica,US,36253,Bynum,Alabama,Calhoun
NorthAmerica,US,36254,Choccolocco,Alabama,Calhoun
NorthAmerica,US,36257,De Armanville,Alabama,Calhoun
NorthAmerica,US,36260,Eastaboga,Alabama,Calhoun
NorthAmerica,US,36265,Jacksonville,Alabama,Calhoun
NorthAmerica,US,36271,Ohatchee,Alabama,Calhoun
NorthAmerica,US,36272,Piedmont,Alabama,Calhoun
NorthAmerica,US,36277,Weaver,Alabama,Calhoun
NorthAmerica,US,36279,Wellington,Alabama,Calhoun
NorthAmerica,US,36852,Cusseta,Alabama,Chambers
NorthAmerica,US,36854,Valley,Alabama,Chambers
NorthAmerica,US,36855,Five Points,Alabama,Chambers
NorthAmerica,US,36862,Lafayette,Alabama,Chambers
NorthAmerica,US,36863,Lanett,Alabama,Chambers
NorthAmerica,US,35959,Cedar Bluff,Alabama,Cherokee
NorthAmerica,US,35960,Centre,Alabama,Cherokee
NorthAmerica,US,35973,Gaylesville,Alabama,Cherokee
NorthAmerica,US,35983,Leesburg,Alabama,Cherokee
NorthAmerica,US,36275,Spring Garden,Alabama,Cherokee
NorthAmerica,US,35045,Clanton,Alabama,Chilton
NorthAmerica,US,35046,Clanton,Alabama,Chilton
NorthAmerica,US,35085,Jemison,Alabama,Chilton
NorthAmerica,US,35171,Thorsby,Alabama,Chilton
NorthAmerica,US,36091,Verbena,Alabama,Chilton
NorthAmerica,US,36750,Maplesville,Alabama,Chilton
NorthAmerica,US,36790,Stanton,Alabama,Chilton
NorthAmerica,US,36261,Edwardsville,Alabama,Cleburne
NorthAmerica,US,36262,Fruithurst,Alabama,Cleburne
NorthAmerica,US,36264,Heflin,Alabama,Cleburne
NorthAmerica,US,36269,Muscadine,Alabama,Cleburne
NorthAmerica,US,36273,Ranburne,Alabama,Cleburne
NorthAmerica,US,36323,Elba,Alabama,Coffee
NorthAmerica,US,36330,Enterprise,Alabama,Coffee
NorthAmerica,US,36331,Enterprise,Alabama,Coffee
NorthAmerica,US,36346,Jack,Alabama,Coffee
NorthAmerica,US,36351,New Brockton,Alabama,Coffee
NorthAmerica,US,36453,Kinston,Alabama,Coffee
NorthAmerica,US,35616,Cherokee,Alabama,Colbert
NorthAmerica,US,35646,Leighton,Alabama,Colbert
NorthAmerica,US,35660,Sheffield,Alabama,Colbert
NorthAmerica,US,35661,Muscle Shoals,Alabama,Colbert
NorthAmerica,US,35662,Muscle Shoals,Alabama,Colbert
NorthAmerica,US,35674,Tuscumbia,Alabama,Colbert
NorthAmerica,US,36401,Evergreen,Alabama,Conecuh
NorthAmerica,US,36429,Brooklyn,Alabama,Conecuh
NorthAmerica,US,36432,Castleberry,Alabama,Conecuh
NorthAmerica,US,36454,Lenox,Alabama,Conecuh
NorthAmerica,US,36473,Range,Alabama,Conecuh
NorthAmerica,US,36475,Repton,Alabama,Conecuh
NorthAmerica,US,35072,Goodwater,Alabama,Coosa
NorthAmerica,US,35089,Kellyton,Alabama,Coosa
NorthAmerica,US,35136,Rockford,Alabama,Coosa
NorthAmerica,US,35183,Weogufka,Alabama,Coosa
NorthAmerica,US,36026,Equality,Alabama,Coosa
NorthAmerica,US,36038,Gantt,Alabama,Covington
NorthAmerica,US,36420,Andalusia,Alabama,Covington
NorthAmerica,US,36442,Florala,Alabama,Covington
NorthAmerica,US,36455,Lockhart,Alabama,Covington
NorthAmerica,US,36467,Opp,Alabama,Covington
NorthAmerica,US,36474,Red Level,Alabama,Covington
NorthAmerica,US,36476,River Falls,Alabama,Covington
NorthAmerica,US,36483,Wing,Alabama,Covington
NorthAmerica,US,36009,Brantley,Alabama,Crenshaw
NorthAmerica,US,36028,Dozier,Alabama,Crenshaw
NorthAmerica,US,36034,Glenwood,Alabama,Crenshaw
NorthAmerica,US,36041,Highland Home,Alabama,Crenshaw
NorthAmerica,US,36042,Honoraville,Alabama,Crenshaw
NorthAmerica,US,36049,Luverne,Alabama,Crenshaw
NorthAmerica,US,36062,Petrey,Alabama,Crenshaw
NorthAmerica,US,36071,Rutledge,Alabama,Crenshaw
NorthAmerica,US,36020,Coosada,Alabama,Elmore
NorthAmerica,US,36022,Deatsville,Alabama,Elmore
NorthAmerica,US,36024,Eclectic,Alabama,Elmore
NorthAmerica,US,36025,Elmore,Alabama,Elmore
NorthAmerica,US,36045,Kent,Alabama,Elmore
NorthAmerica,US,36054,Millbrook,Alabama,Elmore
NorthAmerica,US,36078,Tallassee,Alabama,Elmore
NorthAmerica,US,36080,Titus,Alabama,Elmore
NorthAmerica,US,36092,Wetumpka,Alabama,Elmore
NorthAmerica,US,36093,Wetumpka,Alabama,Elmore
NorthAmerica,US,36426,Brewton,Alabama,Escambia
NorthAmerica,US,36427,Brewton,Alabama,Escambia
NorthAmerica,US,36441,Flomaton,Alabama,Escambia
NorthAmerica,US,36502,Atmore,Alabama,Escambia
NorthAmerica,US,36503,Atmore,Alabama,Escambia
NorthAmerica,US,36504,Atmore,Alabama,Escambia
NorthAmerica,US,36543,Huxford,Alabama,Escambia
NorthAmerica,US,35901,Gadsden,Alabama,Etowah
NorthAmerica,US,35902,Gadsden,Alabama,Etowah
NorthAmerica,US,35903,Gadsden,Alabama,Etowah
NorthAmerica,US,35904,Gadsden,Alabama,Etowah
NorthAmerica,US,35905,Gadsden,Alabama,Etowah
NorthAmerica,US,35906,Rainbow City,Alabama,Etowah
NorthAmerica,US,35907,Gadsden,Alabama,Etowah
NorthAmerica,US,35952,Altoona,Alabama,Etowah
NorthAmerica,US,35954,Attalla,Alabama,Etowah
NorthAmerica,US,35972,Gallant,Alabama,Etowah
NorthAmerica,US,35990,Walnut Grove,Alabama,Etowah
NorthAmerica,US,35542,Bankston,Alabama,Fayette
NorthAmerica,US,35545,Belk,Alabama,Fayette
NorthAmerica,US,35546,Berry,Alabama,Fayette
NorthAmerica,US,35555,Fayette,Alabama,Fayette
NorthAmerica,US,35559,Glen Allen,Alabama,Fayette
NorthAmerica,US,35571,Hodges,Alabama,Franklin
NorthAmerica,US,35581,Phil Campbell,Alabama,Franklin
NorthAmerica,US,35582,Red Bay,Alabama,Franklin
NorthAmerica,US,35585,Spruce Pine,Alabama,Franklin
NorthAmerica,US,35593,Vina,Alabama,Franklin
NorthAmerica,US,35653,Russellville,Alabama,Franklin
NorthAmerica,US,35654,Russellville,Alabama,Franklin
NorthAmerica,US,72003,Almyra,Arkansas,Arkansas
NorthAmerica,US,72026,Casscoe,Arkansas,Arkansas
NorthAmerica,US,72038,Crocketts Bluff,Arkansas,Arkansas
NorthAmerica,US,72042,De Witt,Arkansas,Arkansas
NorthAmerica,US,72048,Ethel,Arkansas,Arkansas
NorthAmerica,US,72055,Gillett,Arkansas,Arkansas
NorthAmerica,US,72073,Humphrey,Arkansas,Arkansas
NorthAmerica,US,72140,Saint Charles,Arkansas,Arkansas
NorthAmerica,US,72160,Stuttgart,Arkansas,Arkansas
NorthAmerica,US,72166,Tichnor,Arkansas,Arkansas
NorthAmerica,US,71635,Crossett,Arkansas,Ashley
NorthAmerica,US,71642,Fountain Hill,Arkansas,Ashley
NorthAmerica,US,71646,Hamburg,Arkansas,Ashley
NorthAmerica,US,71658,Montrose,Arkansas,Ashley
NorthAmerica,US,71661,Parkdale,Arkansas,Ashley
NorthAmerica,US,71663,Portland,Arkansas,Ashley
NorthAmerica,US,71676,Wilmot,Arkansas,Ashley
NorthAmerica,US,72537,Gamaliel,Arkansas,Baxter
NorthAmerica,US,72544,Henderson,Arkansas,Baxter
NorthAmerica,US,72617,Big Flat,Arkansas,Baxter
NorthAmerica,US,72623,Clarkridge,Arkansas,Baxter
NorthAmerica,US,72626,Cotter,Arkansas,Baxter
NorthAmerica,US,72635,Gassville,Arkansas,Baxter
NorthAmerica,US,72642,Lakeview,Arkansas,Baxter
NorthAmerica,US,72651,Midway,Arkansas,Baxter
NorthAmerica,US,72653,Mountain Home,Arkansas,Baxter
NorthAmerica,US,72654,Mountain Home,Arkansas,Baxter
NorthAmerica,US,72658,Norfork,Arkansas,Baxter
NorthAmerica,US,72659,Norfork,Arkansas,Baxter
NorthAmerica,US,72711,Avoca,Arkansas,Benton
NorthAmerica,US,72712,Bentonville,Arkansas,Benton
NorthAmerica,US,72713,Bentonville,Arkansas,Benton
NorthAmerica,US,72714,Bella Vista,Arkansas,Benton
NorthAmerica,US,72715,Bella Vista,Arkansas,Benton
NorthAmerica,US,72716,Bentonville,Arkansas,Benton
NorthAmerica,US,72718,Cave Springs,Arkansas,Benton
NorthAmerica,US,72719,Centerton,Arkansas,Benton
NorthAmerica,US,72722,Decatur,Arkansas,Benton
NorthAmerica,US,72732,Garfield,Arkansas,Benton
NorthAmerica,US,72733,Gateway,Arkansas,Benton
NorthAmerica,US,72734,Gentry,Arkansas,Benton
NorthAmerica,US,72736,Gravette,Arkansas,Benton
NorthAmerica,US,72739,Hiwasse,Arkansas,Benton
NorthAmerica,US,72745,Lowell,Arkansas,Benton
NorthAmerica,US,72747,Maysville,Arkansas,Benton
NorthAmerica,US,72751,Pea Ridge,Arkansas,Benton
NorthAmerica,US,72756,Rogers,Arkansas,Benton
NorthAmerica,US,72757,Rogers,Arkansas,Benton
NorthAmerica,US,72758,Rogers,Arkansas,Benton
NorthAmerica,US,72761,Siloam Springs,Arkansas,Benton
NorthAmerica,US,72768,Sulphur Springs,Arkansas,Benton
NorthAmerica,US,72260,Little Rock,Arkansas,Boone
NorthAmerica,US,72601,Harrison,Arkansas,Boone
NorthAmerica,US,72602,Harrison,Arkansas,Boone
NorthAmerica,US,72611,Alpena,Arkansas,Boone
NorthAmerica,US,72615,Bergman,Arkansas,Boone
NorthAmerica,US,72630,Diamond City,Arkansas,Boone
NorthAmerica,US,72633,Everton,Arkansas,Boone
NorthAmerica,US,72644,Lead Hill,Arkansas,Boone
NorthAmerica,US,72662,Omaha,Arkansas,Boone
NorthAmerica,US,72682,Valley Springs,Arkansas,Boone
NorthAmerica,US,71631,Banks,Arkansas,Bradley
NorthAmerica,US,71647,Hermitage,Arkansas,Bradley
NorthAmerica,US,71651,Jersey,Arkansas,Bradley
NorthAmerica,US,71671,Warren,Arkansas,Bradley
NorthAmerica,US,71744,Hampton,Arkansas,Calhoun
NorthAmerica,US,71745,Harrell,Arkansas,Calhoun
NorthAmerica,US,71766,Thornton,Arkansas,Calhoun
NorthAmerica,US,72613,Beaver,Arkansas,Carroll
NorthAmerica,US,72616,Berryville,Arkansas,Carroll
NorthAmerica,US,72631,Eureka Springs,Arkansas,Carroll
NorthAmerica,US,72632,Eureka Springs,Arkansas,Carroll
NorthAmerica,US,72638,Green Forest,Arkansas,Carroll
NorthAmerica,US,72660,Oak Grove,Arkansas,Carroll
NorthAmerica,US,71638,Dermott,Arkansas,Chicot
NorthAmerica,US,71640,Eudora,Arkansas,Chicot
NorthAmerica,US,71653,Lake Village,Arkansas,Chicot
NorthAmerica,US,71721,Beirne,Arkansas,Clark
NorthAmerica,US,71728,Curtis,Arkansas,Clark
NorthAmerica,US,71743,Gurdon,Arkansas,Clark
NorthAmerica,US,71772,Whelen Springs,Arkansas,Clark
NorthAmerica,US,71920,Alpine,Arkansas,Clark
NorthAmerica,US,71921,Amity,Arkansas,Clark
NorthAmerica,US,71923,Arkadelphia,Arkansas,Clark
NorthAmerica,US,71962,Okolona,Arkansas,Clark
NorthAmerica,US,71998,Arkadelphia,Arkansas,Clark
NorthAmerica,US,71999,Arkadelphia,Arkansas,Clark
NorthAmerica,US,72422,Corning,Arkansas,Clay
NorthAmerica,US,72424,Datto,Arkansas,Clay
NorthAmerica,US,72430,Greenway,Arkansas,Clay
NorthAmerica,US,72435,Knobel,Arkansas,Clay
NorthAmerica,US,72441,Mc Dougal,Arkansas,Clay
NorthAmerica,US,72453,Peach Orchard,Arkansas,Clay
NorthAmerica,US,72454,Piggott,Arkansas,Clay
NorthAmerica,US,72456,Pollard,Arkansas,Clay
NorthAmerica,US,72461,Rector,Arkansas,Clay
NorthAmerica,US,72464,Saint Francis,Arkansas,Clay
NorthAmerica,US,72470,Success,Arkansas,Clay
NorthAmerica,US,72044,Edgemont,Arkansas,Cleburne
NorthAmerica,US,72067,Higden,Arkansas,Cleburne
NorthAmerica,US,72130,Prim,Arkansas,Cleburne
NorthAmerica,US,72131,Quitman,Arkansas,Cleburne
NorthAmerica,US,72179,Wilburn,Arkansas,Cleburne
NorthAmerica,US,72523,Concord,Arkansas,Cleburne
NorthAmerica,US,72530,Drasco,Arkansas,Cleburne
NorthAmerica,US,72543,Heber Springs,Arkansas,Cleburne
NorthAmerica,US,72545,Heber Springs,Arkansas,Cleburne
NorthAmerica,US,72546,Ida,Arkansas,Cleburne
NorthAmerica,US,72581,Tumbling Shoals,Arkansas,Cleburne
NorthAmerica,US,71652,Kingsland,Arkansas,Cleveland
NorthAmerica,US,71660,New Edinburg,Arkansas,Cleveland
NorthAmerica,US,71665,Rison,Arkansas,Cleveland
NorthAmerica,US,71740,Emerson,Arkansas,Columbia
NorthAmerica,US,71752,Mc Neil,Arkansas,Columbia
NorthAmerica,US,71753,Magnolia,Arkansas,Columbia
NorthAmerica,US,71754,Magnolia,Arkansas,Columbia
NorthAmerica,US,71770,Waldo,Arkansas,Columbia
NorthAmerica,US,71861,Taylor,Arkansas,Columbia
NorthAmerica,US,72027,Center Ridge,Arkansas,Conway
NorthAmerica,US,72030,Cleveland,Arkansas,Conway
NorthAmerica,US,72063,Hattieville,Arkansas,Conway
NorthAmerica,US,72080,Jerusalem,Arkansas,Conway
NorthAmerica,US,72107,Menifee,Arkansas,Conway
NorthAmerica,US,72110,Morrilton,Arkansas,Conway
NorthAmerica,US,72127,Plumerville,Arkansas,Conway
NorthAmerica,US,72156,Solgohachia,Arkansas,Conway
NorthAmerica,US,72157,Springfield,Arkansas,Conway
NorthAmerica,US,72401,Jonesboro,Arkansas,Craighead
NorthAmerica,US,72402,Jonesboro,Arkansas,Craighead
NorthAmerica,US,72403,Jonesboro,Arkansas,Craighead
NorthAmerica,US,72404,Jonesboro,Arkansas,Craighead
NorthAmerica,US,72411,Bay,Arkansas,Craighead
NorthAmerica,US,72414,Black Oak,Arkansas,Craighead
NorthAmerica,US,72416,Bono,Arkansas,Craighead
NorthAmerica,US,72417,Brookland,Arkansas,Craighead
NorthAmerica,US,72419,Caraway,Arkansas,Craighead
NorthAmerica,US,72421,Cash,Arkansas,Craighead
NorthAmerica,US,72427,Egypt,Arkansas,Craighead
NorthAmerica,US,72437,Lake City,Arkansas,Craighead
NorthAmerica,US,72447,Monette,Arkansas,Craighead
NorthAmerica,US,72467,State University,Arkansas,Craighead
NorthAmerica,US,72921,Alma,Arkansas,Crawford
NorthAmerica,US,72932,Cedarville,Arkansas,Crawford
NorthAmerica,US,72934,Chester,Arkansas,Crawford
NorthAmerica,US,72935,Dyer,Arkansas,Crawford
NorthAmerica,US,72946,Mountainburg,Arkansas,Crawford
NorthAmerica,US,72947,Mulberry,Arkansas,Crawford
NorthAmerica,US,72948,Natural Dam,Arkansas,Crawford
NorthAmerica,US,72952,Rudy,Arkansas,Crawford
NorthAmerica,US,72955,Uniontown,Arkansas,Crawford
NorthAmerica,US,72956,Van Buren,Arkansas,Crawford
NorthAmerica,US,72957,Van Buren,Arkansas,Crawford
NorthAmerica,US,72301,West Memphis,Arkansas,Crittenden
NorthAmerica,US,72303,West Memphis,Arkansas,Crittenden
NorthAmerica,US,72325,Clarkedale,Arkansas,Crittenden
NorthAmerica,US,72327,Crawfordsville,Arkansas,Crittenden
NorthAmerica,US,72331,Earle,Arkansas,Crittenden
NorthAmerica,US,72332,Edmondson,Arkansas,Crittenden
NorthAmerica,US,72339,Gilmore,Arkansas,Crittenden
NorthAmerica,US,72364,Marion,Arkansas,Crittenden
NorthAmerica,US,72376,Proctor,Arkansas,Crittenden
NorthAmerica,US,72384,Turrell,Arkansas,Crittenden
NorthAmerica,US,72324,Cherry Valley,Arkansas,Cross
NorthAmerica,US,72347,Hickory Ridge,Arkansas,Cross
NorthAmerica,US,72373,Parkin,Arkansas,Cross
NorthAmerica,US,72387,Vanndale,Arkansas,Cross
NorthAmerica,US,72396,Wynne,Arkansas,Cross
NorthAmerica,US,71725,Carthage,Arkansas,Dallas
NorthAmerica,US,71742,Fordyce,Arkansas,Dallas
NorthAmerica,US,71748,Ivan,Arkansas,Dallas
NorthAmerica,US,71763,Sparkman,Arkansas,Dallas
NorthAmerica,US,71630,Arkansas City,Arkansas,Desha
NorthAmerica,US,71639,Dumas,Arkansas,Desha
NorthAmerica,US,71654,Mc Gehee,Arkansas,Desha
NorthAmerica,US,71662,Pickens,Arkansas,Desha
NorthAmerica,US,71666,Rohwer,Arkansas,Desha
NorthAmerica,US,71670,Tillar,Arkansas,Desha
NorthAmerica,US,71674,Watson,Arkansas,Desha
NorthAmerica,US,72379,Snow Lake,Arkansas,Desha
NorthAmerica,US,71655,Monticello,Arkansas,Drew
NorthAmerica,US,71656,Monticello,Arkansas,Drew
NorthAmerica,US,71657,Monticello,Arkansas,Drew
NorthAmerica,US,71675,Wilmar,Arkansas,Drew
NorthAmerica,US,71677,Winchester,Arkansas,Drew
NorthAmerica,US,72032,Conway,Arkansas,Faulkner
NorthAmerica,US,72033,Conway,Arkansas,Faulkner
NorthAmerica,US,72034,Conway,Arkansas,Faulkner
NorthAmerica,US,72035,Conway,Arkansas,Faulkner
NorthAmerica,US,72039,Damascus,Arkansas,Faulkner
NorthAmerica,US,72047,Enola,Arkansas,Faulkner
NorthAmerica,US,72058,Greenbrier,Arkansas,Faulkner
NorthAmerica,US,72061,Guy,Arkansas,Faulkner
NorthAmerica,US,72106,Mayflower,Arkansas,Faulkner
NorthAmerica,US,72111,Mount Vernon,Arkansas,Faulkner
NorthAmerica,US,72173,Vilonia,Arkansas,Faulkner
NorthAmerica,US,72181,Wooster,Arkansas,Faulkner
NorthAmerica,US,72820,Alix,Arkansas,Franklin
NorthAmerica,US,72821,Altus,Arkansas,Franklin
NorthAmerica,US,72928,Branch,Arkansas,Franklin
NorthAmerica,US,72930,Cecil,Arkansas,Franklin
NorthAmerica,US,72933,Charleston,Arkansas,Franklin
NorthAmerica,US,72949,Ozark,Arkansas,Franklin
NorthAmerica,US,72515,Bexar,Arkansas,Fulton
NorthAmerica,US,72520,Camp,Arkansas,Fulton
NorthAmerica,US,72531,Elizabeth,Arkansas,Fulton
NorthAmerica,US,72538,Gepp,Arkansas,Fulton
NorthAmerica,US,72539,Glencoe,Arkansas,Fulton
NorthAmerica,US,72554,Mammoth Spring,Arkansas,Fulton
NorthAmerica,US,72576,Salem,Arkansas,Fulton
NorthAmerica,US,72578,Sturkie,Arkansas,Fulton
NorthAmerica,US,72583,Viola,Arkansas,Fulton
NorthAmerica,US,71901,Hot Springs National Park,Arkansas,Garland
NorthAmerica,US,71902,Hot Springs National Park,Arkansas,Garland
NorthAmerica,US,71903,Hot Springs National Park,Arkansas,Garland
NorthAmerica,US,71909,Hot Springs Village,Arkansas,Garland
NorthAmerica,US,71910,Hot Springs Village,Arkansas,Garland
NorthAmerica,US,71913,Hot Springs National Park,Arkansas,Garland
NorthAmerica,US,71914,Hot Springs National Park,Arkansas,Garland
NorthAmerica,US,71949,Jessieville,Arkansas,Garland
NorthAmerica,US,71956,Mountain Pine,Arkansas,Garland
NorthAmerica,US,71964,Pearcy,Arkansas,Garland
NorthAmerica,US,71968,Royal,Arkansas,Garland
NorthAmerica,US,72087,Lonsdale,Arkansas,Garland
NorthAmerica,US,72057,Grapevine,Arkansas,Grant
NorthAmerica,US,72084,Leola,Arkansas,Grant
NorthAmerica,US,72128,Poyen,Arkansas,Grant
NorthAmerica,US,72129,Prattsville,Arkansas,Grant
NorthAmerica,US,72150,Sheridan,Arkansas,Grant
NorthAmerica,US,72412,Beech Grove,Arkansas,Greene
NorthAmerica,US,72425,Delaplaine,Arkansas,Greene
NorthAmerica,US,72436,Lafe,Arkansas,Greene
NorthAmerica,US,72443,Marmaduke,Arkansas,Greene
NorthAmerica,US,72450,Paragould,Arkansas,Greene
NorthAmerica,US,72451,Paragould,Arkansas,Greene
NorthAmerica,US,72474,Walcott,Arkansas,Greene
NorthAmerica,US,71801,Hope,Arkansas,Hempstead
NorthAmerica,US,71802,Hope,Arkansas,Hempstead
NorthAmerica,US,71825,Blevins,Arkansas,Hempstead
NorthAmerica,US,71831,Columbus,Arkansas,Hempstead
NorthAmerica,US,71838,Fulton,Arkansas,Hempstead
NorthAmerica,US,71847,Mc Caskill,Arkansas,Hempstead
NorthAmerica,US,71855,Ozan,Arkansas,Hempstead
NorthAmerica,US,71862,Washington,Arkansas,Hempstead
NorthAmerica,US,71929,Bismarck,Arkansas,Hot Spring
NorthAmerica,US,71933,Bonnerdale,Arkansas,Hot Spring
NorthAmerica,US,71941,Donaldson,Arkansas,Hot Spring
NorthAmerica,US,71942,Friendship,Arkansas,Hot Spring
NorthAmerica,US,72019,Benton,Arkansas,Hot Spring
NorthAmerica,US,72104,Malvern,Arkansas,Hot Spring
NorthAmerica,US,72105,Jones Mill,Arkansas,Hot Spring
NorthAmerica,US,71833,Dierks,Arkansas,Howard
NorthAmerica,US,71851,Mineral Springs,Arkansas,Howard
NorthAmerica,US,71852,Nashville,Arkansas,Howard
NorthAmerica,US,71859,Saratoga,Arkansas,Howard
NorthAmerica,US,71971,Umpire,Arkansas,Howard
NorthAmerica,US,72165,Thida,Arkansas,Independence
NorthAmerica,US,72501,Batesville,Arkansas,Independence
NorthAmerica,US,72503,Batesville,Arkansas,Independence
NorthAmerica,US,72522,Charlotte,Arkansas,Independence
NorthAmerica,US,72524,Cord,Arkansas,Independence
NorthAmerica,US,72526,Cushman,Arkansas,Independence
NorthAmerica,US,72527,Desha,Arkansas,Independence
NorthAmerica,US,72534,Floral,Arkansas,Independence
NorthAmerica,US,72550,Locust Grove,Arkansas,Independence
NorthAmerica,US,72553,Magness,Arkansas,Independence
NorthAmerica,US,72562,Newark,Arkansas,Independence
NorthAmerica,US,72564,Oil Trough,Arkansas,Independence
NorthAmerica,US,72568,Pleasant Plains,Arkansas,Independence
NorthAmerica,US,72571,Rosie,Arkansas,Independence
NorthAmerica,US,72575,Salado,Arkansas,Independence
NorthAmerica,US,72579,Sulphur Rock,Arkansas,Independence
NorthAmerica,US,72512,Horseshoe Bend,Arkansas,Izard
NorthAmerica,US,72517,Brockwell,Arkansas,Izard
NorthAmerica,US,72519,Calico Rock,Arkansas,Izard
NorthAmerica,US,72528,Dolph,Arkansas,Izard
NorthAmerica,US,72536,Franklin,Arkansas,Izard
NorthAmerica,US,72540,Guion,Arkansas,Izard
NorthAmerica,US,72556,Melbourne,Arkansas,Izard
NorthAmerica,US,72561,Mount Pleasant,Arkansas,Izard
NorthAmerica,US,72565,Oxford,Arkansas,Izard
NorthAmerica,US,72566,Pineville,Arkansas,Izard
NorthAmerica,US,72573,Sage,Arkansas,Izard
NorthAmerica,US,72584,Violet Hill,Arkansas,Izard
NorthAmerica,US,72585,Wideman,Arkansas,Izard
NorthAmerica,US,72587,Wiseman,Arkansas,Izard
NorthAmerica,US,72005,Amagon,Arkansas,Jackson
NorthAmerica,US,72014,Beedeville,Arkansas,Jackson
NorthAmerica,US,72043,Diaz,Arkansas,Jackson
NorthAmerica,US,72075,Jacksonport,Arkansas,Jackson
NorthAmerica,US,72112,Newport,Arkansas,Jackson
NorthAmerica,US,72169,Tupelo,Arkansas,Jackson
NorthAmerica,US,72431,Grubbs,Arkansas,Jackson
NorthAmerica,US,72471,Swifton,Arkansas,Jackson
NorthAmerica,US,72473,Tuckerman,Arkansas,Jackson
NorthAmerica,US,71601,Pine Bluff,Arkansas,Jefferson
NorthAmerica,US,71602,White Hall,Arkansas,Jefferson
NorthAmerica,US,71603,Pine Bluff,Arkansas,Jefferson
NorthAmerica,US,71611,Pine Bluff,Arkansas,Jefferson
NorthAmerica,US,71612,White Hall,Arkansas,Jefferson
NorthAmerica,US,71613,Pine Bluff,Arkansas,Jefferson
NorthAmerica,US,71659,Moscow,Arkansas,Jefferson
NorthAmerica,US,72004,Altheimer,Arkansas,Jefferson
NorthAmerica,US,72079,Jefferson,Arkansas,Jefferson
NorthAmerica,US,72132,Redfield,Arkansas,Jefferson
NorthAmerica,US,72133,Reydell,Arkansas,Jefferson
NorthAmerica,US,72152,Sherrill,Arkansas,Jefferson
NorthAmerica,US,72168,Tucker,Arkansas,Jefferson
NorthAmerica,US,72175,Wabbaseka,Arkansas,Jefferson
NorthAmerica,US,72182,Wright,Arkansas,Jefferson
NorthAmerica,US,72830,Clarksville,Arkansas,Johnson
NorthAmerica,US,72832,Coal Hill,Arkansas,Johnson
NorthAmerica,US,72839,Hagarville,Arkansas,Johnson
NorthAmerica,US,72840,Hartman,Arkansas,Johnson
NorthAmerica,US,72845,Knoxville,Arkansas,Johnson
NorthAmerica,US,72846,Lamar,Arkansas,Johnson
NorthAmerica,US,72852,Oark,Arkansas,Johnson
NorthAmerica,US,72854,Ozone,Arkansas,Johnson
NorthAmerica,US,71826,Bradley,Arkansas,Lafayette
NorthAmerica,US,71827,Buckner,Arkansas,Lafayette
NorthAmerica,US,71839,Garland City,Arkansas,Lafayette
NorthAmerica,US,71845,Lewisville,Arkansas,Lafayette
NorthAmerica,US,71860,Stamps,Arkansas,Lafayette
NorthAmerica,US,72410,Alicia,Arkansas,Lawrence
NorthAmerica,US,72415,Black Rock,Arkansas,Lawrence
NorthAmerica,US,72433,Hoxie,Arkansas,Lawrence
NorthAmerica,US,72434,Imboden,Arkansas,Lawrence
NorthAmerica,US,72440,Lynn,Arkansas,Lawrence
NorthAmerica,US,72445,Minturn,Arkansas,Lawrence
NorthAmerica,US,72457,Portia,Arkansas,Lawrence
NorthAmerica,US,72458,Powhatan,Arkansas,Lawrence
NorthAmerica,US,72459,Ravenden,Arkansas,Lawrence
NorthAmerica,US,72465,Sedgwick,Arkansas,Lawrence
NorthAmerica,US,72466,Smithville,Arkansas,Lawrence
NorthAmerica,US,72469,Strawberry,Arkansas,Lawrence
NorthAmerica,US,72476,Walnut Ridge,Arkansas,Lawrence
NorthAmerica,US,72572,Saffell,Arkansas,Lawrence
NorthAmerica,US,72311,Aubrey,Arkansas,Lee
NorthAmerica,US,72320,Brickeys,Arkansas,Lee
NorthAmerica,US,72341,Haynes,Arkansas,Lee
NorthAmerica,US,72352,La Grange,Arkansas,Lee
NorthAmerica,US,72360,Marianna,Arkansas,Lee
NorthAmerica,US,72368,Moro,Arkansas,Lee
NorthAmerica,US,71643,Gould,Arkansas,Lincoln
NorthAmerica,US,71644,Grady,Arkansas,Lincoln
NorthAmerica,US,71667,Star City,Arkansas,Lincoln
NorthAmerica,US,71678,Yorktown,Arkansas,Lincoln
NorthAmerica,US,71820,Alleene,Arkansas,Little River
NorthAmerica,US,71822,Ashdown,Arkansas,Little River
NorthAmerica,US,71836,Foreman,Arkansas,Little River
NorthAmerica,US,71853,Ogden,Arkansas,Little River
NorthAmerica,US,71865,Wilton,Arkansas,Little River
NorthAmerica,US,71866,Winthrop,Arkansas,Little River
NorthAmerica,US,72826,Blue Mountain,Arkansas,Logan
NorthAmerica,US,72835,Delaware,Arkansas,Logan
NorthAmerica,US,72851,New Blaine,Arkansas,Logan
NorthAmerica,US,72855,Paris,Arkansas,Logan
NorthAmerica,US,72863,Scranton,Arkansas,Logan
NorthAmerica,US,72865,Subiaco,Arkansas,Logan
NorthAmerica,US,72927,Booneville,Arkansas,Logan
NorthAmerica,US,72943,Magazine,Arkansas,Logan
NorthAmerica,US,72951,Ratcliff,Arkansas,Logan
NorthAmerica,US,72007,Austin,Arkansas,Lonoke
NorthAmerica,US,72023,Cabot,Arkansas,Lonoke
NorthAmerica,US,72024,Carlisle,Arkansas,Lonoke
NorthAmerica,US,72037,Coy,Arkansas,Lonoke
NorthAmerica,US,72046,England,Arkansas,Lonoke
NorthAmerica,US,72072,Humnoke,Arkansas,Lonoke
NorthAmerica,US,72083,Keo,Arkansas,Lonoke
NorthAmerica,US,72086,Lonoke,Arkansas,Lonoke
NorthAmerica,US,72176,Ward,Arkansas,Lonoke
NorthAmerica,US,72721,Combs,Arkansas,Madison
NorthAmerica,US,72738,Hindsville,Arkansas,Madison
NorthAmerica,US,72740,Huntsville,Arkansas,Madison
NorthAmerica,US,72742,Kingston,Arkansas,Madison
NorthAmerica,US,72752,Pettigrew,Arkansas,Madison
NorthAmerica,US,72760,Saint Paul,Arkansas,Madison
NorthAmerica,US,72773,Wesley,Arkansas,Madison
NorthAmerica,US,72776,Witter,Arkansas,Madison
NorthAmerica,US,72619,Bull Shoals,Arkansas,Marion
NorthAmerica,US,72634,Flippin,Arkansas,Marion
NorthAmerica,US,72661,Oakland,Arkansas,Marion
NorthAmerica,US,72668,Peel,Arkansas,Marion
NorthAmerica,US,72672,Pyatt,Arkansas,Marion
NorthAmerica,US,72677,Summit,Arkansas,Marion
NorthAmerica,US,72687,Yellville,Arkansas,Marion
NorthAmerica,US,71834,Doddridge,Arkansas,Miller
NorthAmerica,US,71837,Fouke,Arkansas,Miller
NorthAmerica,US,71840,Genoa,Arkansas,Miller
NorthAmerica,US,71854,Texarkana,Arkansas,Miller
NorthAmerica,US,72310,Armorel,Arkansas,Mississippi
NorthAmerica,US,72313,Bassett,Arkansas,Mississippi
NorthAmerica,US,72315,Blytheville,Arkansas,Mississippi
NorthAmerica,US,72316,Blytheville,Arkansas,Mississippi
NorthAmerica,US,72319,Gosnell,Arkansas,Mississippi
NorthAmerica,US,72321,Burdette,Arkansas,Mississippi
NorthAmerica,US,72329,Driver,Arkansas,Mississippi
NorthAmerica,US,72330,Dyess,Arkansas,Mississippi
NorthAmerica,US,72338,Frenchmans Bayou,Arkansas,Mississippi
NorthAmerica,US,72350,Joiner,Arkansas,Mississippi
NorthAmerica,US,72351,Keiser,Arkansas,Mississippi
NorthAmerica,US,72358,Luxora,Arkansas,Mississippi
NorthAmerica,US,72370,Osceola,Arkansas,Mississippi
NorthAmerica,US,72391,West Ridge,Arkansas,Mississippi
NorthAmerica,US,72395,Wilson,Arkansas,Mississippi
NorthAmerica,US,72426,Dell,Arkansas,Mississippi
NorthAmerica,US,72428,Etowah,Arkansas,Mississippi
NorthAmerica,US,72438,Leachville,Arkansas,Mississippi
NorthAmerica,US,72442,Manila,Arkansas,Mississippi
NorthAmerica,US,72021,Brinkley,Arkansas,Monroe
NorthAmerica,US,72029,Clarendon,Arkansas,Monroe
NorthAmerica,US,72069,Holly Grove,Arkansas,Monroe
NorthAmerica,US,72108,Monroe,Arkansas,Monroe
NorthAmerica,US,72134,Roe,Arkansas,Monroe
NorthAmerica,US,71935,Caddo Gap,Arkansas,Montgomery
NorthAmerica,US,71957,Mount Ida,Arkansas,Montgomery
NorthAmerica,US,71960,Norman,Arkansas,Montgomery
NorthAmerica,US,71961,Oden,Arkansas,Montgomery
NorthAmerica,US,71965,Pencil Bluff,Arkansas,Montgomery
NorthAmerica,US,71966,Oden,Arkansas,Montgomery
NorthAmerica,US,71969,Sims,Arkansas,Montgomery
NorthAmerica,US,71970,Story,Arkansas,Montgomery
NorthAmerica,US,71722,Bluff City,Arkansas,Nevada
NorthAmerica,US,71828,Cale,Arkansas,Nevada
NorthAmerica,US,71835,Emmet,Arkansas,Nevada
NorthAmerica,US,71857,Prescott,Arkansas,Nevada
NorthAmerica,US,71858,Rosston,Arkansas,Nevada
NorthAmerica,US,71864,Willisville,Arkansas,Nevada
NorthAmerica,US,72624,Compton,Arkansas,Newton
NorthAmerica,US,72628,Deer,Arkansas,Newton
NorthAmerica,US,72640,Hasty,Arkansas,Newton
NorthAmerica,US,72641,Jasper,Arkansas,Newton
NorthAmerica,US,72648,Marble Falls,Arkansas,Newton
NorthAmerica,US,72655,Mount Judea,Arkansas,Newton
NorthAmerica,US,72666,Parthenon,Arkansas,Newton
NorthAmerica,US,72670,Ponca,Arkansas,Newton
NorthAmerica,US,72683,Vendor,Arkansas,Newton
NorthAmerica,US,72685,Western Grove,Arkansas,Newton
NorthAmerica,US,71701,Camden,Arkansas,Ouachita
NorthAmerica,US,71711,Camden,Arkansas,Ouachita
NorthAmerica,US,71720,Bearden,Arkansas,Ouachita
NorthAmerica,US,71726,Chidester,Arkansas,Ouachita
NorthAmerica,US,71751,Louann,Arkansas,Ouachita
NorthAmerica,US,71764,Stephens,Arkansas,Ouachita
NorthAmerica,US,72001,Adona,Arkansas,Perry
NorthAmerica,US,72016,Bigelow,Arkansas,Perry
NorthAmerica,US,72025,Casa,Arkansas,Perry
NorthAmerica,US,72070,Houston,Arkansas,Perry
NorthAmerica,US,72125,Perry,Arkansas,Perry
NorthAmerica,US,72126,Perryville,Arkansas,Perry
NorthAmerica,US,72312,Barton,Arkansas,Phillips
NorthAmerica,US,72328,Crumrod,Arkansas,Phillips
NorthAmerica,US,72333,Elaine,Arkansas,Phillips
NorthAmerica,US,72342,Helena,Arkansas,Phillips
NorthAmerica,US,72353,Lambrook,Arkansas,Phillips
NorthAmerica,US,72355,Lexa,Arkansas,Phillips
NorthAmerica,US,72366,Marvell,Arkansas,Phillips
NorthAmerica,US,72367,Mellwood,Arkansas,Phillips
NorthAmerica,US,72369,Oneida,Arkansas,Phillips
NorthAmerica,US,72374,Poplar Grove,Arkansas,Phillips
NorthAmerica,US,72383,Turner,Arkansas,Phillips
NorthAmerica,US,72389,Wabash,Arkansas,Phillips
NorthAmerica,US,72390,West Helena,Arkansas,Phillips
NorthAmerica,US,71922,Antoine,Arkansas,Pike
NorthAmerica,US,71940,Delight,Arkansas,Pike
NorthAmerica,US,71943,Glenwood,Arkansas,Pike
NorthAmerica,US,71950,Kirby,Arkansas,Pike
NorthAmerica,US,71952,Langley,Arkansas,Pike
NorthAmerica,US,71958,Murfreesboro,Arkansas,Pike
NorthAmerica,US,71959,Newhope,Arkansas,Pike
NorthAmerica,US,72354,Lepanto,Arkansas,Poinsett
NorthAmerica,US,72365,Marked Tree,Arkansas,Poinsett
NorthAmerica,US,72377,Rivervale,Arkansas,Poinsett
NorthAmerica,US,72386,Tyronza,Arkansas,Poinsett
NorthAmerica,US,72429,Fisher,Arkansas,Poinsett
NorthAmerica,US,72432,Harrisburg,Arkansas,Poinsett
NorthAmerica,US,72472,Trumann,Arkansas,Poinsett
NorthAmerica,US,72475,Waldenburg,Arkansas,Poinsett
NorthAmerica,US,72479,Weiner,Arkansas,Poinsett
NorthAmerica,US,71932,Board Camp,Arkansas,Polk
NorthAmerica,US,71937,Cove,Arkansas,Polk
NorthAmerica,US,71944,Grannis,Arkansas,Polk
NorthAmerica,US,71945,Hatfield,Arkansas,Polk
NorthAmerica,US,71953,Mena,Arkansas,Polk
NorthAmerica,US,71972,Vandervoort,Arkansas,Polk
NorthAmerica,US,71973,Wickes,Arkansas,Polk
NorthAmerica,US,72679,Tilly,Arkansas,Pope
NorthAmerica,US,72801,Russellville,Arkansas,Pope
NorthAmerica,US,72802,Russellville,Arkansas,Pope
NorthAmerica,US,72811,Russellville,Arkansas,Pope
NorthAmerica,US,72812,Russellville,Arkansas,Pope
NorthAmerica,US,72823,Atkins,Arkansas,Pope
NorthAmerica,US,72837,Dover,Arkansas,Pope
NorthAmerica,US,72843,Hector,Arkansas,Pope
NorthAmerica,US,72847,London,Arkansas,Pope
NorthAmerica,US,72856,Pelsor,Arkansas,Pope
NorthAmerica,US,72858,Pottsville,Arkansas,Pope
NorthAmerica,US,72017,Biscoe,Arkansas,Prairie
NorthAmerica,US,72040,Des Arc,Arkansas,Prairie
NorthAmerica,US,72041,De Valls Bluff,Arkansas,Prairie
NorthAmerica,US,72064,Hazen,Arkansas,Prairie
NorthAmerica,US,72066,Hickory Plains,Arkansas,Prairie
NorthAmerica,US,72170,Ulm,Arkansas,Prairie
NorthAmerica,US,72002,Alexander,Arkansas,Pulaski
NorthAmerica,US,72053,College Station,Arkansas,Pulaski
NorthAmerica,US,72065,Hensley,Arkansas,Pulaski
NorthAmerica,US,72076,Jacksonville,Arkansas,Pulaski
NorthAmerica,US,72078,Jacksonville,Arkansas,Pulaski
NorthAmerica,US,72099,Little Rock Air Force Base,Arkansas,Pulaski
NorthAmerica,US,72103,Mabelvale,Arkansas,Pulaski
NorthAmerica,US,72113,Maumelle,Arkansas,Pulaski
NorthAmerica,US,72114,North Little Rock,Arkansas,Pulaski
NorthAmerica,US,72115,North Little Rock,Arkansas,Pulaski
NorthAmerica,US,72116,North Little Rock,Arkansas,Pulaski
NorthAmerica,US,72117,North Little Rock,Arkansas,Pulaski
NorthAmerica,US,72118,North Little Rock,Arkansas,Pulaski
NorthAmerica,US,72119,North Little Rock,Arkansas,Pulaski
NorthAmerica,US,72120,Sherwood,Arkansas,Pulaski
NorthAmerica,US,72124,North Little Rock,Arkansas,Pulaski
NorthAmerica,US,72135,Roland,Arkansas,Pulaski
NorthAmerica,US,72142,Scott,Arkansas,Pulaski
NorthAmerica,US,72164,Sweet Home,Arkansas,Pulaski
NorthAmerica,US,72180,Woodson,Arkansas,Pulaski
NorthAmerica,US,72183,Wrightsville,Arkansas,Pulaski
NorthAmerica,US,72190,North Little Rock,Arkansas,Pulaski
NorthAmerica,US,72199,North Little Rock,Arkansas,Pulaski
NorthAmerica,US,72201,Little Rock,Arkansas,Pulaski
NorthAmerica,US,72202,Little Rock,Arkansas,Pulaski
NorthAmerica,US,72203,Little Rock,Arkansas,Pulaski
NorthAmerica,US,72204,Little Rock,Arkansas,Pulaski
NorthAmerica,US,72205,Little Rock,Arkansas,Pulaski
NorthAmerica,US,72206,Little Rock,Arkansas,Pulaski
NorthAmerica,US,72207,Little Rock,Arkansas,Pulaski
NorthAmerica,US,72209,Little Rock,Arkansas,Pulaski
NorthAmerica,US,72210,Little Rock,Arkansas,Pulaski
NorthAmerica,US,72211,Little Rock,Arkansas,Pulaski
NorthAmerica,US,72212,Little Rock,Arkansas,Pulaski
NorthAmerica,US,72214,Little Rock,Arkansas,Pulaski
NorthAmerica,US,72215,Little Rock,Arkansas,Pulaski
NorthAmerica,US,72216,Little Rock,Arkansas,Pulaski
NorthAmerica,US,72217,Little Rock,Arkansas,Pulaski
NorthAmerica,US,72219,Little Rock,Arkansas,Pulaski
NorthAmerica,US,72221,Little Rock,Arkansas,Pulaski
NorthAmerica,US,72222,Little Rock,Arkansas,Pulaski
NorthAmerica,US,72223,Little Rock,Arkansas,Pulaski
NorthAmerica,US,72225,Little Rock,Arkansas,Pulaski
NorthAmerica,US,72227,Little Rock,Arkansas,Pulaski
NorthAmerica,US,72231,Little Rock,Arkansas,Pulaski
NorthAmerica,US,72255,Little Rock,Arkansas,Pulaski
NorthAmerica,US,72295,Little Rock,Arkansas,Pulaski
NorthAmerica,US,72413,Biggers,Arkansas,Randolph
NorthAmerica,US,72444,Maynard,Arkansas,Randolph
NorthAmerica,US,72449,O Kean,Arkansas,Randolph
NorthAmerica,US,72455,Pocahontas,Arkansas,Randolph
NorthAmerica,US,72460,Ravenden Springs,Arkansas,Randolph
NorthAmerica,US,72462,Reyno,Arkansas,Randolph
NorthAmerica,US,72478,Warm Springs,Arkansas,Randolph
NorthAmerica,US,72011,Bauxite,Arkansas,Saline
NorthAmerica,US,72015,Benton,Arkansas,Saline
NorthAmerica,US,72018,Benton,Arkansas,Saline
NorthAmerica,US,72022,Bryant,Arkansas,Saline
NorthAmerica,US,72089,Bryant,Arkansas,Saline
NorthAmerica,US,72122,Paron,Arkansas,Saline
NorthAmerica,US,72158,Benton,Arkansas,Saline
NorthAmerica,US,72167,Traskwood,Arkansas,Saline
NorthAmerica,US,72841,Harvey,Arkansas,Scott
NorthAmerica,US,72926,Boles,Arkansas,Scott
NorthAmerica,US,72944,Mansfield,Arkansas,Scott
NorthAmerica,US,72950,Parks,Arkansas,Scott
NorthAmerica,US,72958,Waldron,Arkansas,Scott
NorthAmerica,US,72636,Gilbert,Arkansas,Searcy
NorthAmerica,US,72639,Harriet,Arkansas,Searcy
NorthAmerica,US,72645,Leslie,Arkansas,Searcy
NorthAmerica,US,72650,Marshall,Arkansas,Searcy
NorthAmerica,US,72669,Pindall,Arkansas,Searcy
NorthAmerica,US,72675,Saint Joe,Arkansas,Searcy
NorthAmerica,US,72686,Witts Springs,Arkansas,Searcy
NorthAmerica,US,72901,Fort Smith,Arkansas,Sebastian
NorthAmerica,US,72902,Fort Smith,Arkansas,Sebastian
NorthAmerica,US,72903,Fort Smith,Arkansas,Sebastian
NorthAmerica,US,72904,Fort Smith,Arkansas,Sebastian
NorthAmerica,US,72905,Fort Smith,Arkansas,Sebastian
NorthAmerica,US,72906,Fort Smith,Arkansas,Sebastian
NorthAmerica,US,72908,Fort Smith,Arkansas,Sebastian
NorthAmerica,US,72913,Fort Smith,Arkansas,Sebastian
NorthAmerica,US,72914,Fort Smith,Arkansas,Sebastian
NorthAmerica,US,72916,Fort Smith,Arkansas,Sebastian
NorthAmerica,US,72917,Fort Smith,Arkansas,Sebastian
NorthAmerica,US,72918,Fort Smith,Arkansas,Sebastian
NorthAmerica,US,72919,Fort Smith,Arkansas,Sebastian
NorthAmerica,US,72923,Barling,Arkansas,Sebastian
NorthAmerica,US,72936,Greenwood,Arkansas,Sebastian
NorthAmerica,US,72937,Hackett,Arkansas,Sebastian
NorthAmerica,US,72938,Hartford,Arkansas,Sebastian
NorthAmerica,US,72940,Huntington,Arkansas,Sebastian
NorthAmerica,US,72941,Lavaca,Arkansas,Sebastian
NorthAmerica,US,72945,Midland,Arkansas,Sebastian
NorthAmerica,US,71823,Ben Lomond,Arkansas,Sevier
NorthAmerica,US,71832,De Queen,Arkansas,Sevier
NorthAmerica,US,71841,Gillham,Arkansas,Sevier
NorthAmerica,US,71842,Horatio,Arkansas,Sevier
NorthAmerica,US,71846,Lockesburg,Arkansas,Sevier
NorthAmerica,US,72482,Williford,Arkansas,Sharp
NorthAmerica,US,72513,Ash Flat,Arkansas,Sharp
NorthAmerica,US,72521,Cave City,Arkansas,Sharp
NorthAmerica,US,72525,Cherokee Village,Arkansas,Sharp
NorthAmerica,US,72529,Cherokee Village,Arkansas,Sharp
NorthAmerica,US,72532,Evening Shade,Arkansas,Sharp
NorthAmerica,US,72542,Hardy,Arkansas,Sharp
NorthAmerica,US,72569,Poughkeepsie,Arkansas,Sharp
NorthAmerica,US,72577,Sidney,Arkansas,Sharp
NorthAmerica,US,72051,Fox,Arkansas,Stone
NorthAmerica,US,72533,Fifty Six,Arkansas,Stone
NorthAmerica,US,72555,Marcella,Arkansas,Stone
NorthAmerica,US,72560,Mountain View,Arkansas,Stone
NorthAmerica,US,72567,Pleasant Grove,Arkansas,Stone
NorthAmerica,US,72657,Timbo,Arkansas,Stone
NorthAmerica,US,72663,Onia,Arkansas,Stone
NorthAmerica,US,72680,Timbo,Arkansas,Stone
NorthAmerica,US,71724,Calion,Arkansas,Union
NorthAmerica,US,71730,El Dorado,Arkansas,Union
NorthAmerica,US,71731,El Dorado,Arkansas,Union
NorthAmerica,US,71747,Huttig,Arkansas,Union
NorthAmerica,US,71749,Junction City,Arkansas,Union
NorthAmerica,US,71750,Lawson,Arkansas,Union
NorthAmerica,US,71758,Mount Holly,Arkansas,Union
NorthAmerica,US,71759,Norphlet,Arkansas,Union
NorthAmerica,US,71762,Smackover,Arkansas,Union
NorthAmerica,US,71765,Strong,Arkansas,Union
NorthAmerica,US,72013,Bee Branch,Arkansas,Van Buren
NorthAmerica,US,72028,Choctaw,Arkansas,Van Buren
NorthAmerica,US,72031,Clinton,Arkansas,Van Buren
NorthAmerica,US,72088,Fairfield Bay,Arkansas,Van Buren
NorthAmerica,US,72141,Scotland,Arkansas,Van Buren
NorthAmerica,US,72153,Shirley,Arkansas,Van Buren
NorthAmerica,US,72629,Dennard,Arkansas,Van Buren
NorthAmerica,US,72701,Fayetteville,Arkansas,Washington
NorthAmerica,US,72702,Fayetteville,Arkansas,Washington
NorthAmerica,US,72703,Fayetteville,Arkansas,Washington
NorthAmerica,US,72704,Fayetteville,Arkansas,Washington
NorthAmerica,US,72717,Canehill,Arkansas,Washington
NorthAmerica,US,72727,Elkins,Arkansas,Washington
NorthAmerica,US,72728,Elm Springs,Arkansas,Washington
NorthAmerica,US,72729,Evansville,Arkansas,Washington
NorthAmerica,US,72730,Farmington,Arkansas,Washington
NorthAmerica,US,72735,Goshen,Arkansas,Washington
NorthAmerica,US,72737,Greenland,Arkansas,Washington
NorthAmerica,US,72741,Johnson,Arkansas,Washington
NorthAmerica,US,72744,Lincoln,Arkansas,Washington
NorthAmerica,US,72749,Morrow,Arkansas,Washington
NorthAmerica,US,72753,Prairie Grove,Arkansas,Washington
NorthAmerica,US,72762,Springdale,Arkansas,Washington
NorthAmerica,US,72764,Springdale,Arkansas,Washington
NorthAmerica,US,72765,Springdale,Arkansas,Washington
NorthAmerica,US,72766,Springdale,Arkansas,Washington
NorthAmerica,US,72769,Summers,Arkansas,Washington
NorthAmerica,US,72770,Tontitown,Arkansas,Washington
NorthAmerica,US,72774,West Fork,Arkansas,Washington
NorthAmerica,US,72959,Winslow,Arkansas,Washington
NorthAmerica,US,72010,Bald Knob,Arkansas,White
NorthAmerica,US,72012,Beebe,Arkansas,White
NorthAmerica,US,72020,Bradford,Arkansas,White
NorthAmerica,US,72045,El Paso,Arkansas,White
NorthAmerica,US,72052,Garner,Arkansas,White
NorthAmerica,US,72060,Griffithville,Arkansas,White
NorthAmerica,US,72068,Higginson,Arkansas,White
NorthAmerica,US,72081,Judsonia,Arkansas,White
NorthAmerica,US,72082,Kensett,Arkansas,White
NorthAmerica,US,72085,Letona,Arkansas,White
NorthAmerica,US,72102,Mc Rae,Arkansas,White
NorthAmerica,US,72121,Pangburn,Arkansas,White
NorthAmerica,US,72136,Romance,Arkansas,White
NorthAmerica,US,72137,Rose Bud,Arkansas,White
NorthAmerica,US,72139,Russell,Arkansas,White
NorthAmerica,US,72143,Searcy,Arkansas,White
NorthAmerica,US,72145,Searcy,Arkansas,White
NorthAmerica,US,72149,Searcy,Arkansas,White
NorthAmerica,US,72178,West Point,Arkansas,White
NorthAmerica,US,72006,Augusta,Arkansas,Woodruff
NorthAmerica,US,72036,Cotton Plant,Arkansas,Woodruff
NorthAmerica,US,72059,Gregory,Arkansas,Woodruff
NorthAmerica,US,72074,Hunter,Arkansas,Woodruff
NorthAmerica,US,72101,Mc Crory,Arkansas,Woodruff
NorthAmerica,US,72123,Patterson,Arkansas,Woodruff
NorthAmerica,US,72824,Belleville,Arkansas,Yell
NorthAmerica,US,72827,Bluffton,Arkansas,Yell
NorthAmerica,US,72828,Briggsville,Arkansas,Yell
NorthAmerica,US,72829,Centerville,Arkansas,Yell
NorthAmerica,US,72833,Danville,Arkansas,Yell
NorthAmerica,US,72834,Dardanelle,Arkansas,Yell
NorthAmerica,US,72838,Gravelly,Arkansas,Yell
NorthAmerica,US,72842,Havana,Arkansas,Yell
NorthAmerica,US,72853,Ola,Arkansas,Yell
NorthAmerica,US,72857,Plainview,Arkansas,Yell
NorthAmerica,US,72860,Rover,Arkansas,Yell
NorthAmerica,US,85602,Benson,Arizona,Cochise
NorthAmerica,US,85603,Bisbee,Arizona,Cochise
NorthAmerica,US,85605,Bowie,Arizona,Cochise
NorthAmerica,US,85606,Cochise,Arizona,Cochise
NorthAmerica,US,85607,Douglas,Arizona,Cochise
NorthAmerica,US,85608,Douglas,Arizona,Cochise
NorthAmerica,US,85609,Dragoon,Arizona,Cochise
NorthAmerica,US,85610,Elfrida,Arizona,Cochise
NorthAmerica,US,85613,Fort Huachuca,Arizona,Cochise
NorthAmerica,US,85615,Hereford,Arizona,Cochise
NorthAmerica,US,85616,Huachuca City,Arizona,Cochise
NorthAmerica,US,85617,Mc Neal,Arizona,Cochise
NorthAmerica,US,85620,Naco,Arizona,Cochise
NorthAmerica,US,85625,Pearce,Arizona,Cochise
NorthAmerica,US,85626,Pirtleville,Arizona,Cochise
NorthAmerica,US,85627,Pomerene,Arizona,Cochise
NorthAmerica,US,85630,Saint David,Arizona,Cochise
NorthAmerica,US,85632,San Simon,Arizona,Cochise
NorthAmerica,US,85635,Sierra Vista,Arizona,Cochise
NorthAmerica,US,85636,Sierra Vista,Arizona,Cochise
NorthAmerica,US,85638,Tombstone,Arizona,Cochise
NorthAmerica,US,85643,Willcox,Arizona,Cochise
NorthAmerica,US,85644,Willcox,Arizona,Cochise
NorthAmerica,US,85650,Sierra Vista,Arizona,Cochise
NorthAmerica,US,85655,Douglas,Arizona,Cochise
NorthAmerica,US,85670,Fort Huachuca,Arizona,Cochise
NorthAmerica,US,85671,Sierra Vista,Arizona,Cochise
NorthAmerica,US,85931,Forest Lakes,Arizona,Coconino
NorthAmerica,US,86001,Flagstaff,Arizona,Coconino
NorthAmerica,US,86002,Flagstaff,Arizona,Coconino
NorthAmerica,US,86003,Flagstaff,Arizona,Coconino
NorthAmerica,US,86004,Flagstaff,Arizona,Coconino
NorthAmerica,US,86005,Flagstaff,Arizona,Coconino
NorthAmerica,US,86011,Flagstaff,Arizona,Coconino
NorthAmerica,US,86015,Bellemont,Arizona,Coconino
NorthAmerica,US,86016,Gray Mountain,Arizona,Coconino
NorthAmerica,US,86017,Munds Park,Arizona,Coconino
NorthAmerica,US,86018,Parks,Arizona,Coconino
NorthAmerica,US,86020,Cameron,Arizona,Coconino
NorthAmerica,US,86022,Fredonia,Arizona,Coconino
NorthAmerica,US,86023,Grand Canyon,Arizona,Coconino
NorthAmerica,US,86024,Happy Jack,Arizona,Coconino
NorthAmerica,US,86035,Leupp,Arizona,Coconino
NorthAmerica,US,86036,Marble Canyon,Arizona,Coconino
NorthAmerica,US,86038,Mormon Lake,Arizona,Coconino
NorthAmerica,US,86040,Page,Arizona,Coconino
NorthAmerica,US,86044,Tonalea,Arizona,Coconino
NorthAmerica,US,86045,Tuba City,Arizona,Coconino
NorthAmerica,US,86046,Williams,Arizona,Coconino
NorthAmerica,US,86052,North Rim,Arizona,Coconino
NorthAmerica,US,86053,Kaibeto,Arizona,Coconino
NorthAmerica,US,86336,Sedona,Arizona,Coconino
NorthAmerica,US,86339,Sedona,Arizona,Coconino
NorthAmerica,US,86351,Sedona,Arizona,Coconino
NorthAmerica,US,86435,Supai,Arizona,Coconino
NorthAmerica,US,85135,Hayden,Arizona,Gila
NorthAmerica,US,85192,Winkelman,Arizona,Gila
NorthAmerica,US,85501,Globe,Arizona,Gila
NorthAmerica,US,85502,Globe,Arizona,Gila
NorthAmerica,US,85532,Claypool,Arizona,Gila
NorthAmerica,US,85539,Miami,Arizona,Gila
NorthAmerica,US,85541,Payson,Arizona,Gila
NorthAmerica,US,85542,Peridot,Arizona,Gila
NorthAmerica,US,85544,Pine,Arizona,Gila
NorthAmerica,US,85545,Roosevelt,Arizona,Gila
NorthAmerica,US,85547,Payson,Arizona,Gila
NorthAmerica,US,85550,San Carlos,Arizona,Gila
NorthAmerica,US,85553,Tonto Basin,Arizona,Gila
NorthAmerica,US,85554,Young,Arizona,Gila
NorthAmerica,US,85530,Bylas,Arizona,Graham
NorthAmerica,US,85531,Central,Arizona,Graham
NorthAmerica,US,85535,Eden,Arizona,Graham
NorthAmerica,US,85536,Fort Thomas,Arizona,Graham
NorthAmerica,US,85543,Pima,Arizona,Graham
NorthAmerica,US,85546,Safford,Arizona,Graham
NorthAmerica,US,85548,Safford,Arizona,Graham
NorthAmerica,US,85551,Solomon,Arizona,Graham
NorthAmerica,US,85552,Thatcher,Arizona,Graham
NorthAmerica,US,85533,Clifton,Arizona,Greenlee
NorthAmerica,US,85534,Duncan,Arizona,Greenlee
NorthAmerica,US,85540,Morenci,Arizona,Greenlee
NorthAmerica,US,85922,Blue,Arizona,Greenlee
NorthAmerica,US,85325,Bouse,Arizona,La Paz
NorthAmerica,US,85328,Cibola,Arizona,La Paz
NorthAmerica,US,85334,Ehrenberg,Arizona,La Paz
NorthAmerica,US,85344,Parker,Arizona,La Paz
NorthAmerica,US,85346,Quartzsite,Arizona,La Paz
NorthAmerica,US,85348,Salome,Arizona,La Paz
NorthAmerica,US,85357,Wenden,Arizona,La Paz
NorthAmerica,US,85359,Quartzsite,Arizona,La Paz
NorthAmerica,US,85371,Poston,Arizona,La Paz
NorthAmerica,US,85001,Phoenix,Arizona,Maricopa
NorthAmerica,US,85035,Phoenix,Arizona,Maricopa
NorthAmerica,US,85036,Phoenix,Arizona,Maricopa
NorthAmerica,US,85037,Phoenix,Arizona,Maricopa
NorthAmerica,US,85038,Phoenix,Arizona,Maricopa
NorthAmerica,US,85039,Phoenix,Arizona,Maricopa
NorthAmerica,US,85040,Phoenix,Arizona,Maricopa
NorthAmerica,US,85041,Phoenix,Arizona,Maricopa
NorthAmerica,US,85042,Phoenix,Arizona,Maricopa
NorthAmerica,US,85043,Phoenix,Arizona,Maricopa
NorthAmerica,US,85044,Phoenix,Arizona,Maricopa
NorthAmerica,US,85045,Phoenix,Arizona,Maricopa
NorthAmerica,US,85046,Phoenix,Arizona,Maricopa
NorthAmerica,US,85048,Phoenix,Arizona,Maricopa
NorthAmerica,US,85050,Phoenix,Arizona,Maricopa
NorthAmerica,US,85051,Phoenix,Arizona,Maricopa
NorthAmerica,US,85053,Phoenix,Arizona,Maricopa
NorthAmerica,US,85054,Phoenix,Arizona,Maricopa
NorthAmerica,US,85060,Phoenix,Arizona,Maricopa
NorthAmerica,US,85061,Phoenix,Arizona,Maricopa
NorthAmerica,US,85062,Phoenix,Arizona,Maricopa
NorthAmerica,US,85063,Phoenix,Arizona,Maricopa
NorthAmerica,US,85064,Phoenix,Arizona,Maricopa
NorthAmerica,US,85065,Phoenix,Arizona,Maricopa
NorthAmerica,US,85066,Phoenix,Arizona,Maricopa
NorthAmerica,US,85067,Phoenix,Arizona,Maricopa
NorthAmerica,US,85068,Phoenix,Arizona,Maricopa
NorthAmerica,US,85069,Phoenix,Arizona,Maricopa
NorthAmerica,US,85070,Phoenix,Arizona,Maricopa
NorthAmerica,US,85071,Phoenix,Arizona,Maricopa
NorthAmerica,US,85072,Phoenix,Arizona,Maricopa
NorthAmerica,US,85073,Phoenix,Arizona,Maricopa
NorthAmerica,US,85074,Phoenix,Arizona,Maricopa
NorthAmerica,US,85075,Phoenix,Arizona,Maricopa
NorthAmerica,US,85076,Phoenix,Arizona,Maricopa
NorthAmerica,US,85078,Phoenix,Arizona,Maricopa
NorthAmerica,US,85079,Phoenix,Arizona,Maricopa
NorthAmerica,US,85080,Phoenix,Arizona,Maricopa
NorthAmerica,US,85082,Phoenix,Arizona,Maricopa
NorthAmerica,US,85083,Phoenix,Arizona,Maricopa
NorthAmerica,US,85085,Phoenix,Arizona,Maricopa
NorthAmerica,US,85086,Phoenix,Arizona,Maricopa
NorthAmerica,US,85087,New River,Arizona,Maricopa
NorthAmerica,US,85097,Phoenix,Arizona,Maricopa
NorthAmerica,US,85098,Phoenix,Arizona,Maricopa
NorthAmerica,US,85127,Chandler Heights,Arizona,Maricopa
NorthAmerica,US,85142,Queen Creek,Arizona,Maricopa
NorthAmerica,US,85190,Tortilla Flat,Arizona,Maricopa
NorthAmerica,US,85201,Mesa,Arizona,Maricopa
NorthAmerica,US,85202,Mesa,Arizona,Maricopa
NorthAmerica,US,85203,Mesa,Arizona,Maricopa
NorthAmerica,US,85204,Mesa,Arizona,Maricopa
NorthAmerica,US,85205,Mesa,Arizona,Maricopa
NorthAmerica,US,85206,Mesa,Arizona,Maricopa
NorthAmerica,US,85207,Mesa,Arizona,Maricopa
NorthAmerica,US,85208,Mesa,Arizona,Maricopa
NorthAmerica,US,85388,Surprise,Arizona,Maricopa
NorthAmerica,US,85390,Wickenburg,Arizona,Maricopa
NorthAmerica,US,85392,Avondale,Arizona,Maricopa
NorthAmerica,US,85395,Goodyear,Arizona,Maricopa
NorthAmerica,US,85396,Buckeye,Arizona,Maricopa
NorthAmerica,US,85360,Wikieup,Arizona,Mohave
NorthAmerica,US,86021,Colorado City,Arizona,Mohave
NorthAmerica,US,86401,Kingman,Arizona,Mohave
NorthAmerica,US,86444,Meadview,Arizona,Mohave
NorthAmerica,US,86445,Willow Beach,Arizona,Mohave
NorthAmerica,US,86446,Mohave Valley,Arizona,Mohave
NorthAmerica,US,85901,Show Low,Arizona,Navajo
NorthAmerica,US,85902,Show Low,Arizona,Navajo
NorthAmerica,US,85911,Cibecue,Arizona,Navajo
NorthAmerica,US,85912,White Mountain Lake,Arizona,Navajo
NorthAmerica,US,85923,Clay Springs,Arizona,Navajo
NorthAmerica,US,85926,Fort Apache,Arizona,Navajo
NorthAmerica,US,86054,Shonto,Arizona,Navajo
NorthAmerica,US,86510,Pinon,Arizona,Navajo
NorthAmerica,US,86520,Blue Gap,Arizona,Navajo
NorthAmerica,US,85321,Ajo,Arizona,Pima
NorthAmerica,US,85341,Lukeville,Arizona,Pima
NorthAmerica,US,85601,Arivaca,Arizona,Pima
NorthAmerica,US,85119,Apache Junction,Arizona,Pinal
NorthAmerica,US,85120,Apache Junction,Arizona,Pinal
NorthAmerica,US,85640,Tumacacori,Arizona,Santa Cruz
NorthAmerica,US,85645,Amado,Arizona,Santa Cruz
NorthAmerica,US,85646,Tubac,Arizona,Santa Cruz
NorthAmerica,US,85648,Rio Rico,Arizona,Santa Cruz
NorthAmerica,US,85662,Nogales,Arizona,Santa Cruz
NorthAmerica,US,85324,Black Canyon City,Arizona,Yavapai
NorthAmerica,US,85332,Congress,Arizona,Yavapai
NorthAmerica,US,85362,Yarnell,Arizona,Yavapai
NorthAmerica,US,86301,Prescott,Arizona,Yavapai
NorthAmerica,US,86302,Prescott,Arizona,Yavapai
NorthAmerica,US,86303,Prescott,Arizona,Yavapai
NorthAmerica,US,86304,Prescott,Arizona,Yavapai
NorthAmerica,US,86305,Prescott,Arizona,Yavapai
NorthAmerica,US,86312,Prescott Valley,Arizona,Yavapai
NorthAmerica,US,86313,Prescott,Arizona,Yavapai
NorthAmerica,US,85350,Somerton,Arizona,Yuma
NorthAmerica,US,85352,Tacna,Arizona,Yuma
NorthAmerica,US,85356,Wellton,Arizona,Yuma
NorthAmerica,US,85364,Yuma,Arizona,Yuma
NorthAmerica,US,85365,Yuma,Arizona,Yuma
NorthAmerica,US,85366,Yuma,Arizona,Yuma
NorthAmerica,US,85367,Yuma,Arizona,Yuma
NorthAmerica,US,85369,Yuma,Arizona,Yuma
NorthAmerica,US,95646,Kirkwood,California,Alpine
NorthAmerica,US,96120,Markleeville,California,Alpine
NorthAmerica,US,95601,Amador City,California,Amador
NorthAmerica,US,95629,Fiddletown,California,Amador
NorthAmerica,US,95640,Ione,California,Amador
NorthAmerica,US,95642,Jackson,California,Amador
NorthAmerica,US,95644,Kit Carson,California,Amador
NorthAmerica,US,95654,Martell,California,Amador
NorthAmerica,US,95665,Pine Grove,California,Amador
NorthAmerica,US,95666,Pioneer,California,Amador
NorthAmerica,US,95669,Plymouth,California,Amador
NorthAmerica,US,95675,River Pines,California,Amador
NorthAmerica,US,95685,Sutter Creek,California,Amador
NorthAmerica,US,95689,Volcano,California,Amador
NorthAmerica,US,95699,Drytown,California,Amador
NorthAmerica,US,95914,Bangor,California,Butte
NorthAmerica,US,95916,Berry Creek,California,Butte
NorthAmerica,US,95917,Biggs,California,Butte
NorthAmerica,US,95926,Chico,California,Butte
NorthAmerica,US,95927,Chico,California,Butte
NorthAmerica,US,95928,Chico,California,Butte
NorthAmerica,US,95929,Chico,California,Butte
NorthAmerica,US,95930,Clipper Mills,California,Butte
NorthAmerica,US,95938,Durham,California,Butte
NorthAmerica,US,95940,Feather Falls,California,Butte
NorthAmerica,US,95941,Forbestown,California,Butte
NorthAmerica,US,95942,Forest Ranch,California,Butte
NorthAmerica,US,95948,Gridley,California,Butte
NorthAmerica,US,95954,Magalia,California,Butte
NorthAmerica,US,95958,Nelson,California,Butte
NorthAmerica,US,95965,Oroville,California,Butte
NorthAmerica,US,95966,Oroville,California,Butte
NorthAmerica,US,95967,Paradise,California,Butte
NorthAmerica,US,95968,Palermo,California,Butte
NorthAmerica,US,95969,Paradise,California,Butte
NorthAmerica,US,95973,Chico,California,Butte
NorthAmerica,US,95974,Richvale,California,Butte
NorthAmerica,US,95976,Chico,California,Butte
NorthAmerica,US,95978,Stirling City,California,Butte
NorthAmerica,US,95221,Altaville,California,Calaveras
NorthAmerica,US,95222,Angels Camp,California,Calaveras
NorthAmerica,US,95223,Arnold,California,Calaveras
NorthAmerica,US,95224,Avery,California,Calaveras
NorthAmerica,US,95225,Burson,California,Calaveras
NorthAmerica,US,95226,Campo Seco,California,Calaveras
NorthAmerica,US,95228,Copperopolis,California,Calaveras
NorthAmerica,US,95229,Douglas Flat,California,Calaveras
NorthAmerica,US,95232,Glencoe,California,Calaveras
NorthAmerica,US,95233,Hathaway Pines,California,Calaveras
NorthAmerica,US,95245,Mokelumne Hill,California,Calaveras
NorthAmerica,US,95246,Mountain Ranch,California,Calaveras
NorthAmerica,US,95247,Murphys,California,Calaveras
NorthAmerica,US,95248,Rail Road Flat,California,Calaveras
NorthAmerica,US,95249,San Andreas,California,Calaveras
NorthAmerica,US,95251,Vallecito,California,Calaveras
NorthAmerica,US,95252,Valley Springs,California,Calaveras
NorthAmerica,US,95254,Wallace,California,Calaveras
NorthAmerica,US,95255,West Point,California,Calaveras
NorthAmerica,US,95257,Wilseyville,California,Calaveras
NorthAmerica,US,95912,Arbuckle,California,Colusa
NorthAmerica,US,95932,Colusa,California,Colusa
NorthAmerica,US,95950,Grimes,California,Colusa
NorthAmerica,US,95955,Maxwell,California,Colusa
NorthAmerica,US,95970,Princeton,California,Colusa
NorthAmerica,US,95979,Stonyford,California,Colusa
NorthAmerica,US,95987,Williams,California,Colusa
NorthAmerica,US,94505,Discovery Bay,California,Contra Costa
NorthAmerica,US,94506,Danville,California,Contra Costa
NorthAmerica,US,94507,Alamo,California,Contra Costa
NorthAmerica,US,94509,Antioch,California,Contra Costa
NorthAmerica,US,94511,Bethel Island,California,Contra Costa
NorthAmerica,US,94513,Brentwood,California,Contra Costa
NorthAmerica,US,94514,Byron,California,Contra Costa
NorthAmerica,US,94516,Canyon,California,Contra Costa
NorthAmerica,US,94517,Clayton,California,Contra Costa
NorthAmerica,US,94518,Concord,California,Contra Costa
NorthAmerica,US,94519,Concord,California,Contra Costa
NorthAmerica,US,94520,Concord,California,Contra Costa
NorthAmerica,US,94521,Concord,California,Contra Costa
NorthAmerica,US,94522,Concord,California,Contra Costa
NorthAmerica,US,94523,Pleasant Hill,California,Contra Costa
NorthAmerica,US,94524,Concord,California,Contra Costa
NorthAmerica,US,94525,Crockett,California,Contra Costa
NorthAmerica,US,94526,Danville,California,Contra Costa
NorthAmerica,US,94527,Concord,California,Contra Costa
NorthAmerica,US,94528,Diablo,California,Contra Costa
NorthAmerica,US,94529,Concord,California,Contra Costa
NorthAmerica,US,94530,El Cerrito,California,Contra Costa
NorthAmerica,US,94531,Antioch,California,Contra Costa
NorthAmerica,US,95531,Crescent City,California,Del Norte
NorthAmerica,US,95532,Crescent City,California,Del Norte
NorthAmerica,US,95538,Fort Dick,California,Del Norte
NorthAmerica,US,95543,Gasquet,California,Del Norte
NorthAmerica,US,95548,Klamath,California,Del Norte
NorthAmerica,US,95567,Smith River,California,Del Norte
NorthAmerica,US,96157,South Lake Tahoe,California,El Dorado
NorthAmerica,US,96158,South Lake Tahoe,California,El Dorado
NorthAmerica,US,93210,Coalinga,California,Fresno
NorthAmerica,US,93234,Huron,California,Fresno
NorthAmerica,US,93242,Laton,California,Fresno
NorthAmerica,US,93771,Fresno,California,Fresno
NorthAmerica,US,93772,Fresno,California,Fresno
NorthAmerica,US,93773,Fresno,California,Fresno
NorthAmerica,US,93774,Fresno,California,Fresno
NorthAmerica,US,93775,Fresno,California,Fresno
NorthAmerica,US,93776,Fresno,California,Fresno
NorthAmerica,US,93777,Fresno,California,Fresno
NorthAmerica,US,93778,Fresno,California,Fresno
NorthAmerica,US,93779,Fresno,California,Fresno
NorthAmerica,US,93786,Fresno,California,Fresno
NorthAmerica,US,93790,Fresno,California,Fresno
NorthAmerica,US,93791,Fresno,California,Fresno
NorthAmerica,US,93792,Fresno,California,Fresno
NorthAmerica,US,93793,Fresno,California,Fresno
NorthAmerica,US,93794,Fresno,California,Fresno
NorthAmerica,US,93844,Fresno,California,Fresno
NorthAmerica,US,93888,Fresno,California,Fresno
NorthAmerica,US,95913,Artois,California,Glenn
NorthAmerica,US,95920,Butte City,California,Glenn
NorthAmerica,US,95939,Elk Creek,California,Glenn
NorthAmerica,US,95943,Glenn,California,Glenn
NorthAmerica,US,95951,Hamilton City,California,Glenn
NorthAmerica,US,95963,Orland,California,Glenn
NorthAmerica,US,95988,Willows,California,Glenn
NorthAmerica,US,95501,Eureka,California,Humboldt
NorthAmerica,US,95502,Eureka,California,Humboldt
NorthAmerica,US,95503,Eureka,California,Humboldt
NorthAmerica,US,92222,Bard,California,Imperial
NorthAmerica,US,92227,Brawley,California,Imperial
NorthAmerica,US,92231,Calexico,California,Imperial
NorthAmerica,US,92232,Calexico,California,Imperial
NorthAmerica,US,92233,Calipatria,California,Imperial
NorthAmerica,US,92243,El Centro,California,Imperial
NorthAmerica,US,92244,El Centro,California,Imperial
NorthAmerica,US,92249,Heber,California,Imperial
NorthAmerica,US,92250,Holtville,California,Imperial
NorthAmerica,US,92251,Imperial,California,Imperial
NorthAmerica,US,92257,Niland,California,Imperial
NorthAmerica,US,92259,Ocotillo,California,Imperial
NorthAmerica,US,92266,Palo Verde,California,Imperial
NorthAmerica,US,92273,Seeley,California,Imperial
NorthAmerica,US,92275,Salton City,California,Imperial
NorthAmerica,US,92281,Westmorland,California,Imperial
NorthAmerica,US,92283,Winterhaven,California,Imperial
NorthAmerica,US,92331,Fontana,California,Imperial
NorthAmerica,US,92328,Death Valley,California,Inyo
NorthAmerica,US,92384,Shoshone,California,Inyo
NorthAmerica,US,92389,Tecopa,California,Inyo
NorthAmerica,US,93513,Big Pine,California,Inyo
NorthAmerica,US,93514,Bishop,California,Inyo
NorthAmerica,US,93515,Bishop,California,Inyo
NorthAmerica,US,93522,Darwin,California,Inyo
NorthAmerica,US,93526,Independence,California,Inyo
NorthAmerica,US,93530,Keeler,California,Inyo
NorthAmerica,US,93542,Little Lake,California,Inyo
NorthAmerica,US,93545,Lone Pine,California,Inyo
NorthAmerica,US,93549,Olancha,California,Inyo
NorthAmerica,US,93203,Arvin,California,Kern
NorthAmerica,US,93205,Bodfish,California,Kern
NorthAmerica,US,93206,Buttonwillow,California,Kern
NorthAmerica,US,93215,Delano,California,Kern
NorthAmerica,US,93216,Delano,California,Kern
NorthAmerica,US,93220,Edison,California,Kern
NorthAmerica,US,93222,Pine Mountain Club,California,Kern
NorthAmerica,US,93224,Fellows,California,Kern
NorthAmerica,US,93225,Frazier Park,California,Kern
NorthAmerica,US,93516,Boron,California,Kern
NorthAmerica,US,93518,Caliente,California,Kern
NorthAmerica,US,93519,Cantil,California,Kern
NorthAmerica,US,93523,Edwards,California,Kern
NorthAmerica,US,93524,Edwards,California,Kern
NorthAmerica,US,93527,Inyokern,California,Kern
NorthAmerica,US,93528,Johannesburg,California,Kern
NorthAmerica,US,93531,Keene,California,Kern
NorthAmerica,US,93554,Randsburg,California,Kern
NorthAmerica,US,93555,Ridgecrest,California,Kern
NorthAmerica,US,93556,Ridgecrest,California,Kern
NorthAmerica,US,93560,Rosamond,California,Kern
NorthAmerica,US,93561,Tehachapi,California,Kern
NorthAmerica,US,93581,Tehachapi,California,Kern
NorthAmerica,US,93596,Boron,California,Kern
NorthAmerica,US,93202,Armona,California,Kings
NorthAmerica,US,93204,Avenal,California,Kings
NorthAmerica,US,93212,Corcoran,California,Kings
NorthAmerica,US,93230,Hanford,California,Kings
NorthAmerica,US,93232,Hanford,California,Kings
NorthAmerica,US,93239,Kettleman City,California,Kings
NorthAmerica,US,93245,Lemoore,California,Kings
NorthAmerica,US,93246,Lemoore,California,Kings
NorthAmerica,US,93266,Stratford,California,Kings
NorthAmerica,US,95422,Clearlake,California,Lake
NorthAmerica,US,95423,Clearlake Oaks,California,Lake
NorthAmerica,US,95424,Clearlake Park,California,Lake
NorthAmerica,US,95426,Cobb,California,Lake
NorthAmerica,US,95435,Finley,California,Lake
NorthAmerica,US,95443,Glenhaven,California,Lake
NorthAmerica,US,95451,Kelseyville,California,Lake
NorthAmerica,US,95453,Lakeport,California,Lake
NorthAmerica,US,95457,Lower Lake,California,Lake
NorthAmerica,US,95458,Lucerne,California,Lake
NorthAmerica,US,95461,Middletown,California,Lake
NorthAmerica,US,95464,Nice,California,Lake
NorthAmerica,US,95467,Hidden Valley Lake,California,Lake
NorthAmerica,US,95485,Upper Lake,California,Lake
NorthAmerica,US,95493,Witter Springs,California,Lake
NorthAmerica,US,96009,Bieber,California,Lassen
NorthAmerica,US,96068,Nubieber,California,Lassen
NorthAmerica,US,96109,Doyle,California,Lassen
NorthAmerica,US,96113,Herlong,California,Lassen
NorthAmerica,US,96114,Janesville,California,Lassen
NorthAmerica,US,96117,Litchfield,California,Lassen
NorthAmerica,US,96119,Madeline,California,Lassen
NorthAmerica,US,96121,Milford,California,Lassen
NorthAmerica,US,96123,Ravendale,California,Lassen
NorthAmerica,US,96127,Susanville,California,Lassen
NorthAmerica,US,96128,Standish,California,Lassen
NorthAmerica,US,96130,Susanville,California,Lassen
NorthAmerica,US,96132,Termo,California,Lassen
NorthAmerica,US,96136,Wendel,California,Lassen
NorthAmerica,US,96137,Westwood,California,Lassen
NorthAmerica,US,90001,Los Angeles,California,Los Angeles
NorthAmerica,US,90002,Los Angeles,California,Los Angeles
NorthAmerica,US,90003,Los Angeles,California,Los Angeles
NorthAmerica,US,90004,Los Angeles,California,Los Angeles
NorthAmerica,US,90005,Los Angeles,California,Los Angeles
NorthAmerica,US,90006,Los Angeles,California,Los Angeles
NorthAmerica,US,90007,Los Angeles,California,Los Angeles
NorthAmerica,US,93601,Ahwahnee,California,Madera
NorthAmerica,US,93604,Bass Lake,California,Madera
NorthAmerica,US,93610,Chowchilla,California,Madera
NorthAmerica,US,93614,Coarsegold,California,Madera
NorthAmerica,US,93637,Madera,California,Madera
NorthAmerica,US,93638,Madera,California,Madera
NorthAmerica,US,93639,Madera,California,Madera
NorthAmerica,US,93643,North Fork,California,Madera
NorthAmerica,US,93644,Oakhurst,California,Madera
NorthAmerica,US,93645,O Neals,California,Madera
NorthAmerica,US,93653,Raymond,California,Madera
NorthAmerica,US,93669,Wishon,California,Madera
NorthAmerica,US,94901,San Rafael,California,Marin
NorthAmerica,US,94903,San Rafael,California,Marin
NorthAmerica,US,94904,Greenbrae,California,Marin
NorthAmerica,US,94912,San Rafael,California,Marin
NorthAmerica,US,94913,San Rafael,California,Marin
NorthAmerica,US,94914,Kentfield,California,Marin
NorthAmerica,US,94915,San Rafael,California,Marin
NorthAmerica,US,94920,Belvedere Tiburon,California,Marin
NorthAmerica,US,94924,Bolinas,California,Marin
NorthAmerica,US,94925,Corte Madera,California,Marin
NorthAmerica,US,94929,Dillon Beach,California,Marin
NorthAmerica,US,94930,Fairfax,California,Marin
NorthAmerica,US,94933,Forest Knolls,California,Marin
NorthAmerica,US,94937,Inverness,California,Marin
NorthAmerica,US,94938,Lagunitas,California,Marin
NorthAmerica,US,94939,Larkspur,California,Marin
NorthAmerica,US,94940,Marshall,California,Marin
NorthAmerica,US,94941,Mill Valley,California,Marin
NorthAmerica,US,94942,Mill Valley,California,Marin
NorthAmerica,US,94945,Novato,California,Marin
NorthAmerica,US,94946,Nicasio,California,Marin
NorthAmerica,US,94947,Novato,California,Marin
NorthAmerica,US,94948,Novato,California,Marin
NorthAmerica,US,94949,Novato,California,Marin
NorthAmerica,US,94950,Olema,California,Marin
NorthAmerica,US,94956,Point Reyes Station,California,Marin
NorthAmerica,US,94957,Ross,California,Marin
NorthAmerica,US,94960,San Anselmo,California,Marin
NorthAmerica,US,94963,San Geronimo,California,Marin
NorthAmerica,US,94964,San Quentin,California,Marin
NorthAmerica,US,94965,Sausalito,California,Marin
NorthAmerica,US,94966,Sausalito,California,Marin
NorthAmerica,US,94970,Stinson Beach,California,Marin
NorthAmerica,US,94971,Tomales,California,Marin
NorthAmerica,US,94973,Woodacre,California,Marin
NorthAmerica,US,94974,San Quentin,California,Marin
NorthAmerica,US,94976,Corte Madera,California,Marin
NorthAmerica,US,94977,Larkspur,California,Marin
NorthAmerica,US,94978,Fairfax,California,Marin
NorthAmerica,US,94979,San Anselmo,California,Marin
NorthAmerica,US,94998,Novato,California,Marin
NorthAmerica,US,95410,Albion,California,Mendocino
NorthAmerica,US,95415,Boonville,California,Mendocino
NorthAmerica,US,95417,Branscomb,California,Mendocino
NorthAmerica,US,95418,Calpella,California,Mendocino
NorthAmerica,US,95420,Caspar,California,Mendocino
NorthAmerica,US,95427,Comptche,California,Mendocino
NorthAmerica,US,95428,Covelo,California,Mendocino
NorthAmerica,US,95429,Dos Rios,California,Mendocino
NorthAmerica,US,95432,Elk,California,Mendocino
NorthAmerica,US,95437,Fort Bragg,California,Mendocino
NorthAmerica,US,95445,Gualala,California,Mendocino
NorthAmerica,US,95449,Hopland,California,Mendocino
NorthAmerica,US,95454,Laytonville,California,Mendocino
NorthAmerica,US,95456,Little River,California,Mendocino
NorthAmerica,US,95459,Manchester,California,Mendocino
NorthAmerica,US,95460,Mendocino,California,Mendocino
NorthAmerica,US,95463,Navarro,California,Mendocino
NorthAmerica,US,95466,Philo,California,Mendocino
NorthAmerica,US,95468,Point Arena,California,Mendocino
NorthAmerica,US,95469,Potter Valley,California,Mendocino
NorthAmerica,US,95470,Redwood Valley,California,Mendocino
NorthAmerica,US,95481,Talmage,California,Mendocino
NorthAmerica,US,95482,Ukiah,California,Mendocino
NorthAmerica,US,95488,Westport,California,Mendocino
NorthAmerica,US,95490,Willits,California,Mendocino
NorthAmerica,US,95494,Yorkville,California,Mendocino
NorthAmerica,US,95585,Leggett,California,Mendocino
NorthAmerica,US,95587,Piercy,California,Mendocino
NorthAmerica,US,93512,Benton,California,Mono
NorthAmerica,US,93517,Bridgeport,California,Mono
NorthAmerica,US,93529,June Lake,California,Mono
NorthAmerica,US,93541,Lee Vining,California,Mono
NorthAmerica,US,93546,Mammoth Lakes,California,Mono
NorthAmerica,US,96107,Coleville,California,Mono
NorthAmerica,US,96133,Topaz,California,Mono
NorthAmerica,US,94503,American Canyon,California,Napa
NorthAmerica,US,94508,Angwin,California,Napa
NorthAmerica,US,94515,Calistoga,California,Napa
NorthAmerica,US,94558,Napa,California,Napa
NorthAmerica,US,94559,Napa,California,Napa
NorthAmerica,US,94562,Oakville,California,Napa
NorthAmerica,US,94567,Pope Valley,California,Napa
NorthAmerica,US,94573,Rutherford,California,Napa
NorthAmerica,US,94574,Saint Helena,California,Napa
NorthAmerica,US,94576,Deer Park,California,Napa
NorthAmerica,US,94581,Napa,California,Napa
NorthAmerica,US,94599,Yountville,California,Napa
NorthAmerica,US,95712,Chicago Park,California,Nevada
NorthAmerica,US,95724,Norden,California,Nevada
NorthAmerica,US,95728,Soda Springs,California,Nevada
NorthAmerica,US,95924,Cedar Ridge,California,Nevada
NorthAmerica,US,95945,Grass Valley,California,Nevada
NorthAmerica,US,95946,Penn Valley,California,Nevada
NorthAmerica,US,95949,Grass Valley,California,Nevada
NorthAmerica,US,95959,Nevada City,California,Nevada
NorthAmerica,US,95960,North San Juan,California,Nevada
NorthAmerica,US,95975,Rough And Ready,California,Nevada
NorthAmerica,US,95977,Smartsville,California,Nevada
NorthAmerica,US,95986,Washington,California,Nevada
NorthAmerica,US,96111,Floriston,California,Nevada
NorthAmerica,US,96160,Truckee,California,Nevada
NorthAmerica,US,96161,Truckee,California,Nevada
NorthAmerica,US,96162,Truckee,California,Nevada
NorthAmerica,US,95602,Auburn,California,Placer
NorthAmerica,US,95603,Auburn,California,Placer
NorthAmerica,US,95604,Auburn,California,Placer
NorthAmerica,US,95631,Foresthill,California,Placer
NorthAmerica,US,95648,Lincoln,California,Placer
NorthAmerica,US,95650,Loomis,California,Placer
NorthAmerica,US,95658,Newcastle,California,Placer
NorthAmerica,US,95661,Roseville,California,Placer
NorthAmerica,US,95663,Penryn,California,Placer
NorthAmerica,US,95677,Rocklin,California,Placer
NorthAmerica,US,95678,Roseville,California,Placer
NorthAmerica,US,95681,Sheridan,California,Placer
NorthAmerica,US,95701,Alta,California,Placer
NorthAmerica,US,95703,Applegate,California,Placer
NorthAmerica,US,95713,Colfax,California,Placer
NorthAmerica,US,95714,Dutch Flat,California,Placer
NorthAmerica,US,95715,Emigrant Gap,California,Placer
NorthAmerica,US,95717,Gold Run,California,Placer
NorthAmerica,US,95722,Meadow Vista,California,Placer
NorthAmerica,US,95736,Weimar,California,Placer
NorthAmerica,US,95746,Granite Bay,California,Placer
NorthAmerica,US,95747,Roseville,California,Placer
NorthAmerica,US,95765,Rocklin,California,Placer
NorthAmerica,US,96140,Carnelian Bay,California,Placer
NorthAmerica,US,96141,Homewood,California,Placer
NorthAmerica,US,96143,Kings Beach,California,Placer
NorthAmerica,US,96145,Tahoe City,California,Placer
NorthAmerica,US,96146,Olympic Valley,California,Placer
NorthAmerica,US,96148,Tahoe Vista,California,Placer
NorthAmerica,US,95915,Belden,California,Plumas
NorthAmerica,US,95923,Canyon Dam,California,Plumas
NorthAmerica,US,95934,Crescent Mills,California,Plumas
NorthAmerica,US,95947,Greenville,California,Plumas
NorthAmerica,US,95956,Meadow Valley,California,Plumas
NorthAmerica,US,95971,Quincy,California,Plumas
NorthAmerica,US,95980,Storrie,California,Plumas
NorthAmerica,US,95983,Taylorsville,California,Plumas
NorthAmerica,US,95984,Twain,California,Plumas
NorthAmerica,US,96020,Chester,California,Plumas
NorthAmerica,US,96103,Blairsden Graeagle,California,Plumas
NorthAmerica,US,96105,Chilcoot,California,Plumas
NorthAmerica,US,96106,Clio,California,Plumas
NorthAmerica,US,96122,Portola,California,Plumas
NorthAmerica,US,96129,Beckwourth,California,Plumas
NorthAmerica,US,96135,Vinton,California,Plumas
NorthAmerica,US,94203,Sacramento,California,Sacramento
NorthAmerica,US,94204,Sacramento,California,Sacramento
NorthAmerica,US,94205,Sacramento,California,Sacramento
NorthAmerica,US,95652,Mcclellan,California,Sacramento
NorthAmerica,US,95655,Mather,California,Sacramento
NorthAmerica,US,95660,North Highlands,California,Sacramento
NorthAmerica,US,95662,Orangevale,California,Sacramento
NorthAmerica,US,95670,Rancho Cordova,California,Sacramento
NorthAmerica,US,95671,Represa,California,Sacramento
NorthAmerica,US,95673,Rio Linda,California,Sacramento
NorthAmerica,US,95680,Ryde,California,Sacramento
NorthAmerica,US,95683,Sloughhouse,California,Sacramento
NorthAmerica,US,95690,Walnut Grove,California,Sacramento
NorthAmerica,US,95693,Wilton,California,Sacramento
NorthAmerica,US,95741,Rancho Cordova,California,Sacramento
NorthAmerica,US,95742,Rancho Cordova,California,Sacramento
NorthAmerica,US,95757,Elk Grove,California,Sacramento
NorthAmerica,US,95758,Elk Grove,California,Sacramento
NorthAmerica,US,95759,Elk Grove,California,Sacramento
NorthAmerica,US,95763,Folsom,California,Sacramento
NorthAmerica,US,95811,Sacramento,California,Sacramento
NorthAmerica,US,95812,Sacramento,California,Sacramento
NorthAmerica,US,95813,Sacramento,California,Sacramento
NorthAmerica,US,95814,Sacramento,California,Sacramento
NorthAmerica,US,95815,Sacramento,California,Sacramento
NorthAmerica,US,95816,Sacramento,California,Sacramento
NorthAmerica,US,95817,Sacramento,California,Sacramento
NorthAmerica,US,95818,Sacramento,California,Sacramento
NorthAmerica,US,95819,Sacramento,California,Sacramento
NorthAmerica,US,95820,Sacramento,California,Sacramento
NorthAmerica,US,95821,Sacramento,California,Sacramento
NorthAmerica,US,95822,Sacramento,California,Sacramento
NorthAmerica,US,95823,Sacramento,California,Sacramento
NorthAmerica,US,95824,Sacramento,California,Sacramento
NorthAmerica,US,95825,Sacramento,California,Sacramento
NorthAmerica,US,95826,Sacramento,California,Sacramento
NorthAmerica,US,95827,Sacramento,California,Sacramento
NorthAmerica,US,95828,Sacramento,California,Sacramento
NorthAmerica,US,95829,Sacramento,California,Sacramento
NorthAmerica,US,95830,Sacramento,California,Sacramento
NorthAmerica,US,95831,Sacramento,California,Sacramento
NorthAmerica,US,95832,Sacramento,California,Sacramento
NorthAmerica,US,95833,Sacramento,California,Sacramento
NorthAmerica,US,95834,Sacramento,California,Sacramento
NorthAmerica,US,95835,Sacramento,California,Sacramento
NorthAmerica,US,95836,Sacramento,California,Sacramento
NorthAmerica,US,95837,Sacramento,California,Sacramento
NorthAmerica,US,95838,Sacramento,California,Sacramento
NorthAmerica,US,95840,Sacramento,California,Sacramento
NorthAmerica,US,95841,Sacramento,California,Sacramento
NorthAmerica,US,95842,Sacramento,California,Sacramento
NorthAmerica,US,95843,Antelope,California,Sacramento
NorthAmerica,US,95851,Sacramento,California,Sacramento
NorthAmerica,US,95852,Sacramento,California,Sacramento
NorthAmerica,US,95853,Sacramento,California,Sacramento
NorthAmerica,US,95860,Sacramento,California,Sacramento
NorthAmerica,US,95864,Sacramento,California,Sacramento
NorthAmerica,US,95865,Sacramento,California,Sacramento
NorthAmerica,US,95866,Sacramento,California,Sacramento
NorthAmerica,US,95867,Sacramento,California,Sacramento
NorthAmerica,US,95894,Sacramento,California,Sacramento
NorthAmerica,US,95899,Sacramento,California,Sacramento
NorthAmerica,US,91901,Alpine,California,San Diego
NorthAmerica,US,91902,Bonita,California,San Diego
NorthAmerica,US,91903,Alpine,California,San Diego
NorthAmerica,US,91905,Boulevard,California,San Diego
NorthAmerica,US,91906,Campo,California,San Diego
NorthAmerica,US,91908,Bonita,California,San Diego
NorthAmerica,US,91909,Chula Vista,California,San Diego
NorthAmerica,US,91910,Chula Vista,California,San Diego
NorthAmerica,US,91911,Chula Vista,California,San Diego
NorthAmerica,US,91912,Chula Vista,California,San Diego
NorthAmerica,US,91913,Chula Vista,California,San Diego
NorthAmerica,US,91914,Chula Vista,California,San Diego
NorthAmerica,US,91915,Chula Vista,California,San Diego
NorthAmerica,US,94102,San Francisco,California,City and County of San Francisco
NorthAmerica,US,94103,San Francisco,California,City and County of San Francisco
NorthAmerica,US,94104,San Francisco,California,City and County of San Francisco
NorthAmerica,US,94105,San Francisco,California,City and County of San Francisco
NorthAmerica,US,94107,San Francisco,California,City and County of San Francisco
NorthAmerica,US,94108,San Francisco,California,City and County of San Francisco
NorthAmerica,US,94109,San Francisco,California,City and County of San Francisco
NorthAmerica,US,95201,Stockton,California,San Joaquin
NorthAmerica,US,95202,Stockton,California,San Joaquin
NorthAmerica,US,95203,Stockton,California,San Joaquin
NorthAmerica,US,95204,Stockton,California,San Joaquin
NorthAmerica,US,95205,Stockton,California,San Joaquin
NorthAmerica,US,95206,Stockton,California,San Joaquin
NorthAmerica,US,95207,Stockton,California,San Joaquin
NorthAmerica,US,95208,Stockton,California,San Joaquin
NorthAmerica,US,95209,Stockton,California,San Joaquin
NorthAmerica,US,95210,Stockton,California,San Joaquin
NorthAmerica,US,95211,Stockton,California,San Joaquin
NorthAmerica,US,95212,Stockton,California,San Joaquin
NorthAmerica,US,95213,Stockton,California,San Joaquin
NorthAmerica,US,95214,Stockton,California,San Joaquin
NorthAmerica,US,95215,Stockton,California,San Joaquin
NorthAmerica,US,95219,Stockton,California,San Joaquin
NorthAmerica,US,94002,Belmont,California,San Mateo
NorthAmerica,US,94005,Brisbane,California,San Mateo
NorthAmerica,US,94010,Burlingame,California,San Mateo
NorthAmerica,US,94011,Burlingame,California,San Mateo
NorthAmerica,US,94014,Daly City,California,San Mateo
NorthAmerica,US,94015,Daly City,California,San Mateo
NorthAmerica,US,94016,Daly City,California,San Mateo
NorthAmerica,US,94017,Daly City,California,San Mateo
NorthAmerica,US,94018,El Granada,California,San Mateo
NorthAmerica,US,94019,Half Moon Bay,California,San Mateo
NorthAmerica,US,94020,La Honda,California,San Mateo
NorthAmerica,US,94021,Loma Mar,California,San Mateo
NorthAmerica,US,94025,Menlo Park,California,San Mateo
NorthAmerica,US,94026,Menlo Park,California,San Mateo
NorthAmerica,US,94027,Atherton,California,San Mateo
NorthAmerica,US,94028,Portola Valley,California,San Mateo
NorthAmerica,US,94030,Millbrae,California,San Mateo
NorthAmerica,US,94037,Montara,California,San Mateo
NorthAmerica,US,94038,Moss Beach,California,San Mateo
NorthAmerica,US,94044,Pacifica,California,San Mateo
NorthAmerica,US,94060,Pescadero,California,San Mateo
NorthAmerica,US,94061,Redwood City,California,San Mateo
NorthAmerica,US,94062,Redwood City,California,San Mateo
NorthAmerica,US,94063,Redwood City,California,San Mateo
NorthAmerica,US,94064,Redwood City,California,San Mateo
NorthAmerica,US,94065,Redwood City,California,San Mateo
NorthAmerica,US,94066,San Bruno,California,San Mateo
NorthAmerica,US,94070,San Carlos,California,San Mateo
NorthAmerica,US,94074,San Gregorio,California,San Mateo
NorthAmerica,US,94080,South San Francisco,California,San Mateo
NorthAmerica,US,94083,South San Francisco,California,San Mateo
NorthAmerica,US,94128,San Francisco,California,San Mateo
NorthAmerica,US,94303,Palo Alto,California,San Mateo
NorthAmerica,US,94401,San Mateo,California,San Mateo
NorthAmerica,US,94402,San Mateo,California,San Mateo
NorthAmerica,US,94403,San Mateo,California,San Mateo
NorthAmerica,US,94404,San Mateo,California,San Mateo
NorthAmerica,US,94497,San Mateo,California,San Mateo
NorthAmerica,US,93013,Carpinteria,California,Santa Barbara
NorthAmerica,US,93014,Carpinteria,California,Santa Barbara
NorthAmerica,US,93067,Summerland,California,Santa Barbara
NorthAmerica,US,93101,Santa Barbara,California,Santa Barbara
NorthAmerica,US,93102,Santa Barbara,California,Santa Barbara
NorthAmerica,US,93103,Santa Barbara,California,Santa Barbara
NorthAmerica,US,93105,Santa Barbara,California,Santa Barbara
NorthAmerica,US,93106,Santa Barbara,California,Santa Barbara
NorthAmerica,US,93107,Santa Barbara,California,Santa Barbara
NorthAmerica,US,93108,Santa Barbara,California,Santa Barbara
NorthAmerica,US,93109,Santa Barbara,California,Santa Barbara
NorthAmerica,US,93110,Santa Barbara,California,Santa Barbara
NorthAmerica,US,20001,Washington,District of Columbia,District of Columbia
NorthAmerica,US,20002,Washington,District of Columbia,District of Columbia
NorthAmerica,US,20003,Washington,District of Columbia,District of Columbia
NorthAmerica,US,20004,Washington,District of Columbia,District of Columbia
NorthAmerica,US,20005,Washington,District of Columbia,District of Columbia
NorthAmerica,US,20006,Washington,District of Columbia,District of Columbia
NorthAmerica,US,20007,Washington,District of Columbia,District of Columbia
NorthAmerica,US,20008,Washington,District of Columbia,District of Columbia
NorthAmerica,US,20009,Washington,District of Columbia,District of Columbia
NorthAmerica,US,20010,Washington,District of Columbia,District of Columbia